{
"type": "FeatureCollection",
"name": "Áreas implantadas",
"crs": { "type": "name", "properties": { "name": "urn:ogc:def:crs:OGC:1.3:CRS84" } },
"features": [
{ "type": "Feature", "properties": { "fid": 1, "NAME": "Aclimação", "COD": 249.0, "SETOR": "Leste", "layer": "Aclimação", "path": "C:/Users/Aplicativos/OneDrive/Área de Trabalho/Wolbachia/2ª etapa/Mapas/Mapas/Mapas/aclimação/aclimação.shp" }, "geometry": { "type": "MultiPolygon", "coordinates": [ [ [ [ -48.2427756, -18.8823489 ], [ -48.2427314, -18.8818474 ], [ -48.242659, -18.881548 ], [ -48.2425257, -18.8809655 ], [ -48.2423452, -18.880241 ], [ -48.2422593, -18.8798527 ], [ -48.2421547, -18.8794821 ], [ -48.2420313, -18.8793019 ], [ -48.2419106, -18.8791725 ], [ -48.2417309, -18.8790405 ], [ -48.2415432, -18.8789568 ], [ -48.2408138, -18.8788393 ], [ -48.2406607, -18.8788147 ], [ -48.2400385, -18.8786446 ], [ -48.2394591, -18.8784492 ], [ -48.239218, -18.8783541 ], [ -48.2389155, -18.8782347 ], [ -48.2384318, -18.8780355 ], [ -48.237477, -18.8774545 ], [ -48.237237, -18.8772469 ], [ -48.2370023, -18.8772099 ], [ -48.2368728, -18.8771197 ], [ -48.2368044, -18.8769856 ], [ -48.2337862, -18.8681334 ], [ -48.2338669, -18.8679068 ], [ -48.2334514, -18.8677773 ], [ -48.2329968, -18.8675506 ], [ -48.2327427, -18.8674165 ], [ -48.2322197, -18.8669632 ], [ -48.2279282, -18.8626063 ], [ -48.2280651, -18.8621808 ], [ -48.2239778, -18.8636495 ], [ -48.2242326, -18.8645213 ], [ -48.2227198, -18.8649414 ], [ -48.2220707, -18.8651394 ], [ -48.222996, -18.8680476 ], [ -48.2259116, -18.8767144 ], [ -48.2264119, -18.8781765 ], [ -48.2270325, -18.8800196 ], [ -48.2276009, -18.8816915 ], [ -48.2282257, -18.8835356 ], [ -48.2285181, -18.8844314 ], [ -48.228576, -18.8846245 ], [ -48.229075, -18.8846638 ], [ -48.2291741, -18.8846713 ], [ -48.2295554, -18.8847023 ], [ -48.2295788, -18.8847581 ], [ -48.2299114, -18.8856314 ], [ -48.2302462, -18.8864257 ], [ -48.2307884, -18.8877178 ], [ -48.2310181, -18.8876187 ], [ -48.231055, -18.887707 ], [ -48.2319743, -18.8873484 ], [ -48.2323176, -18.8873941 ], [ -48.2325349, -18.8873941 ], [ -48.2330767, -18.8872012 ], [ -48.233589, -18.8870718 ], [ -48.2343186, -18.8869652 ], [ -48.2354612, -18.8868485 ], [ -48.2362172, -18.8867039 ], [ -48.2364697, -18.8866556 ], [ -48.2370973, -18.8864729 ], [ -48.2381273, -18.8860973 ], [ -48.2394309, -18.8854171 ], [ -48.2427756, -18.8823489 ] ] ] ] } },
{ "type": "Feature", "properties": { "fid": 2, "NAME": "Bom Jesus", "COD": 253.0, "SETOR": "Central", "layer": "Bom Jesus", "path": "C:/Users/Aplicativos/OneDrive/Área de Trabalho/Wolbachia/2ª etapa/Mapas/Mapas/Mapas/bom_jesus/bom jesus.shp" }, "geometry": { "type": "MultiPolygon", "coordinates": [ [ [ [ -48.2715122, -18.8952625 ], [ -48.2708529, -18.8957254 ], [ -48.2705921, -18.8959784 ], [ -48.2705006, -18.8960671 ], [ -48.2700178, -18.8966722 ], [ -48.2697411, -18.8971872 ], [ -48.2695935, -18.8978796 ], [ -48.2696488, -18.8983247 ], [ -48.2697565, -18.8987815 ], [ -48.2703254, -18.8998318 ], [ -48.2751026, -18.9089052 ], [ -48.2755337, -18.9096401 ], [ -48.2758671, -18.9095573 ], [ -48.2763207, -18.9096931 ], [ -48.2769909, -18.9098777 ], [ -48.2774522, -18.9100077 ], [ -48.2777922, -18.9089331 ], [ -48.2781757, -18.9078026 ], [ -48.2785285, -18.9067217 ], [ -48.2788342, -18.9058152 ], [ -48.2791407, -18.9048553 ], [ -48.2792893, -18.9044101 ], [ -48.2794471, -18.9038633 ], [ -48.2796253, -18.9033 ], [ -48.2794764, -18.9032731 ], [ -48.279097, -18.9031932 ], [ -48.278455, -18.9030657 ], [ -48.2781275, -18.9029902 ], [ -48.2778452, -18.902915 ], [ -48.2776755, -18.9028596 ], [ -48.27754, -18.9028037 ], [ -48.2772691, -18.9026718 ], [ -48.2770244, -18.9025214 ], [ -48.2769092, -18.9024406 ], [ -48.2766268, -18.9022099 ], [ -48.2763404, -18.9019905 ], [ -48.2761594, -18.901823 ], [ -48.2756836, -18.9014541 ], [ -48.275055, -18.9009633 ], [ -48.2749882, -18.9009106 ], [ -48.2743194, -18.9003683 ], [ -48.273616, -18.8998145 ], [ -48.2730105, -18.899352 ], [ -48.2728529, -18.899234 ], [ -48.2722259, -18.8986882 ], [ -48.2720133, -18.8984581 ], [ -48.2718671, -18.8982576 ], [ -48.2717149, -18.8980221 ], [ -48.2716231, -18.8978389 ], [ -48.2715362, -18.8976509 ], [ -48.2714736, -18.897446 ], [ -48.2714608, -18.8973187 ], [ -48.2714541, -18.8971847 ], [ -48.2714333, -18.8968118 ], [ -48.2714519, -18.8962096 ], [ -48.2714743, -18.8956008 ], [ -48.2715122, -18.8952625 ] ] ] ] } },
{ "type": "Feature", "properties": { "fid": 3, "NAME": "Brasil", "COD": 254.0, "SETOR": "Central", "layer": "Brasil", "path": "C:/Users/Aplicativos/OneDrive/Área de Trabalho/Wolbachia/2ª etapa/Mapas/Mapas/Mapas/brasil/brasil.shp" }, "geometry": { "type": "MultiPolygon", "coordinates": [ [ [ [ -48.2604713, -18.9023133 ], [ -48.2605556, -18.9023433 ], [ -48.2606101, -18.9023448 ], [ -48.2606522, -18.9023559 ], [ -48.2607085, -18.9023756 ], [ -48.2608145, -18.9024371 ], [ -48.2607932, -18.9023841 ], [ -48.2607957, -18.9023267 ], [ -48.2608125, -18.9022778 ], [ -48.2608654, -18.9022239 ], [ -48.2609345, -18.9021744 ], [ -48.2616949, -18.9016606 ], [ -48.2623894, -18.9011871 ], [ -48.2629208, -18.9008571 ], [ -48.2641919, -18.8999842 ], [ -48.2653845, -18.8991792 ], [ -48.2661501, -18.8986522 ], [ -48.2669051, -18.8981625 ], [ -48.2678064, -18.8975539 ], [ -48.2687075, -18.8969546 ], [ -48.2695911, -18.8963577 ], [ -48.2704618, -18.8957825 ], [ -48.2705658, -18.8959411 ], [ -48.2705921, -18.8959784 ], [ -48.2708529, -18.8957254 ], [ -48.2715122, -18.8952625 ], [ -48.2715717, -18.8948196 ], [ -48.2716191, -18.8943179 ], [ -48.2716271, -18.894101 ], [ -48.2716245, -18.8938167 ], [ -48.271587, -18.8932839 ], [ -48.2715238, -18.8929412 ], [ -48.2714488, -18.8926014 ], [ -48.2713191, -18.89221 ], [ -48.2712033, -18.8919084 ], [ -48.2710666, -18.8916293 ], [ -48.2709405, -18.8914034 ], [ -48.2704443, -18.8907055 ], [ -48.2699293, -18.8900457 ], [ -48.2694393, -18.8893643 ], [ -48.2689289, -18.8886633 ], [ -48.2684326, -18.8879951 ], [ -48.2679096, -18.8873036 ], [ -48.2673935, -18.886664 ], [ -48.2669065, -18.8859961 ], [ -48.2667166, -18.8856128 ], [ -48.2666302, -18.8853897 ], [ -48.2665613, -18.8852468 ], [ -48.266049, -18.8845531 ], [ -48.2659484, -18.884419 ], [ -48.2590521, -18.8889335 ], [ -48.2555709, -18.8910088 ], [ -48.2513243, -18.8935191 ], [ -48.2516709, -18.8940499 ], [ -48.2519841, -18.8943667 ], [ -48.2539091, -18.895355 ], [ -48.2545702, -18.8958118 ], [ -48.25746, -18.8982255 ], [ -48.2578567, -18.8987085 ], [ -48.2602053, -18.9018797 ], [ -48.2604713, -18.9023133 ] ] ] ] } },
{ "type": "Feature", "properties": { "fid": 4, "NAME": "Centro", "COD": 255.0, "SETOR": "Central", "layer": "Centro", "path": "C:/Users/Aplicativos/OneDrive/Área de Trabalho/Wolbachia/2ª etapa/Mapas/Mapas/Mapas/centro/centro.shp" }, "geometry": { "type": "MultiPolygon", "coordinates": [ [ [ [ -48.2788941, -18.9240515 ], [ -48.2790387, -18.9232118 ], [ -48.2794419, -18.923074 ], [ -48.2793713, -18.9229832 ], [ -48.2795407, -18.9228871 ], [ -48.2800684, -18.9225334 ], [ -48.2806474, -18.9221453 ], [ -48.2811458, -18.9218259 ], [ -48.2818164, -18.9213962 ], [ -48.2825626, -18.9208945 ], [ -48.2836207, -18.920163 ], [ -48.2839293, -18.9199737 ], [ -48.2845816, -18.9195605 ], [ -48.2845399, -18.9194679 ], [ -48.283563, -18.9188517 ], [ -48.2824469, -18.9182784 ], [ -48.2815363, -18.9175328 ], [ -48.2808201, -18.9167717 ], [ -48.2795758, -18.9148593 ], [ -48.2795306, -18.9149424 ], [ -48.2791642, -18.91518 ], [ -48.2786095, -18.9155385 ], [ -48.2779566, -18.9146582 ], [ -48.277298, -18.9137676 ], [ -48.2768464, -18.9131352 ], [ -48.2765665, -18.9127783 ], [ -48.2766655, -18.9124421 ], [ -48.2767449, -18.9122459 ], [ -48.2767989, -18.9120926 ], [ -48.2768554, -18.9118924 ], [ -48.2768776, -18.9118251 ], [ -48.2770689, -18.9112282 ], [ -48.2770968, -18.9111383 ], [ -48.2771297, -18.9110278 ], [ -48.2772261, -18.9107415 ], [ -48.2774452, -18.9100943 ], [ -48.2774522, -18.9100077 ], [ -48.2769909, -18.9098777 ], [ -48.2763207, -18.9096931 ], [ -48.2758671, -18.9095573 ], [ -48.2755337, -18.9096401 ], [ -48.2751026, -18.9089052 ], [ -48.2748296, -18.9090874 ], [ -48.2747717, -18.9091511 ], [ -48.2747412, -18.9091718 ], [ -48.2741833, -18.9095507 ], [ -48.2734041, -18.9100686 ], [ -48.2722607, -18.9108558 ], [ -48.2718554, -18.9111196 ], [ -48.2709693, -18.9116963 ], [ -48.2697443, -18.9125547 ], [ -48.2689617, -18.9130627 ], [ -48.2683933, -18.9134529 ], [ -48.267681, -18.9139265 ], [ -48.2676334, -18.9139608 ], [ -48.2696413, -18.9157073 ], [ -48.2702772, -18.9160225 ], [ -48.270967, -18.9161912 ], [ -48.270863, -18.9162684 ], [ -48.270012, -18.9168252 ], [ -48.2690731, -18.917427 ], [ -48.2697012, -18.9179598 ], [ -48.2702081, -18.9184988 ], [ -48.2711325, -18.9191948 ], [ -48.2721066, -18.9198771 ], [ -48.2730271, -18.9205394 ], [ -48.2739662, -18.9212185 ], [ -48.2750358, -18.9219514 ], [ -48.2755315, -18.9222327 ], [ -48.2759973, -18.9225559 ], [ -48.2769262, -18.9232076 ], [ -48.277522, -18.923672299999989 ], [ -48.2776031, -18.9237347 ], [ -48.2776728, -18.9237753 ], [ -48.277811, -18.9238273 ], [ -48.2779719, -18.9238679 ], [ -48.278465, -18.9239661 ], [ -48.2788941, -18.9240515 ] ] ] ] } },
{ "type": "Feature", "properties": { "fid": 5, "NAME": "Custódio Pereira", "COD": 263.0, "SETOR": "Leste", "layer": "custódio pereira", "path": "C:/Users/Aplicativos/OneDrive/Área de Trabalho/Wolbachia/2ª etapa/Mapas/Mapas/Mapas/custódio pereira/custódio pereira.shp" }, "geometry": { "type": "MultiPolygon", "coordinates": [ [ [ [ -48.2517828, -18.8858818 ], [ -48.2516488, -18.8856585 ], [ -48.2515471, -18.8853551 ], [ -48.2517907, -18.8850312 ], [ -48.2518221, -18.8848411 ], [ -48.2518025, -18.8846699 ], [ -48.2517341, -18.884508 ], [ -48.2515669, -18.8846182 ], [ -48.245565, -18.888625 ], [ -48.2406676, -18.8918729 ], [ -48.2368244, -18.8944216 ], [ -48.2358322, -18.8950797 ], [ -48.2344164, -18.8960186 ], [ -48.234007717308657, -18.895614561214067 ], [ -48.232625072623144, -18.896444148025378 ], [ -48.230297620735854, -18.898080277569907 ], [ -48.228016257004747, -18.899854671582986 ], [ -48.225942289976473, -18.901882550455078 ], [ -48.224190940041488, -18.90365694446816 ], [ -48.222808295355968, -18.904901324685124 ], [ -48.221748267763736, -18.90577699965262 ], [ -48.220665196093414, -18.906813983166757 ], [ -48.220158226375396, -18.907482261431426 ], [ -48.220273446765852, -18.908404024555104 ], [ -48.220826504640058, -18.909556228459699 ], [ -48.2218455, -18.91103 ], [ -48.223776146635828, -18.910132330411997 ], [ -48.2249601, -18.9091069 ], [ -48.2261328, -18.9084598 ], [ -48.2356651, -18.9028573 ], [ -48.2513243, -18.8935191 ], [ -48.2555709, -18.8910088 ], [ -48.2555076, -18.8908571 ], [ -48.2554722, -18.8908035 ], [ -48.2554604, -18.8907873 ], [ -48.2549611, -18.8901655 ], [ -48.2548003, -18.8899653 ], [ -48.2543252, -18.8893363 ], [ -48.2542921, -18.8892928 ], [ -48.2542511, -18.8892346 ], [ -48.2537944, -18.8886136 ], [ -48.253286, -18.8879438 ], [ -48.2527856, -18.8872582 ], [ -48.2527656, -18.8872308 ], [ -48.2523009, -18.8866002 ], [ -48.2522693, -18.8865554 ], [ -48.2517828, -18.8858818 ] ] ] ] } },
{ "type": "Feature", "properties": { "fid": 6, "NAME": "Daniel Fonseca", "COD": 264.0, "SETOR": "Central", "layer": "daniel fonseca", "path": "C:/Users/Aplicativos/OneDrive/Área de Trabalho/Wolbachia/2ª etapa/Mapas/Mapas/Mapas/daniel_fonseca/daniel fonseca.shp" }, "geometry": { "type": "MultiPolygon", "coordinates": [ [ [ [ -48.3069019, -18.9127941 ], [ -48.3069321, -18.9123894 ], [ -48.3070982, -18.9118418 ], [ -48.307023, -18.9114134 ], [ -48.3068808, -18.9111521 ], [ -48.3061454, -18.9106724 ], [ -48.3060035, -18.9102054 ], [ -48.3055068, -18.9103408 ], [ -48.3051016, -18.9104197 ], [ -48.3045124, -18.9105579 ], [ -48.3040179, -18.9106111 ], [ -48.3036976, -18.9105712 ], [ -48.3031925, -18.9112453 ], [ -48.2989158, -18.9162571 ], [ -48.2948157, -18.9210722 ], [ -48.2939782, -18.9220958 ], [ -48.29375910000001, -18.9222977 ], [ -48.2934247, -18.922521 ], [ -48.2930876, -18.9226778 ], [ -48.2926156, -18.9227947 ], [ -48.2905309, -18.9229197 ], [ -48.2904228, -18.9230312 ], [ -48.2931129, -18.9242759 ], [ -48.2951585, -18.9257974 ], [ -48.2962392, -18.9268384 ], [ -48.2963344, -18.9266876 ], [ -48.2968009, -18.9265942 ], [ -48.2973853, -18.9262476 ], [ -48.2976786, -18.9259313 ], [ -48.2983093, -18.9243852 ], [ -48.2986027, -18.9232841 ], [ -48.2993821, -18.92173 ], [ -48.2996112, -18.921366 ], [ -48.2997706, -18.9212516 ], [ -48.2999501, -18.9212262 ], [ -48.3001071, -18.9213195 ], [ -48.3002192, -18.9214765 ], [ -48.3003224, -18.921642 ], [ -48.3006813, -18.9216336 ], [ -48.3009415, -18.9215741 ], [ -48.3012196, -18.921485 ], [ -48.3016959, -18.9214799 ], [ -48.3020271, -18.9214299 ], [ -48.3023635, -18.9213535 ], [ -48.3025116, -18.9212941 ], [ -48.3026102, -18.9211073 ], [ -48.3027463, -18.920861 ], [ -48.3033852, -18.9202824 ], [ -48.3040338, -18.9194909 ], [ -48.3041706, -18.9192422 ], [ -48.3042698, -18.9189581 ], [ -48.3042884, -18.9187333 ], [ -48.3043342, -18.9183111 ], [ -48.304365, -18.9179533 ], [ -48.3044332, -18.9176952 ], [ -48.3045192, -18.9173263 ], [ -48.3045844, -18.9171299 ], [ -48.3046254, -18.9168331 ], [ -48.3046472, -18.9162393 ], [ -48.3046327, -18.9157461 ], [ -48.3047427, -18.9153937 ], [ -48.3048082, -18.9152223 ], [ -48.3049541, -18.9149938 ], [ -48.3057795, -18.9142367 ], [ -48.3068767, -18.9131797 ], [ -48.3069019, -18.9127941 ] ] ] ] } },
{ "type": "Feature", "properties": { "fid": 7, "NAME": "Granada", "COD": 289.0, "SETOR": "Sul", "layer": "granada", "path": "C:/Users/Aplicativos/OneDrive/Área de Trabalho/Wolbachia/2ª etapa/Mapas/Mapas/Mapas/granada/granada.shp" }, "geometry": { "type": "MultiPolygon", "coordinates": [ [ [ [ -48.2451232, -18.939843 ], [ -48.2434698, -18.93997 ], [ -48.2424718, -18.9400297 ], [ -48.2422853, -18.9399986 ], [ -48.2421154, -18.9400841 ], [ -48.2419015, -18.9401827 ], [ -48.2414491, -18.9403824 ], [ -48.2404236, -18.940787 ], [ -48.2406471, -18.9411095 ], [ -48.2400499, -18.9415445 ], [ -48.2395577, -18.9418996 ], [ -48.2392494, -18.9421109 ], [ -48.2387802, -18.9423966 ], [ -48.2379094, -18.9429954 ], [ -48.2360551, -18.9443096 ], [ -48.2355747, -18.944629 ], [ -48.2349334, -18.9450149 ], [ -48.2348125, -18.9451042 ], [ -48.234714717506947, -18.945093702369952 ], [ -48.234629, -18.9450845 ], [ -48.2345043, -18.9451417 ], [ -48.2342734, -18.9453329 ], [ -48.2337883, -18.9456246 ], [ -48.2330687, -18.9461303 ], [ -48.2327014, -18.9463923 ], [ -48.2322415, -18.9467203 ], [ -48.2315586, -18.9472009 ], [ -48.2308758, -18.9476938 ], [ -48.2306485, -18.9477612 ], [ -48.2303887, -18.9477961 ], [ -48.2301138, -18.9477806 ], [ -48.2306253, -18.9479588 ], [ -48.2320613, -18.9484504 ], [ -48.2328489, -18.948737 ], [ -48.2334575, -18.9490288 ], [ -48.2341532, -18.9492759 ], [ -48.2348669, -18.9494841 ], [ -48.2355208, -18.9497684 ], [ -48.2373111, -18.9504219 ], [ -48.2378349, -18.9506221 ], [ -48.2384745, -18.9508458 ], [ -48.2391506, -18.9510281 ], [ -48.2414553, -18.9518742 ], [ -48.2417406, -18.951962 ], [ -48.2419813, -18.9520656 ], [ -48.243521, -18.9526745 ], [ -48.2471034, -18.9539949 ], [ -48.2523124, -18.9558744 ], [ -48.2524339, -18.9553499 ], [ -48.252488, -18.9551609 ], [ -48.2525309, -18.9549284 ], [ -48.25254, -18.9547634 ], [ -48.2525083, -18.954321 ], [ -48.252287, -18.9519204 ], [ -48.2519925, -18.9487931 ], [ -48.2519713, -18.9483323 ], [ -48.2521876, -18.948216 ], [ -48.2522867, -18.9480554 ], [ -48.2523046, -18.9479098 ], [ -48.2522534, -18.9477437 ], [ -48.252144800000011, -18.9476145 ], [ -48.2519946, -18.9475397 ], [ -48.2518495, -18.9475234 ], [ -48.2516984, -18.9475577 ], [ -48.2515934, -18.9476223 ], [ -48.2512703, -18.9474086 ], [ -48.2507132, -18.9469032 ], [ -48.2501924, -18.9463639 ], [ -48.2497247, -18.9458115 ], [ -48.2492951, -18.9452318 ], [ -48.2491294, -18.9449315 ], [ -48.2490548, -18.9447166 ], [ -48.2490042, -18.9444383 ], [ -48.2489985, -18.9442134 ], [ -48.2489343, -18.9438408 ], [ -48.2487728, -18.9437276 ], [ -48.2481749, -18.9421355 ], [ -48.2479775, -18.9414716 ], [ -48.2477296, -18.9397655 ], [ -48.2477241, -18.9396437 ], [ -48.2451232, -18.939843 ] ] ] ] } },
{ "type": "Feature", "properties": { "fid": 8, "NAME": "Jaraguá", "COD": 247.0, "SETOR": "Oeste", "layer": "jaragua", "path": "C:/Users/Aplicativos/OneDrive/Área de Trabalho/Wolbachia/2ª etapa/Mapas/Mapas/Mapas/jaragua/jaragua.shp" }, "geometry": { "type": "MultiPolygon", "coordinates": [ [ [ [ -48.3124762, -18.9162261 ], [ -48.3123206, -18.9161085 ], [ -48.3121928, -18.9160683 ], [ -48.3121257, -18.9160658 ], [ -48.3120712, -18.9160451 ], [ -48.3119665, -18.9159842 ], [ -48.3119317, -18.9159512 ], [ -48.3118602, -18.915936399999989 ], [ -48.3116939, -18.9158678 ], [ -48.3116215, -18.9158095 ], [ -48.3115517, -18.9156953 ], [ -48.3115196, -18.9155989 ], [ -48.3114713, -18.9154898 ], [ -48.3113604, -18.9153245 ], [ -48.3112916, -18.9152766 ], [ -48.3111414, -18.9152462 ], [ -48.3110609, -18.9152563 ], [ -48.3108705, -18.9152563 ], [ -48.3108025, -18.9152154 ], [ -48.3107515, -18.9151545 ], [ -48.3106576, -18.9149642 ], [ -48.3105879, -18.9149134 ], [ -48.3104735, -18.9148757 ], [ -48.3103143, -18.9148348 ], [ -48.309734, -18.914536699999989 ], [ -48.3094646, -18.914406 ], [ -48.3093273, -18.9143374 ], [ -48.3091458, -18.9142008 ], [ -48.3090483, -18.9140862 ], [ -48.3089124, -18.9139572 ], [ -48.308823, -18.9138503 ], [ -48.3086996, -18.9137792 ], [ -48.3084341, -18.913561 ], [ -48.3083867, -18.9135588 ], [ -48.3083089, -18.9135284 ], [ -48.3082141, -18.9134417 ], [ -48.3081292, -18.9133508 ], [ -48.3079817, -18.9132949 ], [ -48.3078369, -18.9132899 ], [ -48.3076867, -18.913262 ], [ -48.3074909, -18.9132138 ], [ -48.3072888, -18.9131372 ], [ -48.3071412, -18.9130687 ], [ -48.3069893, -18.9129625 ], [ -48.3069019, -18.9127941 ], [ -48.3068767, -18.9131797 ], [ -48.3057795, -18.9142367 ], [ -48.3049541, -18.9149938 ], [ -48.3048082, -18.9152223 ], [ -48.3047427, -18.9153937 ], [ -48.3046327, -18.9157461 ], [ -48.3046472, -18.9162393 ], [ -48.3046254, -18.9168331 ], [ -48.3045844, -18.9171299 ], [ -48.3045192, -18.9173263 ], [ -48.3044332, -18.9176952 ], [ -48.304365, -18.9179533 ], [ -48.3043342, -18.9183111 ], [ -48.3042884, -18.9187333 ], [ -48.3042698, -18.9189581 ], [ -48.3041706, -18.9192422 ], [ -48.3040338, -18.9194909 ], [ -48.3033852, -18.9202824 ], [ -48.3027463, -18.920861 ], [ -48.3026102, -18.9211073 ], [ -48.3025116, -18.9212941 ], [ -48.3023635, -18.9213535 ], [ -48.3020271, -18.9214299 ], [ -48.3016959, -18.9214799 ], [ -48.3012196, -18.921485 ], [ -48.3009415, -18.9215741 ], [ -48.3006813, -18.9216336 ], [ -48.3003224, -18.921642 ], [ -48.3002192, -18.9214765 ], [ -48.3001071, -18.9213195 ], [ -48.2999501, -18.9212262 ], [ -48.2997706, -18.9212516 ], [ -48.2996112, -18.921366 ], [ -48.2993821, -18.92173 ], [ -48.2986027, -18.9232841 ], [ -48.2983093, -18.9243852 ], [ -48.2976786, -18.9259313 ], [ -48.2973853, -18.9262476 ], [ -48.2968009, -18.9265942 ], [ -48.2963344, -18.9266876 ], [ -48.2962392, -18.9268384 ], [ -48.2969732, -18.9275121 ], [ -48.2974433, -18.9278102 ], [ -48.3003212, -18.929344 ], [ -48.3006919, -18.929637 ], [ -48.3010908, -18.9300365 ], [ -48.3061421, -18.9372546 ], [ -48.3061589, -18.9371559 ], [ -48.3061887, -18.9369691 ], [ -48.306288, -18.9364933 ], [ -48.3062988, -18.9364415 ], [ -48.3064033, -18.9359054 ], [ -48.3065174, -18.9353564 ], [ -48.3065471, -18.9352166 ], [ -48.3069992, -18.93308 ], [ -48.3070226, -18.9329745 ], [ -48.3070309, -18.9329388 ], [ -48.3070439, -18.9328683 ], [ -48.3071571, -18.9323328 ], [ -48.3071835, -18.9322081 ], [ -48.3074476, -18.9309593 ], [ -48.3074925, -18.9307483 ], [ -48.3075617, -18.9306927 ], [ -48.3083118, -18.9271899 ], [ -48.3035567, -18.9262521 ], [ -48.3037037, -18.9260605 ], [ -48.3124252, -18.9164646 ], [ -48.3127301, -18.9163694 ], [ -48.3124762, -18.9162261 ] ] ] ] } },
{ "type": "Feature", "properties": { "fid": 9, "NAME": "Jardim Brasília", "COD": 269.0, "SETOR": "Norte", "layer": "jardim brasilia", "path": "C:/Users/Aplicativos/OneDrive/Área de Trabalho/Wolbachia/2ª etapa/Mapas/Mapas/Mapas/jardim_brasilia/jardim brasilia.shp" }, "geometry": { "type": "MultiPolygon", "coordinates": [ [ [ [ -48.2950506, -18.8904185 ], [ -48.2950509, -18.890571199999989 ], [ -48.2950868, -18.8910237 ], [ -48.295095, -18.8911278 ], [ -48.2951201, -18.8914541 ], [ -48.295166, -18.891986 ], [ -48.2952273, -18.8928635 ], [ -48.2952378, -18.8931324 ], [ -48.2952827, -18.8935414 ], [ -48.2953414, -18.8941941 ], [ -48.2953649, -18.8944346 ], [ -48.295405700000011, -18.8948649 ], [ -48.2954686, -18.8956881 ], [ -48.2955636, -18.8969364 ], [ -48.2955972, -18.8973702 ], [ -48.2956191, -18.8975934 ], [ -48.2956819, -18.8982334 ], [ -48.29573, -18.8988966 ], [ -48.2957361, -18.8989853 ], [ -48.2957981, -18.8994591 ], [ -48.2958386, -18.8996947 ], [ -48.2958687, -18.9003751 ], [ -48.295944, -18.9012082 ], [ -48.2959902, -18.9017562 ], [ -48.296015, -18.9020503 ], [ -48.2960558, -18.9024055 ], [ -48.2960811, -18.9028973 ], [ -48.2960934, -18.903045 ], [ -48.2961286, -18.9037043 ], [ -48.2961144, -18.9039907 ], [ -48.2960821, -18.904324 ], [ -48.2960612, -18.9049982 ], [ -48.2960183, -18.9055514 ], [ -48.2960194, -18.9057019 ], [ -48.2960446, -18.9057168 ], [ -48.2966937, -18.9060708 ], [ -48.29750640000001, -18.9065415 ], [ -48.2977263, -18.9066671 ], [ -48.2980523, -18.9068231 ], [ -48.2983687, -18.9069665 ], [ -48.2988113, -18.9071163 ], [ -48.2992767, -18.9072571 ], [ -48.2999294, -18.9074535 ], [ -48.3000076, -18.9074753 ], [ -48.3002342, -18.9075388 ], [ -48.30051910000001, -18.9076161 ], [ -48.3017671, -18.9079625 ], [ -48.3019361, -18.9080234 ], [ -48.302026, -18.9080538 ], [ -48.302211, -18.9081274 ], [ -48.302376, -18.9082213 ], [ -48.3025289, -18.9083216 ], [ -48.3026858, -18.9084522 ], [ -48.3028132, -18.9085778 ], [ -48.302903, -18.9086921 ], [ -48.3029996, -18.9088354 ], [ -48.3030988, -18.9090346 ], [ -48.3032115, -18.9093506 ], [ -48.3033161, -18.9096245 ], [ -48.3034075, -18.9099057 ], [ -48.3035178, -18.910201 ], [ -48.3035441, -18.9102576 ], [ -48.3036976, -18.9105712 ], [ -48.3040179, -18.9106111 ], [ -48.3045124, -18.9105579 ], [ -48.3051016, -18.9104197 ], [ -48.3055068, -18.9103408 ], [ -48.3049758, -18.909768 ], [ -48.3049865, -18.9097376 ], [ -48.3049704, -18.9092986 ], [ -48.304839, -18.9079588 ], [ -48.3048256, -18.907568 ], [ -48.3047585, -18.9070529 ], [ -48.3048685, -18.906822 ], [ -48.3049838, -18.9064084 ], [ -48.3050556, -18.9061829 ], [ -48.3050831, -18.9060963 ], [ -48.3051437, -18.9057881 ], [ -48.3052279, -18.9053604 ], [ -48.305354, -18.9047692 ], [ -48.3054204, -18.9043946 ], [ -48.3054168, -18.9043447 ], [ -48.3068561, -18.9027165 ], [ -48.3070043, -18.9025333 ], [ -48.3071545, -18.9022758 ], [ -48.3101122, -18.8985416 ], [ -48.3113704, -18.8969539 ], [ -48.315297, -18.8919367 ], [ -48.3151883, -18.891862 ], [ -48.3148607, -18.8917047 ], [ -48.31464170000001, -18.8915383 ], [ -48.3142269, -18.8914253 ], [ -48.3137325, -18.8909324 ], [ -48.3135699, -18.8907032 ], [ -48.3131418, -18.8906169 ], [ -48.3124051, -18.8904914 ], [ -48.311111, -18.8898069 ], [ -48.3101487, -18.8897002 ], [ -48.3097107, -18.8895056 ], [ -48.3093722, -18.8892356 ], [ -48.3086754, -18.889223 ], [ -48.3081378, -18.8887772 ], [ -48.3064568, -18.8905812 ], [ -48.3062363, -18.8908476 ], [ -48.3058915, -18.8910925 ], [ -48.3058411, -18.8911283 ], [ -48.3056295, -18.8912455 ], [ -48.3045516, -18.8913837 ], [ -48.3030186, -18.8914967 ], [ -48.3016515, -18.8913523 ], [ -48.3013993, -18.8912079 ], [ -48.3009214, -18.891233 ], [ -48.2997136, -18.8910383 ], [ -48.2976961, -18.8905611 ], [ -48.2971519, -18.8904921 ], [ -48.2967604, -18.8903288 ], [ -48.2962958, -18.890379 ], [ -48.2954596, -18.8903414 ], [ -48.2950506, -18.8904185 ] ] ] ] } },
{ "type": "Feature", "properties": { "fid": 10, "NAME": "Jardim Holanda", "COD": 256.0, "SETOR": "Oeste", "layer": "jardim canaa", "path": "C:/Users/Aplicativos/OneDrive/Área de Trabalho/Wolbachia/2ª etapa/Mapas/Mapas/Mapas/jardim_canaa/jardim canaa.shp" }, "geometry": { "type": "MultiPolygon", "coordinates": [ [ [ [ -48.315571204464035, -18.970639482595534 ], [ -48.3156342, -18.9706677 ], [ -48.31764485076107, -18.968263429546845 ], [ -48.315571204464035, -18.970639482595534 ] ] ] ] } },
{ "type": "Feature", "properties": { "fid": 11, "NAME": "Panorama", "COD": 257.0, "SETOR": "Oeste", "layer": "jardim canaa", "path": "C:/Users/Aplicativos/OneDrive/Área de Trabalho/Wolbachia/2ª etapa/Mapas/Mapas/Mapas/jardim_canaa/jardim canaa.shp" }, "geometry": { "type": "MultiPolygon", "coordinates": [ [ [ [ -48.34357229392878, -18.965256121984464 ], [ -48.34391764007632, -18.965513310149191 ], [ -48.344298763395905, -18.965333957998798 ], [ -48.34357229392878, -18.965256121984464 ] ] ], [ [ [ -48.343446412292643, -18.96496354440157 ], [ -48.335850405056192, -18.95950543259201 ], [ -48.343420739299795, -18.965143255351485 ], [ -48.343446412292643, -18.96496354440157 ] ] ] ] } },
{ "type": "Feature", "properties": { "fid": 12, "NAME": "Jardim Canaã", "COD": 270.0, "SETOR": "Oeste", "layer": "jardim canaa", "path": "C:/Users/Aplicativos/OneDrive/Área de Trabalho/Wolbachia/2ª etapa/Mapas/Mapas/Mapas/jardim_canaa/jardim canaa.shp" }, "geometry": { "type": "MultiPolygon", "coordinates": [ [ [ [ -48.325029259747275, -18.951729897476646 ], [ -48.324911452801359, -18.959937114709017 ], [ -48.315486897127819, -18.970736084751614 ], [ -48.316468621677146, -18.971207312535288 ], [ -48.317568153172395, -18.971168043553309 ], [ -48.318824760595533, -18.970853891697523 ], [ -48.321377244423779, -18.971796347264881 ], [ -48.322790927774811, -18.972699533850257 ], [ -48.323929728252033, -18.973524182471703 ], [ -48.327228322737767, -18.974859327858784 ], [ -48.328170778305122, -18.97517347971457 ], [ -48.329780806566013, -18.975212748696535 ], [ -48.331704986682695, -18.975566169534297 ], [ -48.332254752430316, -18.975762514444163 ], [ -48.336142381645651, -18.979257453839768 ], [ -48.34953310449847, -18.968065793977438 ], [ -48.344506674805913, -18.9653562342213 ], [ -48.343407143310671, -18.965238427275381 ], [ -48.343446412292643, -18.96496354440157 ], [ -48.325029259747275, -18.951729897476646 ] ] ] ] } },
{ "type": "Feature", "properties": { "fid": 13, "NAME": "Lídice", "COD": 275.0, "SETOR": "Central", "layer": "lidice", "path": "C:/Users/Aplicativos/OneDrive/Área de Trabalho/Wolbachia/2ª etapa/Mapas/Mapas/Mapas/lidice/lidice.shp" }, "geometry": { "type": "MultiPolygon", "coordinates": [ [ [ [ -48.2809524, -18.9245376 ], [ -48.2803143, -18.9243961 ], [ -48.2791793, -18.9241049 ], [ -48.2788941, -18.9240515 ], [ -48.278465, -18.9239661 ], [ -48.2779719, -18.9238679 ], [ -48.277811, -18.9238273 ], [ -48.2776728, -18.9237753 ], [ -48.2776031, -18.9237347 ], [ -48.277522, -18.923672299999989 ], [ -48.2769262, -18.9232076 ], [ -48.2759973, -18.9225559 ], [ -48.2755315, -18.9222327 ], [ -48.2750358, -18.9219514 ], [ -48.2739662, -18.9212185 ], [ -48.2730271, -18.9205394 ], [ -48.2721066, -18.9198771 ], [ -48.2711325, -18.9191948 ], [ -48.2702081, -18.9184988 ], [ -48.2697012, -18.9179598 ], [ -48.2690731, -18.917427 ], [ -48.2685047, -18.9178419 ], [ -48.2680625, -18.9181502 ], [ -48.2676079, -18.9184138 ], [ -48.2673572, -18.918584 ], [ -48.2668084, -18.9189451 ], [ -48.2705457, -18.9228078 ], [ -48.2712501, -18.9240256 ], [ -48.2714817, -18.9243508 ], [ -48.2721954, -18.9250532 ], [ -48.2737096, -18.9262826 ], [ -48.2751723, -18.9278957 ], [ -48.2777236, -18.9298795 ], [ -48.2781353, -18.9292137 ], [ -48.2782446, -18.9290763 ], [ -48.278508, -18.9286007 ], [ -48.2789591, -18.9278653 ], [ -48.2793261, -18.9272484 ], [ -48.279811, -18.9265423 ], [ -48.2804642, -18.9254274 ], [ -48.2809524, -18.9245376 ] ] ] ] } },
{ "type": "Feature", "properties": { "fid": 14, "NAME": "Luizote de Freitas", "COD": 276.0, "SETOR": "Oeste", "layer": "luizote", "path": "C:/Users/Aplicativos/OneDrive/Área de Trabalho/Wolbachia/2ª etapa/Mapas/Mapas/Mapas/luizote/luizote.shp" }, "geometry": { "type": "MultiPolygon", "coordinates": [ [ [ [ -48.3401037, -18.9214453 ], [ -48.3401181, -18.9211848 ], [ -48.3401799, -18.9205106 ], [ -48.3402501, -18.9198205 ], [ -48.3402642, -18.919748599999988 ], [ -48.3403109, -18.9195108 ], [ -48.3403511, -18.9192216 ], [ -48.3404278, -18.9186703 ], [ -48.3404629, -18.918365 ], [ -48.340685, -18.9165689 ], [ -48.3407078, -18.9162834 ], [ -48.3408225, -18.9148498 ], [ -48.340809, -18.9144287 ], [ -48.3407435, -18.9140579 ], [ -48.3406577, -18.9136892 ], [ -48.340559, -18.9133501 ], [ -48.3404025, -18.9129641 ], [ -48.3402836, -18.9127037 ], [ -48.3401219, -18.912371899999989 ], [ -48.3399518, -18.9121115 ], [ -48.3396783, -18.911723 ], [ -48.3394497, -18.9114453 ], [ -48.3392106, -18.9111921 ], [ -48.3390703, -18.911057 ], [ -48.3387768, -18.9108087 ], [ -48.3385627, -18.9106455 ], [ -48.3385222, -18.9106146 ], [ -48.3382831, -18.9104548 ], [ -48.3379116, -18.910236 ], [ -48.3375651, -18.9100646 ], [ -48.3370155, -18.9098362 ], [ -48.3367546, -18.909747 ], [ -48.336511, -18.909684 ], [ -48.3352611, -18.9093669 ], [ -48.3347917, -18.9092425 ], [ -48.33484, -18.9093872 ], [ -48.3348702, -18.9095723 ], [ -48.3348829, -18.9097373 ], [ -48.3349353, -18.9100927 ], [ -48.3347134, -18.9102963 ], [ -48.3343356, -18.9106429 ], [ -48.3339408, -18.9110051 ], [ -48.3335405, -18.9113724 ], [ -48.333503, -18.9114069 ], [ -48.333161, -18.9117213 ], [ -48.3327622, -18.912073 ], [ -48.3323573, -18.9124483 ], [ -48.331963, -18.9127985 ], [ -48.3315419, -18.9131766 ], [ -48.3306031, -18.914052 ], [ -48.3296456, -18.9149324 ], [ -48.3286484, -18.9158422 ], [ -48.328588, -18.9158931 ], [ -48.32568890000001, -18.9128796 ], [ -48.32564510000001, -18.9129425 ], [ -48.3255093, -18.9132399 ], [ -48.3254554, -18.9133362 ], [ -48.3253939, -18.9134636 ], [ -48.3248296, -18.9145423 ], [ -48.324663, -18.9149106 ], [ -48.3243979, -18.9154232 ], [ -48.3241241, -18.9159616 ], [ -48.3238643, -18.9164826 ], [ -48.3235912, -18.9170088 ], [ -48.3235413, -18.9171372 ], [ -48.323446, -18.9172765 ], [ -48.3233197, -18.9175124 ], [ -48.3230857, -18.918036499999989 ], [ -48.3228015, -18.9185633 ], [ -48.3225554, -18.9191117 ], [ -48.3225306, -18.91921 ], [ -48.3219141, -18.9204321 ], [ -48.3218332, -18.9205179 ], [ -48.3219063, -18.9209374 ], [ -48.3219802, -18.9209601 ], [ -48.3220651, -18.9210005 ], [ -48.3223816, -18.9212085 ], [ -48.3224996, -18.9213176 ], [ -48.3225961, -18.9214952 ], [ -48.3227142, -18.9217464 ], [ -48.322749, -18.9218657 ], [ -48.3228724, -18.9220078 ], [ -48.3230638, -18.9220892 ], [ -48.3231514, -18.9221828 ], [ -48.3231818, -18.9222414 ], [ -48.3232881, -18.9223351 ], [ -48.3233874, -18.9223985 ], [ -48.3235403, -18.9225152 ], [ -48.3236029, -18.9225738 ], [ -48.3236502, -18.9226522 ], [ -48.3237334, -18.9227233 ], [ -48.3239945, -18.9228352 ], [ -48.3242681, -18.9229189 ], [ -48.3244656, -18.9229618 ], [ -48.3246972, -18.923028 ], [ -48.3248126, -18.9230178 ], [ -48.3249431, -18.9230607 ], [ -48.3250862, -18.9230838 ], [ -48.3252927, -18.9230458 ], [ -48.3254429, -18.9230661 ], [ -48.3255287, -18.923099 ], [ -48.3256056, -18.9231521 ], [ -48.3257397, -18.9233601 ], [ -48.3257728, -18.9233908 ], [ -48.3260169, -18.9235532 ], [ -48.3286039, -18.9254608 ], [ -48.3295652, -18.9256473 ], [ -48.3311488, -18.9252568 ], [ -48.3328311, -18.9253675 ], [ -48.3356097, -18.925973 ], [ -48.338971, -18.9265094 ], [ -48.3398965, -18.9268974 ], [ -48.3410685, -18.9267091 ], [ -48.3413027, -18.9266774 ], [ -48.3411367, -18.9263639 ], [ -48.3410071, -18.926105 ], [ -48.3408466, -18.9257524 ], [ -48.3406758, -18.9253426 ], [ -48.3404561, -18.9247106 ], [ -48.3403207, -18.9241669 ], [ -48.3402123, -18.9236972 ], [ -48.3401664, -18.9233976 ], [ -48.3401045, -18.9227342 ], [ -48.3400736, -18.9223181 ], [ -48.340077, -18.9219306 ], [ -48.3401037, -18.9214453 ] ] ] ] } },
{ "type": "Feature", "properties": { "fid": 15, "NAME": "Maravilha", "COD": 280.0, "SETOR": "Norte", "layer": "maravilha", "path": "C:/Users/Aplicativos/OneDrive/Área de Trabalho/Wolbachia/2ª etapa/Mapas/Mapas/Mapas/maravilha/maravilha.shp" }, "geometry": { "type": "MultiPolygon", "coordinates": [ [ [ [ -48.300698, -18.880683 ], [ -48.3003695, -18.8808274 ], [ -48.300103, -18.8811024 ], [ -48.2998836, -18.8813198 ], [ -48.2998439, -18.881356 ], [ -48.2994431, -18.8817593 ], [ -48.2992656, -18.8819369 ], [ -48.2990506, -18.8821569 ], [ -48.2987088, -18.8825044 ], [ -48.2986723, -18.8825421 ], [ -48.2985096, -18.8826949 ], [ -48.2982712, -18.8829279 ], [ -48.2981428, -18.8830559 ], [ -48.2978687, -18.883329 ], [ -48.2975675, -18.8836292 ], [ -48.2974931, -18.8837033 ], [ -48.2970823, -18.8841117 ], [ -48.2970284, -18.884166 ], [ -48.2970043, -18.8841904 ], [ -48.296696, -18.8845063 ], [ -48.2964372, -18.8847501 ], [ -48.2962576, -18.884925 ], [ -48.295849, -18.8853229 ], [ -48.2954032, -18.885805699999988 ], [ -48.2953469, -18.8858666 ], [ -48.2953305, -18.8858815 ], [ -48.2950063, -18.8861762 ], [ -48.2946874, -18.8865282 ], [ -48.2946335, -18.886581 ], [ -48.2942673, -18.8869578 ], [ -48.2940688, -18.8871709 ], [ -48.2940433, -18.8872014 ], [ -48.2936263, -18.8876024 ], [ -48.2933864, -18.8878386 ], [ -48.2932065, -18.8880313 ], [ -48.2927406, -18.8884678 ], [ -48.2922908, -18.8889144 ], [ -48.2920587, -18.8891582 ], [ -48.2913238, -18.8899107 ], [ -48.2905904, -18.8906327 ], [ -48.2905029, -18.8907264 ], [ -48.290306, -18.8909529 ], [ -48.2900424, -18.8911467 ], [ -48.2906079, -18.8909033 ], [ -48.2907838, -18.8907997 ], [ -48.2915669, -18.8909975 ], [ -48.2917395, -18.8911262 ], [ -48.2921907, -18.8912298 ], [ -48.2928411, -18.8910854 ], [ -48.2932791, -18.8909002 ], [ -48.2935114, -18.8908656 ], [ -48.2939992, -18.8906867 ], [ -48.294798900000011, -18.8905297 ], [ -48.2950506, -18.8904185 ], [ -48.2954596, -18.8903414 ], [ -48.2962958, -18.890379 ], [ -48.2967604, -18.8903288 ], [ -48.2971519, -18.8904921 ], [ -48.2976961, -18.8905611 ], [ -48.2997136, -18.8910383 ], [ -48.3009214, -18.891233 ], [ -48.3013993, -18.8912079 ], [ -48.3016515, -18.8913523 ], [ -48.3030186, -18.8914967 ], [ -48.3045516, -18.8913837 ], [ -48.3056295, -18.8912455 ], [ -48.3058411, -18.8911283 ], [ -48.3058915, -18.8910925 ], [ -48.3062363, -18.8908476 ], [ -48.3064568, -18.8905812 ], [ -48.3081378, -18.8887772 ], [ -48.307996, -18.8885034 ], [ -48.3078699, -18.8881329 ], [ -48.3075381, -18.8877781 ], [ -48.306672, -18.8872883 ], [ -48.3065625, -18.8871219 ], [ -48.3065393, -18.8867264 ], [ -48.3064663, -18.8865757 ], [ -48.3060515, -18.8863465 ], [ -48.30550070000001, -18.8860765 ], [ -48.3053812, -18.8857091 ], [ -48.3052252, -18.8856589 ], [ -48.3049034, -18.8856966 ], [ -48.3047872, -18.8853763 ], [ -48.3042331, -18.8849493 ], [ -48.3039942, -18.8845192 ], [ -48.3035429, -18.884177 ], [ -48.3033936, -18.8839352 ], [ -48.3033239, -18.8835271 ], [ -48.3032376, -18.8833858 ], [ -48.3029058, -18.8832916 ], [ -48.3026802, -18.8831189 ], [ -48.3023981, -18.8827704 ], [ -48.3020983, -18.882121 ], [ -48.3017433, -18.8818698 ], [ -48.301428, -18.8814428 ], [ -48.3009568, -18.8810566 ], [ -48.300698, -18.880683 ] ] ] ] } },
{ "type": "Feature", "properties": { "fid": 16, "NAME": "Martins", "COD": 283.0, "SETOR": "Central", "layer": "martins", "path": "C:/Users/Aplicativos/OneDrive/Área de Trabalho/Wolbachia/2ª etapa/Mapas/Mapas/Mapas/martins/martins.shp" }, "geometry": { "type": "MultiPolygon", "coordinates": [ [ [ [ -48.2892392, -18.905052 ], [ -48.2886779, -18.9051129 ], [ -48.288403, -18.9051472 ], [ -48.2882756, -18.9051548 ], [ -48.2881522, -18.9051535 ], [ -48.2878612, -18.905137 ], [ -48.2876668, -18.905099 ], [ -48.2867723, -18.9048788 ], [ -48.2866301, -18.9048458 ], [ -48.2864792, -18.9048065 ], [ -48.2859193, -18.9046726 ], [ -48.2851723, -18.9044849 ], [ -48.2843924, -18.9042977 ], [ -48.2843709, -18.9042922 ], [ -48.2841774, -18.9042429 ], [ -48.2840379, -18.9042119 ], [ -48.2836448, -18.9041245 ], [ -48.2827745, -18.9039427 ], [ -48.2817402, -18.9037283 ], [ -48.2808365, -18.9035434 ], [ -48.2807699, -18.9035316 ], [ -48.2806065, -18.903494099999989 ], [ -48.2799854, -18.903376 ], [ -48.2798571, -18.9033499 ], [ -48.2796253, -18.9033 ], [ -48.2794471, -18.9038633 ], [ -48.2792893, -18.9044101 ], [ -48.2791407, -18.9048553 ], [ -48.2788342, -18.9058152 ], [ -48.2785285, -18.9067217 ], [ -48.2781757, -18.9078026 ], [ -48.2777922, -18.9089331 ], [ -48.2774522, -18.9100077 ], [ -48.2774452, -18.9100943 ], [ -48.2772261, -18.9107415 ], [ -48.2771297, -18.9110278 ], [ -48.2770968, -18.9111383 ], [ -48.2770689, -18.9112282 ], [ -48.2768776, -18.9118251 ], [ -48.2768554, -18.9118924 ], [ -48.2767989, -18.9120926 ], [ -48.2767449, -18.9122459 ], [ -48.2766655, -18.9124421 ], [ -48.2765665, -18.9127783 ], [ -48.2768464, -18.9131352 ], [ -48.277298, -18.9137676 ], [ -48.2779566, -18.9146582 ], [ -48.2786095, -18.9155385 ], [ -48.2791642, -18.91518 ], [ -48.2795306, -18.9149424 ], [ -48.2795758, -18.9148593 ], [ -48.2808201, -18.9167717 ], [ -48.2815363, -18.9175328 ], [ -48.2824469, -18.9182784 ], [ -48.283563, -18.9188517 ], [ -48.2845399, -18.9194679 ], [ -48.2845544, -18.9194146 ], [ -48.288936, -18.9059099 ], [ -48.2892392, -18.905052 ] ] ] ] } },
{ "type": "Feature", "properties": { "fid": 17, "NAME": "Morumbi", "COD": 294.0, "SETOR": "Leste", "layer": "morumbi", "path": "C:/Users/Aplicativos/OneDrive/Área de Trabalho/Wolbachia/2ª etapa/Mapas/Mapas/Mapas/morumbi/morumbi.shp" }, "geometry": { "type": "MultiPolygon", "coordinates": [ [ [ [ -48.1952978, -18.912354 ], [ -48.1929286, -18.9110468 ], [ -48.1921775, -18.9106324 ], [ -48.1884318, -18.9038789 ], [ -48.187741, -18.9039703 ], [ -48.1868517, -18.9038544 ], [ -48.1863257, -18.9038864 ], [ -48.1858602, -18.9039987 ], [ -48.184773, -18.9045756 ], [ -48.1826838, -18.9058796 ], [ -48.1823211, -18.9063412 ], [ -48.181342, -18.9070631 ], [ -48.1806437, -18.9075025 ], [ -48.1799123, -18.9078599 ], [ -48.1784169, -18.9083698 ], [ -48.1769121, -18.9088835 ], [ -48.17602620000001, -18.9094367 ], [ -48.1754601, -18.9098002 ], [ -48.1744486, -18.9106738 ], [ -48.1740379, -18.9113434 ], [ -48.1740918, -18.9119704 ], [ -48.1741836, -18.9126064 ], [ -48.1743338, -18.9137858 ], [ -48.1756938, -18.9153208 ], [ -48.1775137, -18.9169914 ], [ -48.1785149, -18.9177888 ], [ -48.1801533, -18.9190138 ], [ -48.1904825, -18.9265749 ], [ -48.1919369, -18.9257043 ], [ -48.1920846, -18.9257072 ], [ -48.192706, -18.9254685 ], [ -48.1936576, -18.9248194 ], [ -48.1927127, -18.9241366 ], [ -48.1946303, -18.922995 ], [ -48.1942867, -18.9224049 ], [ -48.1969574, -18.9189786 ], [ -48.2000861, -18.9154129 ], [ -48.2004486, -18.9152736 ], [ -48.1992005, -18.9145656 ], [ -48.1952978, -18.912354 ] ] ] ] } },
{ "type": "Feature", "properties": { "fid": 18, "NAME": "Nossa Senhora Aparecida", "COD": 490.0, "SETOR": "Central", "layer": "nossa senhora aparecida", "path": "C:/Users/Aplicativos/OneDrive/Área de Trabalho/Wolbachia/2ª etapa/Mapas/Mapas/Mapas/ns_aparecida/nossa senhora aparecida.shp" }, "geometry": { "type": "MultiPolygon", "coordinates": [ [ [ [ -48.2705921, -18.8959784 ], [ -48.2705658, -18.8959411 ], [ -48.2704618, -18.8957825 ], [ -48.2695911, -18.8963577 ], [ -48.2687075, -18.8969546 ], [ -48.2678064, -18.8975539 ], [ -48.2669051, -18.8981625 ], [ -48.2661501, -18.8986522 ], [ -48.2653845, -18.8991792 ], [ -48.2641919, -18.8999842 ], [ -48.2629208, -18.9008571 ], [ -48.2623894, -18.9011871 ], [ -48.2616949, -18.9016606 ], [ -48.2609345, -18.9021744 ], [ -48.2608654, -18.9022239 ], [ -48.2608125, -18.9022778 ], [ -48.2607957, -18.9023267 ], [ -48.2607932, -18.9023841 ], [ -48.2608145, -18.9024371 ], [ -48.2607085, -18.9023756 ], [ -48.2606522, -18.9023559 ], [ -48.2606101, -18.9023448 ], [ -48.2605556, -18.9023433 ], [ -48.2604713, -18.9023133 ], [ -48.2606297, -18.9027017 ], [ -48.2607752, -18.9032311 ], [ -48.2616599, -18.9078056 ], [ -48.2622227, -18.9096345 ], [ -48.2622488, -18.9101632 ], [ -48.2622529, -18.9113932 ], [ -48.262694, -18.9113252 ], [ -48.2630262, -18.9112741 ], [ -48.2634524, -18.9112084 ], [ -48.263636, -18.9112355 ], [ -48.2639029, -18.911275 ], [ -48.2642455, -18.9113416 ], [ -48.2649423, -18.9116812 ], [ -48.2666256, -18.9130565 ], [ -48.2676334, -18.9139608 ], [ -48.267681, -18.9139265 ], [ -48.2683933, -18.9134529 ], [ -48.2689617, -18.9130627 ], [ -48.2697443, -18.9125547 ], [ -48.2709693, -18.9116963 ], [ -48.2718554, -18.9111196 ], [ -48.2722607, -18.9108558 ], [ -48.2734041, -18.9100686 ], [ -48.2741833, -18.9095507 ], [ -48.2747412, -18.9091718 ], [ -48.2747717, -18.9091511 ], [ -48.2748296, -18.9090874 ], [ -48.2751026, -18.9089052 ], [ -48.2703254, -18.8998318 ], [ -48.2697565, -18.8987815 ], [ -48.2696488, -18.8983247 ], [ -48.2695935, -18.8978796 ], [ -48.2697411, -18.8971872 ], [ -48.2700178, -18.8966722 ], [ -48.2705006, -18.8960671 ], [ -48.2705921, -18.8959784 ] ] ] ] } },
{ "type": "Feature", "properties": { "fid": 19, "NAME": "Planalto", "COD": 290.0, "SETOR": "Oeste", "layer": "planalto", "path": "C:/Users/Aplicativos/OneDrive/Área de Trabalho/Wolbachia/2ª etapa/Mapas/Mapas/Mapas/planalto/planalto.shp" }, "geometry": { "type": "MultiPolygon", "coordinates": [ [ [ [ -48.3214623, -18.942971 ], [ -48.3210819, -18.942448 ], [ -48.321346, -18.941688 ], [ -48.3213199, -18.9406399 ], [ -48.3213301, -18.9405242 ], [ -48.3212829, -18.940022 ], [ -48.3211815, -18.9389429 ], [ -48.3210879, -18.9379463 ], [ -48.3203059, -18.9296218 ], [ -48.3203229, -18.9295346 ], [ -48.3203456, -18.9294395 ], [ -48.3083118, -18.9271899 ], [ -48.3075617, -18.9306927 ], [ -48.3074925, -18.9307483 ], [ -48.3074476, -18.9309593 ], [ -48.3071835, -18.9322081 ], [ -48.3071571, -18.9323328 ], [ -48.3070439, -18.9328683 ], [ -48.3070309, -18.9329388 ], [ -48.3070226, -18.9329745 ], [ -48.3069992, -18.93308 ], [ -48.3065471, -18.9352166 ], [ -48.3065174, -18.9353564 ], [ -48.3064033, -18.9359054 ], [ -48.3062988, -18.9364415 ], [ -48.306288, -18.9364933 ], [ -48.3061887, -18.9369691 ], [ -48.3061589, -18.9371559 ], [ -48.3061421, -18.9372546 ], [ -48.3070239, -18.9385147 ], [ -48.3071913, -18.9387755 ], [ -48.3074788, -18.9393355 ], [ -48.3080665, -18.9392601 ], [ -48.3081309, -18.9392774 ], [ -48.30948750000001, -18.9396506 ], [ -48.310075, -18.9397992 ], [ -48.3100938, -18.9398043 ], [ -48.3103097, -18.9398622 ], [ -48.3117297, -18.9402633 ], [ -48.3119232, -18.940318 ], [ -48.312129, -18.9403761 ], [ -48.3128069, -18.9405647 ], [ -48.3129775, -18.9406124 ], [ -48.3132462, -18.9406875 ], [ -48.3149228, -18.9411563 ], [ -48.316139, -18.9414911 ], [ -48.3163449, -18.9415482 ], [ -48.3168866, -18.9416985 ], [ -48.3178666, -18.9419724 ], [ -48.3188155, -18.942231 ], [ -48.3190673, -18.9422996 ], [ -48.3194661, -18.9424175 ], [ -48.3198593, -18.9425263 ], [ -48.3206055, -18.9427327 ], [ -48.3214623, -18.942971 ] ] ] ] } },
{ "type": "Feature", "properties": { "fid": 20, "NAME": "Presidente Roosevelt", "COD": 248.0, "SETOR": "Norte", "layer": "presidente roosevelt", "path": "C:/Users/Aplicativos/OneDrive/Área de Trabalho/Wolbachia/2ª etapa/Mapas/Mapas/Mapas/presidente_roosevelt/presidente roosevelt.shp" }, "geometry": { "type": "MultiPolygon", "coordinates": [ [ [ [ -48.2829421, -18.888789 ], [ -48.2808633, -18.890931 ], [ -48.2806334, -18.8913883 ], [ -48.280204, -18.8917945 ], [ -48.2799587, -18.892296 ], [ -48.2799205, -18.8922764 ], [ -48.2796228, -18.8920943 ], [ -48.2783216, -18.893384 ], [ -48.2776019, -18.8941294 ], [ -48.2775282, -18.8941814 ], [ -48.2774662, -18.8942067 ], [ -48.2770205, -18.894681 ], [ -48.2768293, -18.8945825 ], [ -48.2764806, -18.894375 ], [ -48.2759066, -18.8940432 ], [ -48.2758777, -18.894027 ], [ -48.2758348, -18.8940014 ], [ -48.2752495, -18.8936708 ], [ -48.2750295, -18.8935541 ], [ -48.2747076, -18.8933555 ], [ -48.2745782, -18.8932661 ], [ -48.2744921, -18.8932017 ], [ -48.2729401, -18.894314 ], [ -48.2719509, -18.8950194 ], [ -48.2717728, -18.8952392 ], [ -48.2717528, -18.895379 ], [ -48.2717398, -18.8958824 ], [ -48.2717129, -18.8961806 ], [ -48.2717009, -18.896529499999989 ], [ -48.2717103, -18.8967858 ], [ -48.2717317, -18.8970371 ], [ -48.2717988, -18.8973326 ], [ -48.2719027, -18.8976169 ], [ -48.2720966, -18.8979843 ], [ -48.2722253, -18.8981746 ], [ -48.2723667, -18.8983388 ], [ -48.2724814, -18.8984531 ], [ -48.2727101, -18.8986675 ], [ -48.2730889, -18.8989783 ], [ -48.2734461, -18.8992539 ], [ -48.2738386, -18.8995499 ], [ -48.274489, -18.900072 ], [ -48.2750472, -18.9005228 ], [ -48.2750952, -18.9005616 ], [ -48.2753868, -18.9007924 ], [ -48.2760796, -18.9013281 ], [ -48.2767551, -18.9018851 ], [ -48.2772996, -18.9022875 ], [ -48.2777093, -18.9024952 ], [ -48.2781099, -18.9026332 ], [ -48.2783839, -18.9026942 ], [ -48.2789357, -18.9028081 ], [ -48.2795412, -18.9029295 ], [ -48.2799587, -18.9030175 ], [ -48.2805067, -18.9031339 ], [ -48.2808783, -18.9032128 ], [ -48.2823741, -18.9035368 ], [ -48.2834518, -18.903753 ], [ -48.283461, -18.9037521 ], [ -48.283728, -18.9038149 ], [ -48.2845647, -18.9040119 ], [ -48.2849648, -18.9041114 ], [ -48.2851401, -18.904155 ], [ -48.2861278, -18.9044005 ], [ -48.2865192, -18.9044792 ], [ -48.2868086, -18.9045442 ], [ -48.2868889, -18.9045623 ], [ -48.2872299, -18.9046172 ], [ -48.2874144, -18.9046469 ], [ -48.2876211, -18.9046802 ], [ -48.2880235, -18.9048046 ], [ -48.288407, -18.9048122 ], [ -48.2887678, -18.9047881 ], [ -48.2900499, -18.9046498 ], [ -48.2906359, -18.9045927 ], [ -48.29077010000001, -18.9045927 ], [ -48.290931, -18.9045965 ], [ -48.2911496, -18.9046206 ], [ -48.2916283, -18.904703 ], [ -48.2918187, -18.9047274 ], [ -48.2919261, -18.9047412 ], [ -48.293172, -18.9048211 ], [ -48.2935984, -18.9048642 ], [ -48.2936561, -18.9048686 ], [ -48.2937393, -18.9048749 ], [ -48.294336, -18.9049682 ], [ -48.2945936, -18.9050355 ], [ -48.2949422, -18.9051408 ], [ -48.2952547, -18.9052816 ], [ -48.2953266, -18.905321 ], [ -48.2955142, -18.9054236 ], [ -48.295767, -18.905562 ], [ -48.2960194, -18.9057019 ], [ -48.2960183, -18.9055514 ], [ -48.2960612, -18.9049982 ], [ -48.2960821, -18.904324 ], [ -48.2961144, -18.9039907 ], [ -48.2961286, -18.9037043 ], [ -48.2960934, -18.903045 ], [ -48.2960811, -18.9028973 ], [ -48.2960558, -18.9024055 ], [ -48.296015, -18.9020503 ], [ -48.2959902, -18.9017562 ], [ -48.295944, -18.9012082 ], [ -48.2958687, -18.9003751 ], [ -48.2958386, -18.8996947 ], [ -48.2957981, -18.8994591 ], [ -48.2957361, -18.8989853 ], [ -48.29573, -18.8988966 ], [ -48.2956819, -18.8982334 ], [ -48.2956191, -18.8975934 ], [ -48.2955972, -18.8973702 ], [ -48.2955636, -18.8969364 ], [ -48.2954686, -18.8956881 ], [ -48.295405700000011, -18.8948649 ], [ -48.2953649, -18.8944346 ], [ -48.2953414, -18.8941941 ], [ -48.2952827, -18.8935414 ], [ -48.2952378, -18.8931324 ], [ -48.2952273, -18.8928635 ], [ -48.295166, -18.891986 ], [ -48.2951201, -18.8914541 ], [ -48.295095, -18.8911278 ], [ -48.2950868, -18.8910237 ], [ -48.2950509, -18.890571199999989 ], [ -48.2950506, -18.8904185 ], [ -48.294798900000011, -18.8905297 ], [ -48.2939992, -18.8906867 ], [ -48.2935114, -18.8908656 ], [ -48.2932791, -18.8909002 ], [ -48.2928411, -18.8910854 ], [ -48.2921907, -18.8912298 ], [ -48.2917395, -18.8911262 ], [ -48.2915669, -18.8909975 ], [ -48.2907838, -18.8907997 ], [ -48.2906079, -18.8909033 ], [ -48.2900424, -18.8911467 ], [ -48.2887585, -18.890729 ], [ -48.2879045, -18.8904493 ], [ -48.2871246, -18.8901974 ], [ -48.2861392, -18.8898649 ], [ -48.2859733, -18.8898227 ], [ -48.285865, -18.8897811 ], [ -48.2854235, -18.889625 ], [ -48.2844052, -18.8892831 ], [ -48.2838473, -18.8891042 ], [ -48.2833433, -18.8889386 ], [ -48.2830248, -18.888835 ], [ -48.2829421, -18.888789 ] ] ] ] } },
{ "type": "Feature", "properties": { "fid": 21, "NAME": "Residencial Integração", "COD": 550.0, "SETOR": "Leste", "layer": "residencial integração", "path": "C:/Users/Aplicativos/OneDrive/Área de Trabalho/Wolbachia/2ª etapa/Mapas/Mapas/Mapas/residencial integração/residencial integração.shp" }, "geometry": { "type": "MultiPolygon", "coordinates": [ [ [ [ -48.197681608706525, -18.909163038877271 ], [ -48.19728501184381, -18.9100024 ], [ -48.197202, -18.9102397 ], [ -48.196193, -18.9113572 ], [ -48.1952978, -18.912354 ], [ -48.1992005, -18.9145656 ], [ -48.2004486, -18.9152736 ], [ -48.2006475, -18.9151798 ], [ -48.2033793, -18.9205578 ], [ -48.2041334, -18.9216098 ], [ -48.2058142, -18.9206055 ], [ -48.2091809, -18.9185939 ], [ -48.211185, -18.9173965 ], [ -48.2116946, -18.917092 ], [ -48.2142292, -18.9155776 ], [ -48.2158197, -18.9146272 ], [ -48.2162669, -18.91436 ], [ -48.2166389, -18.9141377 ], [ -48.2167706, -18.914059 ], [ -48.2165744, -18.9139723 ], [ -48.2163984, -18.9139328 ], [ -48.2162141, -18.9138769 ], [ -48.2156824, -18.913513 ], [ -48.2152078, -18.9132043 ], [ -48.2147332, -18.9129012 ], [ -48.2147222, -18.9128942 ], [ -48.2146004, -18.9128268 ], [ -48.2149816, -18.9126295 ], [ -48.2148935, -18.9125124 ], [ -48.2143623, -18.911775899999988 ], [ -48.2141611, -18.9114507 ], [ -48.2140916, -18.9112891 ], [ -48.2140073, -18.9107314 ], [ -48.2139298, -18.910105 ], [ -48.2138353, -18.9095509 ], [ -48.2138206, -18.9094684 ], [ -48.2137357, -18.9088674 ], [ -48.2136521, -18.9082562 ], [ -48.2134909, -18.9070526 ], [ -48.2133709, -18.9062722 ], [ -48.2133809, -18.9060443 ], [ -48.213328, -18.905822 ], [ -48.2129732, -18.9058445 ], [ -48.211926, -18.9059751 ], [ -48.2115092, -18.9060351 ], [ -48.21131290000001, -18.9060649 ], [ -48.2106808, -18.9061608 ], [ -48.2100971, -18.9062494 ], [ -48.208290526158081, -18.906606586463944 ], [ -48.206884837394469, -18.906934964576752 ], [ -48.206712972365949, -18.906979032532785 ], [ -48.20671297236597, -18.906979032532782 ], [ -48.206660157633074, -18.906992574771984 ], [ -48.206320257481217, -18.907050184967215 ], [ -48.205974596309836, -18.907116436691727 ], [ -48.205689425843445, -18.907153883318625 ], [ -48.205516595257755, -18.907179807906481 ], [ -48.205410016396584, -18.907197090965049 ], [ -48.205306318045174, -18.907223015552901 ], [ -48.205208380713287, -18.907234537591947 ], [ -48.20480510934668, -18.907280625748129 ], [ -48.204453687155777, -18.907343996962883 ], [ -48.204188680257715, -18.907395846138588 ], [ -48.203871824183956, -18.907424651236205 ], [ -48.203705592353572, -18.907455987255961 ], [ -48.203245892353571, -18.907493287255964 ], [ -48.203024954314074, -18.90753123009738 ], [ -48.202759947416013, -18.907574437743801 ], [ -48.202739783847683, -18.907580198763323 ], [ -48.202725381298876, -18.907574437743801 ], [ -48.2026709, -18.9075882 ], [ -48.2024388, -18.9076169 ], [ -48.2018079, -18.9076755 ], [ -48.2011597, -18.9077306 ], [ -48.20054780000001, -18.9078029 ], [ -48.2004093, -18.9078336 ], [ -48.2003645, -18.9077601 ], [ -48.199602651698456, -18.907570141856024 ], [ -48.199594766340383, -18.907568175732347 ], [ -48.1995708, -18.9075622 ], [ -48.198116589804762, -18.9083189 ], [ -48.197889005409358, -18.908702157315432 ], [ -48.197681608706525, -18.909163038877271 ] ] ] ] } },
{ "type": "Feature", "properties": { "fid": 22, "NAME": "Santa Rosa", "COD": 518.0, "SETOR": "Norte", "layer": "santa rosa", "path": "C:/Users/Aplicativos/OneDrive/Área de Trabalho/Wolbachia/2ª etapa/Mapas/Mapas/Mapas/santa_rosa/santa rosa.shp" }, "geometry": { "type": "MultiPolygon", "coordinates": [ [ [ [ -48.2744921, -18.8932017 ], [ -48.2745782, -18.8932661 ], [ -48.2747076, -18.8933555 ], [ -48.2750295, -18.8935541 ], [ -48.2752495, -18.8936708 ], [ -48.2758348, -18.8940014 ], [ -48.2758777, -18.894027 ], [ -48.2759066, -18.8940432 ], [ -48.2764806, -18.894375 ], [ -48.2768293, -18.8945825 ], [ -48.2770205, -18.894681 ], [ -48.2774662, -18.8942067 ], [ -48.2775282, -18.8941814 ], [ -48.2776019, -18.8941294 ], [ -48.2783216, -18.893384 ], [ -48.2796228, -18.8920943 ], [ -48.2799205, -18.8922764 ], [ -48.2799587, -18.892296 ], [ -48.280204, -18.8917945 ], [ -48.2806334, -18.8913883 ], [ -48.2808633, -18.890931 ], [ -48.2829421, -18.888789 ], [ -48.2932029, -18.8786755 ], [ -48.2939532, -18.8779359 ], [ -48.2941805, -18.877826 ], [ -48.2942802, -18.8777879 ], [ -48.2945845, -18.8772035 ], [ -48.2948007, -18.876832 ], [ -48.2945762, -18.876764 ], [ -48.2942893, -18.8767342 ], [ -48.2939429, -18.8766747 ], [ -48.2935936, -18.8766599 ], [ -48.2932831, -18.8766493 ], [ -48.2930547, -18.8765986 ], [ -48.2925472, -18.8766493 ], [ -48.292065, -18.8768523 ], [ -48.291659, -18.8768016 ], [ -48.2915212, -18.8767336 ], [ -48.2912421, -18.8767541 ], [ -48.2909974, -18.8768958 ], [ -48.2908476, -18.8769332 ], [ -48.2907931, -18.8768026 ], [ -48.2906614, -18.8766772 ], [ -48.2905924, -18.8765392 ], [ -48.2905485, -18.8763573 ], [ -48.2903854, -18.8762256 ], [ -48.2902976, -18.8761001 ], [ -48.2902349, -18.8758869 ], [ -48.2900468, -18.8757615 ], [ -48.2899339, -18.8756737 ], [ -48.2898837, -18.8755231 ], [ -48.2897332, -18.8752723 ], [ -48.289545, -18.8753475 ], [ -48.2894196, -18.8754228 ], [ -48.2893318, -18.8752974 ], [ -48.2893976, -18.875012 ], [ -48.2892847, -18.8749054 ], [ -48.2892095, -18.8747172 ], [ -48.2889962, -18.8746075 ], [ -48.2889319, -18.8744507 ], [ -48.2888332, -18.8742656 ], [ -48.2887265, -18.8741716 ], [ -48.2885854, -18.8739928 ], [ -48.2884694, -18.8738737 ], [ -48.2882875, -18.8737325 ], [ -48.2881809, -18.8735946 ], [ -48.2880304, -18.8735068 ], [ -48.2879363, -18.8733751 ], [ -48.2878736, -18.8732496 ], [ -48.2876917, -18.8731493 ], [ -48.2875412, -18.8730552 ], [ -48.2873781, -18.8730301 ], [ -48.2872809, -18.8729392 ], [ -48.2871774, -18.8728231 ], [ -48.2870269, -18.8727636 ], [ -48.2869171, -18.8726601 ], [ -48.2868074, -18.8725472 ], [ -48.2866694, -18.8725974 ], [ -48.2865168, -18.8724966 ], [ -48.2863464, -18.8723716 ], [ -48.2861065, -18.8723198 ], [ -48.285829, -18.8722712 ], [ -48.2857663, -18.8721552 ], [ -48.2857268, -18.8719856 ], [ -48.2855656, -18.8719639 ], [ -48.2854464, -18.8720329 ], [ -48.2852919, -18.871994099999988 ], [ -48.2851938, -18.871786 ], [ -48.2851685, -18.8717323 ], [ -48.2851507, -18.8716951 ], [ -48.2851179, -18.8716637 ], [ -48.2851068, -18.8716592 ], [ -48.2704226, -18.8813871 ], [ -48.2704605, -18.8815248 ], [ -48.2705178, -18.8816815 ], [ -48.2706547, -18.8819302 ], [ -48.271086, -18.8824726 ], [ -48.2712308, -18.8826264 ], [ -48.2713455, -18.8827761 ], [ -48.2718565, -18.8834779 ], [ -48.2724472, -18.8842982 ], [ -48.2729463, -18.884985 ], [ -48.2759201, -18.8891015 ], [ -48.2761163, -18.8893743 ], [ -48.2762754, -18.8896389 ], [ -48.276296, -18.8896763 ], [ -48.2764073, -18.8899326 ], [ -48.2765911, -18.8904934 ], [ -48.27666880000001, -18.8909502 ], [ -48.2765535, -18.8912015 ], [ -48.2762692, -18.8917445 ], [ -48.2760149, -18.8921416 ], [ -48.2744921, -18.8932017 ] ] ] ] } },
{ "type": "Feature", "properties": { "fid": 23, "NAME": "São Jorge", "COD": 297.0, "SETOR": "Sul", "layer": "são jorge", "path": "C:/Users/Aplicativos/OneDrive/Área de Trabalho/Wolbachia/2ª etapa/Mapas/Mapas/Mapas/são jorge/são jorge.shp" }, "geometry": { "type": "MultiPolygon", "coordinates": [ [ [ [ -48.2373111, -18.9504219 ], [ -48.2355208, -18.9497684 ], [ -48.2348669, -18.9494841 ], [ -48.2341532, -18.9492759 ], [ -48.2334575, -18.9490288 ], [ -48.2328489, -18.948737 ], [ -48.2320613, -18.9484504 ], [ -48.2306253, -18.9479588 ], [ -48.2301138, -18.9477806 ], [ -48.2292113, -18.9475209 ], [ -48.2237443, -18.9457803 ], [ -48.2184315, -18.9451519 ], [ -48.2176913, -18.9488401 ], [ -48.2175627, -18.949482 ], [ -48.216667, -18.9547381 ], [ -48.2162899, -18.9569891 ], [ -48.215956, -18.9590907 ], [ -48.2159245, -18.9593461 ], [ -48.2156299, -18.9613377 ], [ -48.2150672, -18.9650854 ], [ -48.2149051, -18.9669946 ], [ -48.2142724, -18.9711708 ], [ -48.2149332, -18.9712426 ], [ -48.2294945, -18.973217 ], [ -48.2295475, -18.9728428 ], [ -48.2296559, -18.9720774 ], [ -48.229735, -18.971551 ], [ -48.2298128, -18.9709943 ], [ -48.2298812, -18.9704463 ], [ -48.2299497, -18.9698781 ], [ -48.2300133, -18.9693431 ], [ -48.2300611, -18.9688988 ], [ -48.2301334, -18.9683448 ], [ -48.2302043, -18.9678272 ], [ -48.230266, -18.967286 ], [ -48.2303509, -18.9666865 ], [ -48.2303721, -18.9665825 ], [ -48.2303869, -18.966453 ], [ -48.2304434, -18.9660254 ], [ -48.2305053, -18.9654865 ], [ -48.2305837, -18.9649348 ], [ -48.2305961, -18.9648424 ], [ -48.2306564, -18.9643654 ], [ -48.2307033, -18.9640016 ], [ -48.2307178, -18.9638293 ], [ -48.2307898, -18.9632851 ], [ -48.2308646, -18.9627456 ], [ -48.2309342, -18.9621956 ], [ -48.2310045, -18.9616606 ], [ -48.2310057, -18.961582199999988 ], [ -48.2310064, -18.9615328 ], [ -48.2310138, -18.9614713 ], [ -48.2311311, -18.9610099 ], [ -48.2312723, -18.9604735 ], [ -48.2314139, -18.9599316 ], [ -48.2315683, -18.9593874 ], [ -48.2317051, -18.9588464 ], [ -48.232416, -18.9561255 ], [ -48.2325229, -18.9558281 ], [ -48.2373111, -18.9504219 ] ] ] ] } },
{ "type": "Feature", "properties": { "fid": 24, "NAME": "Shopping Park", "COD": 319.0, "SETOR": "Sul", "layer": "shopping park", "path": "C:/Users/Aplicativos/OneDrive/Área de Trabalho/Wolbachia/2ª etapa/Mapas/Mapas/Mapas/shopping park/shopping park.shp" }, "geometry": { "type": "MultiPolygon", "coordinates": [ [ [ [ -48.2619088, -18.9940299 ], [ -48.2626353, -18.9943283 ], [ -48.2631931, -18.9947305 ], [ -48.263258, -18.994977 ], [ -48.2655153, -18.9960018 ], [ -48.2661121, -18.9963391 ], [ -48.2666699, -18.9963651 ], [ -48.2688494, -18.996404 ], [ -48.2697446, -18.9962224 ], [ -48.271003, -18.9963262 ], [ -48.2718203, -18.996404 ], [ -48.2725209, -18.9962743 ], [ -48.2736495, -18.9961186 ], [ -48.2739479, -18.995418 ], [ -48.2744539, -18.9950807 ], [ -48.2752322, -18.9948732 ], [ -48.2755436, -18.9944321 ], [ -48.2756604, -18.9939132 ], [ -48.2764517, -18.9929661 ], [ -48.276802, -18.9918115 ], [ -48.2773858, -18.9900731 ], [ -48.2779696, -18.9887888 ], [ -48.2796145, -18.9871132 ], [ -48.2812518, -18.9857011 ], [ -48.2815761, -18.9840276 ], [ -48.2826529, -18.9824319 ], [ -48.2829124, -18.9818481 ], [ -48.2833535, -18.9808232 ], [ -48.2837297, -18.9796167 ], [ -48.2838793, -18.979065 ], [ -48.2840599, -18.9783672 ], [ -48.2844093, -18.9776046 ], [ -48.2849414, -18.9768241 ], [ -48.2855207, -18.9763283 ], [ -48.28576480000001, -18.976242 ], [ -48.2860733, -18.9763029 ], [ -48.2863677, -18.9765474 ], [ -48.2866073, -18.9766988 ], [ -48.2869133, -18.9767499 ], [ -48.2873142, -18.9765794 ], [ -48.2876859, -18.976445 ], [ -48.2884348, -18.9763334 ], [ -48.2894261, -18.9762101 ], [ -48.2901505, -18.9758503 ], [ -48.2907733, -18.9750917 ], [ -48.2908915, -18.9749488 ], [ -48.2914747, -18.9742199 ], [ -48.2924087, -18.9725204 ], [ -48.2927298, -18.9718534 ], [ -48.2928808, -18.9713059 ], [ -48.2929207, -18.9711615 ], [ -48.2930136, -18.9705903 ], [ -48.2929817, -18.9703214 ], [ -48.2929299, -18.9698841 ], [ -48.2929008, -18.9694752 ], [ -48.2892425, -18.9668529 ], [ -48.2876627, -18.9656716 ], [ -48.2858263, -18.964507 ], [ -48.2838387, -18.9641188 ], [ -48.2824344, -18.9642005 ], [ -48.2737062, -18.9661722 ], [ -48.2708713, -18.9668873 ], [ -48.2662934, -18.9688475 ], [ -48.2658464, -18.969495 ], [ -48.2611413, -18.9836832 ], [ -48.2615581, -18.9838077 ], [ -48.2620077, -18.9911709 ], [ -48.2619088, -18.9940299 ] ] ] ] } },
{ "type": "Feature", "properties": { "fid": 25, "NAME": "Tocantins", "COD": 306.0, "SETOR": "Oeste", "layer": "tocantins", "path": "C:/Users/Aplicativos/OneDrive/Área de Trabalho/Wolbachia/2ª etapa/Mapas/Mapas/Mapas/tocantins/tocantins.shp" }, "geometry": { "type": "MultiPolygon", "coordinates": [ [ [ [ -48.3407165, -18.8901073 ], [ -48.3406511, -18.8900473 ], [ -48.337703, -18.8919622 ], [ -48.3328602, -18.8950891 ], [ -48.3304498, -18.8966468 ], [ -48.3256647, -18.8998998 ], [ -48.3256374, -18.9001473 ], [ -48.3260982, -18.9004934 ], [ -48.3262735, -18.9006225 ], [ -48.3264521, -18.9007369 ], [ -48.32662220000001, -18.9008394 ], [ -48.3267662, -18.9009207 ], [ -48.3269135, -18.9010121 ], [ -48.3270701, -18.9011143 ], [ -48.3272961, -18.9012723 ], [ -48.3276752, -18.9015775 ], [ -48.3278947, -18.9017488 ], [ -48.3280891, -18.9019164 ], [ -48.3282682, -18.9020849 ], [ -48.3284312, -18.9022448 ], [ -48.3285936, -18.9024061 ], [ -48.3287546, -18.9025802 ], [ -48.3288878, -18.9027308 ], [ -48.329027, -18.9028981 ], [ -48.3291622, -18.9030743 ], [ -48.3293148, -18.9032857 ], [ -48.3294649, -18.9035105 ], [ -48.3295967, -18.903723499999987 ], [ -48.3297204, -18.9039264 ], [ -48.3300098, -18.9043989 ], [ -48.3308981, -18.9059005 ], [ -48.3311491, -18.9063198 ], [ -48.3333541, -18.9063879 ], [ -48.3337248, -18.9064012 ], [ -48.3351138, -18.9063169 ], [ -48.3361519, -18.9061526 ], [ -48.3369891, -18.9059261 ], [ -48.3372811, -18.9057692 ], [ -48.3377284, -18.9053013 ], [ -48.3400692, -18.9044124 ], [ -48.3409359, -18.904270499999988 ], [ -48.3413693, -18.9041341 ], [ -48.3407165, -18.8901073 ] ] ] ] } }
]
}
