    {
"type": "FeatureCollection",
"name": "Novos bairros",
"crs": { "type": "name", "properties": { "name": "urn:ogc:def:crs:OGC:1.3:CRS84" } },
"features": [
{ "type": "Feature", "properties": { "NAME": "Laranjeiras", "COD": 317.0, "SETOR": "Sul" }, "geometry": { "type": "MultiPolygon", "coordinates": [ [ [ [ -48.247030295385166, -18.953592954333448 ], [ -48.243447904313214, -18.952272554028337 ], [ -48.241908208154285, -18.951663653898461 ], [ -48.24166750875559, -18.951560053878325 ], [ -48.241382209464781, -18.951472253853868 ], [ -48.239077515207271, -18.950626153659126 ], [ -48.238401416885182, -18.95044385360103 ], [ -48.23776181847763, -18.950220153546969 ], [ -48.237238019783426, -18.950019953503048 ], [ -48.232449831001041, -18.955426152978472 ], [ -48.232342931234008, -18.955723552963732 ], [ -48.231632032709705, -18.958444452852895 ], [ -48.231495232991989, -18.958985452831264 ], [ -48.231340833317191, -18.959529652808001 ], [ -48.231199233611207, -18.960071552785919 ], [ -48.231058033904795, -18.960607952763976 ], [ -48.23094073414714, -18.961069352745476 ], [ -48.230933334159211, -18.961130852743757 ], [ -48.230932634156026, -18.961180252742817 ], [ -48.230931434151195, -18.961258652741375 ], [ -48.230861134270775, -18.961793652725827 ], [ -48.230791534387151, -18.962343652710071 ], [ -48.230716734517358, -18.962883152694033 ], [ -48.230644734640222, -18.96342735267817 ], [ -48.230630234658747, -18.963599652673889 ], [ -48.230583334737851, -18.963963452663393 ], [ -48.230523034838647, -18.96444045264975 ], [ -48.230510634859932, -18.964532852647036 ], [ -48.230432234997785, -18.965084552630465 ], [ -48.230370335096374, -18.965623452615603 ], [ -48.230313835192739, -18.966051052603138 ], [ -48.230299035216241, -18.966180552599578 ], [ -48.230277835258015, -18.966284552595877 ], [ -48.230192935407096, -18.966884052577893 ], [ -48.230131235504963, -18.967425252563 ], [ -48.230060335627797, -18.967942852547694 ], [ -48.229988035750452, -18.968496852531629 ], [ -48.229940235823797, -18.968941152519651 ], [ -48.229876635926964, -18.969476152504704 ], [ -48.229808136038876, -18.970044352488731 ], [ -48.229739736152553, -18.970592352473123 ], [ -48.229661936288466, -18.971149052456525 ], [ -48.229582836430595, -18.971675452440305 ], [ -48.229474436621004, -18.972440852417343 ], [ -48.229421436714105, -18.972815052406116 ], [ -48.229593136289793, -18.972837852421168 ], [ -48.234441224308682, -18.973483452847553 ], [ -48.246289795020324, -18.97511545390147 ], [ -48.247934090956605, -18.975332354049318 ], [ -48.248649589199673, -18.975315354115626 ], [ -48.249168788254394, -18.972072954218181 ], [ -48.252126982646509, -18.955813454764883 ], [ -48.252239282405569, -18.955472454780992 ], [ -48.247030295385166, -18.953592954333448 ] ] ] ] } },
{ "type": "Feature", "properties": { "NAME": "Saraiva", "COD": 300.0, "SETOR": "Sul" }, "geometry": { "type": "MultiPolygon", "coordinates": [ [ [ [ -48.2714817, -18.9243508 ], [ -48.2712501, -18.9240256 ], [ -48.2705457, -18.9228078 ], [ -48.2668084, -18.9189451 ], [ -48.2654298, -18.9174742 ], [ -48.264425, -18.9164942 ], [ -48.2624391, -18.9145571 ], [ -48.262119, -18.9141873 ], [ -48.262001, -18.9139003 ], [ -48.261964, -18.9135401 ], [ -48.2622529, -18.9113932 ], [ -48.2604981, -18.9117192 ], [ -48.259814, -18.9120093 ], [ -48.2593725, -18.9123759 ], [ -48.2590809, -18.9127464 ], [ -48.2587756, -18.9134362 ], [ -48.2587399, -18.9150063 ], [ -48.2588734, -18.9155158 ], [ -48.2589353, -18.915624 ], [ -48.2610997, -18.9185327 ], [ -48.2620732, -18.9198111 ], [ -48.2624641, -18.9206858 ], [ -48.2625737, -18.9211456 ], [ -48.2626642, -18.922115 ], [ -48.2625498, -18.922949 ], [ -48.2622925, -18.9237741 ], [ -48.2619731, -18.9243827 ], [ -48.2615442, -18.9249283 ], [ -48.2610819, -18.9253836 ], [ -48.2604575, -18.9258119 ], [ -48.2597093, -18.9261726 ], [ -48.2589562, -18.9263935 ], [ -48.2579377, -18.9265824 ], [ -48.2579425, -18.926688 ], [ -48.2580297, -18.9267299 ], [ -48.2581021, -18.9267578 ], [ -48.258251, -18.9268022 ], [ -48.2584132, -18.9268492 ], [ -48.2585205, -18.9268834 ], [ -48.2586439, -18.926922699999988 ], [ -48.2589041, -18.9269925 ], [ -48.2591522, -18.9270623 ], [ -48.259293, -18.9271016 ], [ -48.2595317, -18.9271726 ], [ -48.2598549, -18.9272602 ], [ -48.2600494, -18.9273173 ], [ -48.2602975, -18.927387 ], [ -48.2605281, -18.9274441 ], [ -48.2606918, -18.9275025 ], [ -48.2610391, -18.9276002 ], [ -48.2615031, -18.9277321 ], [ -48.2619202, -18.9278475 ], [ -48.2621361, -18.9279135 ], [ -48.2623655, -18.9279795 ], [ -48.2626337, -18.9280594 ], [ -48.2628536, -18.9281203 ], [ -48.263099, -18.9281863 ], [ -48.2633384, -18.928256 ], [ -48.2636221, -18.9283372 ], [ -48.2639399, -18.928426 ], [ -48.2642148, -18.9285021 ], [ -48.2644589, -18.928577 ], [ -48.2646225, -18.9286226 ], [ -48.2647902, -18.9286785 ], [ -48.264939, -18.9287279 ], [ -48.2657303, -18.9282065 ], [ -48.2664719, -18.9277017 ], [ -48.266952, -18.927382 ], [ -48.2676172, -18.926938 ], [ -48.2682613, -18.9264604 ], [ -48.2689369, -18.9260289 ], [ -48.2694311, -18.92568 ], [ -48.2695836, -18.9255724 ], [ -48.2702407, -18.9251284 ], [ -48.2706836, -18.9248398 ], [ -48.2708872, -18.9247072 ], [ -48.2714817, -18.9243508 ] ] ] ] } },
{ "type": "Feature", "properties": { "NAME": "Cidade Jardim", "COD": 259.0, "SETOR": "Sul" }, "geometry": { "type": "MultiPolygon", "coordinates": [ [ [ [ -48.2935314, -18.9355172 ], [ -48.2936208, -18.9353225 ], [ -48.2941454, -18.9347122 ], [ -48.2942163, -18.9345714 ], [ -48.294283, -18.9306503 ], [ -48.2936548, -18.9297443 ], [ -48.2930789, -18.9296217 ], [ -48.2929255, -18.930188 ], [ -48.2928883, -18.9333191 ], [ -48.292658, -18.9344526 ], [ -48.292283, -18.935257499999988 ], [ -48.2920128, -18.9358374 ], [ -48.2914621, -18.936577 ], [ -48.2905651, -18.9370648 ], [ -48.2899957, -18.9379598 ], [ -48.2893211, -18.9386604 ], [ -48.2889579, -18.9396463 ], [ -48.2885328, -18.9413739 ], [ -48.2879662, -18.9439795 ], [ -48.2876175, -18.9449293 ], [ -48.2872473, -18.9458852 ], [ -48.2872398, -18.9465666 ], [ -48.287466, -18.947054 ], [ -48.2874919, -18.9473394 ], [ -48.2872454, -18.9480659 ], [ -48.28673950000001, -18.9487146 ], [ -48.2866097, -18.9492854 ], [ -48.286804, -18.9496039 ], [ -48.2869389, -18.9499239 ], [ -48.2871414, -18.9501093 ], [ -48.2873864, -18.9501942 ], [ -48.2880501, -18.9501951 ], [ -48.2886854, -18.9502497 ], [ -48.2893765, -18.950435 ], [ -48.290011, -18.9505401 ], [ -48.2908868, -18.9511904 ], [ -48.2921363, -18.9513871 ], [ -48.2922111, -18.9510042 ], [ -48.2927902, -18.9510468 ], [ -48.2934696, -18.950888 ], [ -48.2942534, -18.9506145 ], [ -48.29503720000001, -18.9503411 ], [ -48.2951672, -18.9502033 ], [ -48.2952028, -18.9502154 ], [ -48.2952406, -18.950216 ], [ -48.2952766, -18.950205 ], [ -48.2953069, -18.9501836 ], [ -48.29539, -18.9501943 ], [ -48.2958566, -18.9501327 ], [ -48.2964451, -18.950186299999988 ], [ -48.299398, -18.9498209 ], [ -48.2997738, -18.9496499 ], [ -48.3005218, -18.9495661 ], [ -48.3012095, -18.9498343 ], [ -48.3054135, -18.9514002 ], [ -48.3070246, -18.9520225 ], [ -48.307082800000011, -18.9491604 ], [ -48.307088, -18.9489053 ], [ -48.3071173, -18.9477061 ], [ -48.3071901, -18.9445007 ], [ -48.3072283, -18.9435343 ], [ -48.3072382, -18.9431381 ], [ -48.3072743, -18.941680399999981 ], [ -48.3072902, -18.9407522 ], [ -48.307302, -18.9403763 ], [ -48.3073063, -18.9403007 ], [ -48.3073314, -18.9399754 ], [ -48.3073422, -18.9398648 ], [ -48.3074788, -18.9393355 ], [ -48.3073176, -18.9393561 ], [ -48.3070826, -18.9394423 ], [ -48.3059922, -18.9406818 ], [ -48.3057528, -18.9409 ], [ -48.3054533, -18.9410043 ], [ -48.3010036, -18.9418475 ], [ -48.3006625, -18.9419455 ], [ -48.2978769, -18.9429923 ], [ -48.2978062, -18.9429789 ], [ -48.2975795, -18.9426843 ], [ -48.2973643, -18.9423881 ], [ -48.2968935, -18.9417107 ], [ -48.2965195, -18.9411806 ], [ -48.2964872, -18.9411272 ], [ -48.2959923, -18.9402298 ], [ -48.2957777, -18.9398327 ], [ -48.2954586, -18.9392657 ], [ -48.2951139, -18.9386619 ], [ -48.2945895, -18.9376953 ], [ -48.2944366, -18.937401 ], [ -48.2942435, -18.9370522 ], [ -48.2939391, -18.9365029 ], [ -48.2936011, -18.9358762 ], [ -48.2935669, -18.9357748 ], [ -48.2935475, -18.9356733 ], [ -48.2935314, -18.9355172 ] ] ] ] } },
{ "type": "Feature", "properties": { "NAME": "Jardim Holanda", "COD": 256.0, "SETOR": "Oeste" }, "geometry": { "type": "MultiPolygon", "coordinates": [ [ [ [ -48.3156342, -18.9706677 ], [ -48.3248482, -18.9596499 ], [ -48.3248642, -18.9595261 ], [ -48.3249177, -18.9591236 ], [ -48.3249193, -18.9590324 ], [ -48.3249121, -18.958194 ], [ -48.3249031, -18.9577224 ], [ -48.3248328, -18.9560827 ], [ -48.324822, -18.9558277 ], [ -48.3248281, -18.95538 ], [ -48.3248274, -18.9553191 ], [ -48.3248489, -18.954577100000012 ], [ -48.3248802, -18.9532005 ], [ -48.3248813, -18.9531213 ], [ -48.3249329, -18.9522948 ], [ -48.3249547, -18.9517061 ], [ -48.3249302, -18.9514906 ], [ -48.324895, -18.9514282 ], [ -48.3248297, -18.9513607 ], [ -48.324762, -18.9512648 ], [ -48.3246906, -18.9511566 ], [ -48.3246305, -18.9510304 ], [ -48.3246316, -18.9509493 ], [ -48.3245668, -18.9507886 ], [ -48.3242548, -18.9506856 ], [ -48.3137446, -18.9488479 ], [ -48.3120692, -18.9522295 ], [ -48.3111143, -18.9540762 ], [ -48.3094819, -18.9568108 ], [ -48.3069492, -18.9608124 ], [ -48.3068169, -18.9609347 ], [ -48.306702, -18.9665402 ], [ -48.3067068, -18.9669142 ], [ -48.3067261, -18.9673165 ], [ -48.3067657, -18.9677246 ], [ -48.3068034, -18.9680309 ], [ -48.3068464, -18.9683413 ], [ -48.3068948, -18.9686233 ], [ -48.3069914, -18.9690576 ], [ -48.3073578, -18.9707337 ], [ -48.3107605, -18.9697402 ], [ -48.312375, -18.9698116 ], [ -48.3136274, -18.9697688 ], [ -48.3156342, -18.9706677 ] ] ] ] } },
{ "type": "Feature", "properties": { "NAME": "Tubalina", "COD": 307.0, "SETOR": "Sul" }, "geometry": { "type": "MultiPolygon", "coordinates": [ [ [ [ -48.2930789, -18.9296217 ], [ -48.2936548, -18.9297443 ], [ -48.294283, -18.9306503 ], [ -48.2942163, -18.9345714 ], [ -48.2941454, -18.9347122 ], [ -48.2936208, -18.9353225 ], [ -48.2935314, -18.9355172 ], [ -48.2935475, -18.9356733 ], [ -48.2935669, -18.9357748 ], [ -48.2936011, -18.9358762 ], [ -48.2939391, -18.9365029 ], [ -48.2942435, -18.9370522 ], [ -48.2944366, -18.937401 ], [ -48.2945895, -18.9376953 ], [ -48.2951139, -18.9386619 ], [ -48.2954586, -18.9392657 ], [ -48.2957777, -18.9398327 ], [ -48.2959923, -18.9402298 ], [ -48.2964872, -18.9411272 ], [ -48.2965195, -18.9411806 ], [ -48.2968935, -18.9417107 ], [ -48.2973643, -18.9423881 ], [ -48.2975795, -18.9426843 ], [ -48.2978062, -18.9429789 ], [ -48.2978769, -18.9429923 ], [ -48.3006625, -18.9419455 ], [ -48.3010036, -18.9418475 ], [ -48.3054533, -18.9410043 ], [ -48.3057528, -18.9409 ], [ -48.3059922, -18.9406818 ], [ -48.3070826, -18.9394423 ], [ -48.3073176, -18.9393561 ], [ -48.3074788, -18.9393355 ], [ -48.3071913, -18.9387755 ], [ -48.3070239, -18.9385147 ], [ -48.3061421, -18.9372546 ], [ -48.3010908, -18.9300365 ], [ -48.3006919, -18.929637 ], [ -48.3003212, -18.929344 ], [ -48.2974433, -18.9278102 ], [ -48.2969732, -18.9275121 ], [ -48.2962392, -18.9268384 ], [ -48.2961415, -18.9269931 ], [ -48.296128, -18.9271586 ], [ -48.2960571, -18.9275128 ], [ -48.2954591, -18.9280636 ], [ -48.294751, -18.9284098 ], [ -48.2934921, -18.9289291 ], [ -48.2931773, -18.9293697 ], [ -48.2930789, -18.9296217 ] ] ] ] } },
{ "type": "Feature", "properties": { "NAME": "Chácaras Tubalina e Quartel", "COD": 258.0, "SETOR": "Oeste" }, "geometry": { "type": "MultiPolygon", "coordinates": [ [ [ [ -48.3214623, -18.942971 ], [ -48.3257139, -18.9369218 ], [ -48.327307, -18.934655 ], [ -48.3284083, -18.9339853 ], [ -48.3287118, -18.9328266 ], [ -48.327812, -18.9317242 ], [ -48.3278312, -18.931685 ], [ -48.3278633, -18.9316194 ], [ -48.32818120000001, -18.9309695 ], [ -48.3281475, -18.9304486 ], [ -48.328406, -18.930065899999988 ], [ -48.3284172, -18.9295025 ], [ -48.3286982, -18.9286945 ], [ -48.3285183, -18.9284075 ], [ -48.3287768, -18.927961 ], [ -48.3288443, -18.9274827 ], [ -48.3290241, -18.9271106 ], [ -48.3285071, -18.9263026 ], [ -48.3286039, -18.9254608 ], [ -48.3260169, -18.9235532 ], [ -48.3257728, -18.9233908 ], [ -48.3257397, -18.9233601 ], [ -48.3256056, -18.9231521 ], [ -48.3255287, -18.923099 ], [ -48.3254429, -18.9230661 ], [ -48.3252927, -18.9230458 ], [ -48.3250862, -18.9230838 ], [ -48.3249431, -18.9230607 ], [ -48.3248126, -18.9230178 ], [ -48.3246972, -18.923028 ], [ -48.3244656, -18.9229618 ], [ -48.3242681, -18.9229189 ], [ -48.3239945, -18.9228352 ], [ -48.3237334, -18.9227233 ], [ -48.3236502, -18.9226522 ], [ -48.3236029, -18.9225738 ], [ -48.3235403, -18.9225152 ], [ -48.3233874, -18.9223985 ], [ -48.3232881, -18.9223351 ], [ -48.3231818, -18.9222414 ], [ -48.3231514, -18.9221828 ], [ -48.3230638, -18.9220892 ], [ -48.3228724, -18.9220078 ], [ -48.322749, -18.9218657 ], [ -48.3227142, -18.9217464 ], [ -48.3225961, -18.9214952 ], [ -48.3224996, -18.9213176 ], [ -48.3223816, -18.9212085 ], [ -48.3220651, -18.9210005 ], [ -48.3219802, -18.9209601 ], [ -48.3219063, -18.9209374 ], [ -48.3216252, -18.9208508 ], [ -48.3214964, -18.9208178 ], [ -48.3213382, -18.9207239 ], [ -48.3212524, -18.9206402 ], [ -48.3210602, -18.9205288 ], [ -48.3209466, -18.9204499 ], [ -48.3208312, -18.920389 ], [ -48.3205613, -18.92027 ], [ -48.320048, -18.9201454 ], [ -48.3198013, -18.9201099 ], [ -48.3196091, -18.9201127 ], [ -48.3193194, -18.9201583 ], [ -48.3189359, -18.920237 ], [ -48.3188634, -18.9202345 ], [ -48.3187633, -18.920186 ], [ -48.3186408, -18.9201051 ], [ -48.3183485, -18.9198107 ], [ -48.3182492, -18.919694 ], [ -48.3181624, -18.91961 ], [ -48.3180873, -18.9195669 ], [ -48.3180025, -18.9195595 ], [ -48.317685, -18.919506 ], [ -48.3174973, -18.9194527 ], [ -48.3172648, -18.9194377 ], [ -48.3170476, -18.9194377 ], [ -48.3167204, -18.9193439 ], [ -48.3165782, -18.9192779 ], [ -48.3165102, -18.9192218 ], [ -48.3164682, -18.919108 ], [ -48.3163931, -18.9190268 ], [ -48.3162858, -18.9189482 ], [ -48.3160194, -18.918859 ], [ -48.3158584, -18.9188184 ], [ -48.3155911, -18.9186818 ], [ -48.3154597, -18.9185777 ], [ -48.3150735, -18.9183164 ], [ -48.3148482, -18.9181464 ], [ -48.3145763, -18.9180166 ], [ -48.3143949, -18.9179561 ], [ -48.314242, -18.9178698 ], [ -48.3139192, -18.9176664 ], [ -48.3136134, -18.9175193 ], [ -48.3135249, -18.9174279 ], [ -48.3134632, -18.917329 ], [ -48.3134078, -18.9173014 ], [ -48.3133327, -18.9172203 ], [ -48.3132862, -18.9171032 ], [ -48.31303770000001, -18.9167102 ], [ -48.3127301, -18.9163694 ], [ -48.3124252, -18.9164646 ], [ -48.3037037, -18.9260605 ], [ -48.3035567, -18.9262521 ], [ -48.3083118, -18.9271899 ], [ -48.3203456, -18.9294395 ], [ -48.3203229, -18.9295346 ], [ -48.3203059, -18.9296218 ], [ -48.3210879, -18.9379463 ], [ -48.3211815, -18.9389429 ], [ -48.3212829, -18.940022 ], [ -48.3213301, -18.9405242 ], [ -48.3213199, -18.9406399 ], [ -48.321346, -18.941688 ], [ -48.3210819, -18.942448 ], [ -48.3214623, -18.942971 ] ] ] ] } },
{ "type": "Feature", "properties": { "NAME": "Mansour", "COD": 278.0, "SETOR": "Oeste" }, "geometry": { "type": "MultiPolygon", "coordinates": [ [ [ [ -48.327812, -18.9317242 ], [ -48.3402802, -18.934602 ], [ -48.3427818, -18.9352393 ], [ -48.3449839, -18.9359055 ], [ -48.3459018, -18.9361169 ], [ -48.3460905, -18.9361334 ], [ -48.3461602, -18.9361354 ], [ -48.3462139, -18.9361265 ], [ -48.34626, -18.9361061 ], [ -48.3463023, -18.9360783 ], [ -48.3463377, -18.9360455 ], [ -48.3463668, -18.9360019 ], [ -48.3463808, -18.9359434 ], [ -48.346382, -18.935883 ], [ -48.3463679, -18.9358086 ], [ -48.3463122, -18.9356674 ], [ -48.3461994, -18.9355225 ], [ -48.3460839, -18.9353789 ], [ -48.3460163, -18.9352812 ], [ -48.3459622, -18.9351936 ], [ -48.3458573, -18.9349999 ], [ -48.3458032, -18.9348777 ], [ -48.3457483, -18.93473 ], [ -48.3456888, -18.9345624 ], [ -48.345641, -18.9344365 ], [ -48.3455666, -18.9342678 ], [ -48.3454482, -18.9340064 ], [ -48.3413027, -18.9266774 ], [ -48.3410685, -18.9267091 ], [ -48.3398965, -18.9268974 ], [ -48.338971, -18.9265094 ], [ -48.3356097, -18.925973 ], [ -48.3328311, -18.9253675 ], [ -48.3311488, -18.9252568 ], [ -48.3295652, -18.9256473 ], [ -48.3286039, -18.9254608 ], [ -48.3285071, -18.9263026 ], [ -48.3290241, -18.9271106 ], [ -48.3288443, -18.9274827 ], [ -48.3287768, -18.927961 ], [ -48.3285183, -18.9284075 ], [ -48.3286982, -18.9286945 ], [ -48.3284172, -18.9295025 ], [ -48.328406, -18.930065899999988 ], [ -48.3281475, -18.9304486 ], [ -48.32818120000001, -18.9309695 ], [ -48.3278633, -18.9316194 ], [ -48.3278312, -18.931685 ], [ -48.327812, -18.9317242 ] ] ] ] } },
{ "type": "Feature", "properties": { "NAME": "Tabajaras", "COD": 302.0, "SETOR": "Central" }, "geometry": { "type": "MultiPolygon", "coordinates": [ [ [ [ -48.2962392, -18.9268384 ], [ -48.2951585, -18.9257974 ], [ -48.2931129, -18.9242759 ], [ -48.2904228, -18.9230312 ], [ -48.2883156, -18.9220561 ], [ -48.2854475, -18.9200822 ], [ -48.2845399, -18.9194679 ], [ -48.2845816, -18.9195605 ], [ -48.2839293, -18.9199737 ], [ -48.2836207, -18.920163 ], [ -48.2852751, -18.9212226 ], [ -48.2852605, -18.9214635 ], [ -48.2852716, -18.9227451 ], [ -48.2852569, -18.923467 ], [ -48.2852195, -18.9242445 ], [ -48.2851949, -18.9254394 ], [ -48.2847292, -18.9254291 ], [ -48.2845718, -18.9254256 ], [ -48.2845551, -18.9264085 ], [ -48.2845384, -18.9269318 ], [ -48.2844602, -18.9277886 ], [ -48.2844474, -18.9278358 ], [ -48.284435, -18.9278732 ], [ -48.2844236, -18.9278935 ], [ -48.2843576, -18.9279744 ], [ -48.2842181, -18.9281076 ], [ -48.2839579, -18.9283429 ], [ -48.2838446, -18.9284501 ], [ -48.2836574, -18.9285677 ], [ -48.2828727, -18.9285637 ], [ -48.282502, -18.9285591 ], [ -48.2812591, -18.928548 ], [ -48.2810999, -18.9284385 ], [ -48.2818367, -18.9280491 ], [ -48.2806561, -18.9270715 ], [ -48.2807937, -18.9267831 ], [ -48.2812841, -18.9257716 ], [ -48.2813925, -18.9255498 ], [ -48.2817803, -18.9247479 ], [ -48.2809524, -18.9245376 ], [ -48.2804642, -18.9254274 ], [ -48.279811, -18.9265423 ], [ -48.2793261, -18.9272484 ], [ -48.2789591, -18.9278653 ], [ -48.278508, -18.9286007 ], [ -48.2782446, -18.9290763 ], [ -48.2781353, -18.9292137 ], [ -48.2777236, -18.9298795 ], [ -48.2788659, -18.9306147 ], [ -48.2816824, -18.9319108 ], [ -48.2820865, -18.9320073 ], [ -48.2828188, -18.9320583 ], [ -48.2831767, -18.9320119 ], [ -48.2835448, -18.9319286 ], [ -48.2844065, -18.9315463 ], [ -48.2847601, -18.9314339 ], [ -48.2852099, -18.9313831 ], [ -48.2873875, -18.9312198 ], [ -48.2879221, -18.931251899999989 ], [ -48.2884483, -18.9313295 ], [ -48.2887784, -18.9313711 ], [ -48.2891704, -18.9313428 ], [ -48.2894185, -18.9312784 ], [ -48.2896425, -18.9312046 ], [ -48.289672, -18.9311883 ], [ -48.2925053, -18.9297483 ], [ -48.2930789, -18.9296217 ], [ -48.2931773, -18.9293697 ], [ -48.2934921, -18.9289291 ], [ -48.294751, -18.9284098 ], [ -48.2954591, -18.9280636 ], [ -48.2960571, -18.9275128 ], [ -48.296128, -18.9271586 ], [ -48.2961415, -18.9269931 ], [ -48.2962392, -18.9268384 ] ] ] ] } },
{ "type": "Feature", "properties": { "NAME": "Jardim Patrícia", "COD": 273.0, "SETOR": "Oeste" }, "geometry": { "type": "MultiPolygon", "coordinates": [ [ [ [ -48.3324202, -18.9082566 ], [ -48.3319725, -18.9077024 ], [ -48.331688, -18.9072366 ], [ -48.3313829, -18.9067103 ], [ -48.3311491, -18.9063198 ], [ -48.3250764, -18.9055734 ], [ -48.3238268, -18.9075066 ], [ -48.3221333, -18.9087901 ], [ -48.3175771, -18.9107448 ], [ -48.3127164, -18.9161273 ], [ -48.3127301, -18.9163694 ], [ -48.31303770000001, -18.9167102 ], [ -48.3132862, -18.9171032 ], [ -48.3133327, -18.9172203 ], [ -48.3134078, -18.9173014 ], [ -48.3134632, -18.917329 ], [ -48.3135249, -18.9174279 ], [ -48.3136134, -18.9175193 ], [ -48.3139192, -18.9176664 ], [ -48.314242, -18.9178698 ], [ -48.3143949, -18.9179561 ], [ -48.3145763, -18.9180166 ], [ -48.3148482, -18.9181464 ], [ -48.3150735, -18.9183164 ], [ -48.3154597, -18.9185777 ], [ -48.3155911, -18.9186818 ], [ -48.3158584, -18.9188184 ], [ -48.3160194, -18.918859 ], [ -48.3162858, -18.9189482 ], [ -48.3163931, -18.9190268 ], [ -48.3164682, -18.919108 ], [ -48.3165102, -18.9192218 ], [ -48.3165782, -18.9192779 ], [ -48.3167204, -18.9193439 ], [ -48.3170476, -18.9194377 ], [ -48.3172648, -18.9194377 ], [ -48.3174973, -18.9194527 ], [ -48.317685, -18.919506 ], [ -48.3180025, -18.9195595 ], [ -48.3180873, -18.9195669 ], [ -48.3181624, -18.91961 ], [ -48.3182492, -18.919694 ], [ -48.3183485, -18.9198107 ], [ -48.3186408, -18.9201051 ], [ -48.3187633, -18.920186 ], [ -48.3188634, -18.9202345 ], [ -48.3189359, -18.920237 ], [ -48.3193194, -18.9201583 ], [ -48.3196091, -18.9201127 ], [ -48.3198013, -18.9201099 ], [ -48.320048, -18.9201454 ], [ -48.3205613, -18.92027 ], [ -48.3208312, -18.920389 ], [ -48.3209466, -18.9204499 ], [ -48.3210602, -18.9205288 ], [ -48.3212524, -18.9206402 ], [ -48.3213382, -18.9207239 ], [ -48.3214964, -18.9208178 ], [ -48.3216252, -18.9208508 ], [ -48.3219063, -18.9209374 ], [ -48.3218332, -18.9205179 ], [ -48.3219141, -18.9204321 ], [ -48.3225306, -18.91921 ], [ -48.3225554, -18.9191117 ], [ -48.3228015, -18.9185633 ], [ -48.3230857, -18.918036499999989 ], [ -48.3233197, -18.9175124 ], [ -48.323446, -18.9172765 ], [ -48.3235413, -18.9171372 ], [ -48.3235912, -18.9170088 ], [ -48.3238643, -18.9164826 ], [ -48.3241241, -18.9159616 ], [ -48.3243979, -18.9154232 ], [ -48.324663, -18.9149106 ], [ -48.3248296, -18.9145423 ], [ -48.3253939, -18.9134636 ], [ -48.3254554, -18.9133362 ], [ -48.3255093, -18.9132399 ], [ -48.32564510000001, -18.9129425 ], [ -48.32568890000001, -18.9128796 ], [ -48.328588, -18.9158931 ], [ -48.3286484, -18.9158422 ], [ -48.3296456, -18.9149324 ], [ -48.3306031, -18.914052 ], [ -48.3315419, -18.9131766 ], [ -48.331963, -18.9127985 ], [ -48.3323573, -18.9124483 ], [ -48.3327622, -18.912073 ], [ -48.333161, -18.9117213 ], [ -48.333503, -18.9114069 ], [ -48.3335405, -18.9113724 ], [ -48.3339408, -18.9110051 ], [ -48.3343356, -18.9106429 ], [ -48.3347134, -18.9102963 ], [ -48.3349353, -18.9100927 ], [ -48.3348829, -18.9097373 ], [ -48.3348702, -18.9095723 ], [ -48.33484, -18.9093872 ], [ -48.3347917, -18.9092425 ], [ -48.3340005, -18.909075 ], [ -48.3336862, -18.9089854 ], [ -48.333569, -18.9089383 ], [ -48.3331885, -18.9087713 ], [ -48.3328623, -18.908603800000012 ], [ -48.3326138, -18.9084274 ], [ -48.3324202, -18.9082566 ] ] ] ] } },
{ "type": "Feature", "properties": { "NAME": "Osvaldo Rezende", "COD": 495.0, "SETOR": "Central" }, "geometry": { "type": "MultiPolygon", "coordinates": [ [ [ [ -48.3036976, -18.9105712 ], [ -48.3034574, -18.9103417 ], [ -48.3029943, -18.9100262 ], [ -48.3029486, -18.909839 ], [ -48.3029158, -18.9096113 ], [ -48.3029003, -18.9094996 ], [ -48.3028862, -18.9094266 ], [ -48.3028206, -18.9092161 ], [ -48.3027314, -18.9090416 ], [ -48.3026268, -18.9088963 ], [ -48.3024994, -18.9087543 ], [ -48.3024182, -18.9086806 ], [ -48.3023243, -18.9086038 ], [ -48.3021882, -18.9085156 ], [ -48.3020252, -18.9084307 ], [ -48.3018308, -18.9083533 ], [ -48.3014332, -18.9082385 ], [ -48.3002657, -18.9079004 ], [ -48.2992995, -18.9076441 ], [ -48.2988272, -18.9074906 ], [ -48.2985337, -18.9074081 ], [ -48.2982306, -18.907299 ], [ -48.2979745, -18.907186 ], [ -48.2976083, -18.9070148 ], [ -48.2972556, -18.9068219 ], [ -48.2970263, -18.9066786 ], [ -48.2967299, -18.9064895 ], [ -48.2961546, -18.9061456 ], [ -48.2957777, -18.9059231 ], [ -48.2956496, -18.9058514 ], [ -48.2955337, -18.9057918 ], [ -48.2953701, -18.9057142 ], [ -48.2950335, -18.9055709 ], [ -48.2946539, -18.9054326 ], [ -48.2943642, -18.90534 ], [ -48.294045, -18.9052727 ], [ -48.2938801, -18.9052461 ], [ -48.2936976, -18.9052258 ], [ -48.293125, -18.9051751 ], [ -48.2925416, -18.9051307 ], [ -48.2920373, -18.9051002 ], [ -48.2914017, -18.9050507 ], [ -48.2908974, -18.9050215 ], [ -48.2905877, -18.9050051 ], [ -48.2901843, -18.9050116 ], [ -48.289783, -18.9050165 ], [ -48.2894015, -18.9050343 ], [ -48.2892392, -18.905052 ], [ -48.288936, -18.9059099 ], [ -48.2845544, -18.9194146 ], [ -48.2845399, -18.9194679 ], [ -48.2854475, -18.9200822 ], [ -48.2883156, -18.9220561 ], [ -48.2904228, -18.9230312 ], [ -48.2905309, -18.9229197 ], [ -48.2926156, -18.9227947 ], [ -48.2930876, -18.9226778 ], [ -48.2934247, -18.922521 ], [ -48.29375910000001, -18.9222977 ], [ -48.2939782, -18.9220958 ], [ -48.2948157, -18.9210722 ], [ -48.2989158, -18.9162571 ], [ -48.3031925, -18.9112453 ], [ -48.3036976, -18.9105712 ] ] ] ] } },
{ "type": "Feature", "properties": { "NAME": "Cazeca", "COD": 494.0, "SETOR": "Central" }, "geometry": { "type": "MultiPolygon", "coordinates": [ [ [ [ -48.2673572, -18.918584 ], [ -48.2676079, -18.9184138 ], [ -48.2680625, -18.9181502 ], [ -48.2685047, -18.9178419 ], [ -48.2690731, -18.917427 ], [ -48.270012, -18.9168252 ], [ -48.270863, -18.9162684 ], [ -48.270967, -18.9161912 ], [ -48.2702772, -18.9160225 ], [ -48.2696413, -18.9157073 ], [ -48.2676334, -18.9139608 ], [ -48.2666256, -18.9130565 ], [ -48.2649423, -18.9116812 ], [ -48.2642455, -18.9113416 ], [ -48.2639029, -18.911275 ], [ -48.263636, -18.9112355 ], [ -48.2634524, -18.9112084 ], [ -48.2630262, -18.9112741 ], [ -48.262694, -18.9113252 ], [ -48.2622529, -18.9113932 ], [ -48.261964, -18.9135401 ], [ -48.262001, -18.9139003 ], [ -48.262119, -18.9141873 ], [ -48.2624391, -18.9145571 ], [ -48.264425, -18.9164942 ], [ -48.2654298, -18.9174742 ], [ -48.2668084, -18.9189451 ], [ -48.2673572, -18.918584 ] ] ] ] } },
{ "type": "Feature", "properties": { "NAME": "Guarani", "COD": 267.0, "SETOR": "Oeste" }, "geometry": { "type": "MultiPolygon", "coordinates": [ [ [ [ -48.337703, -18.8919622 ], [ -48.3376826, -18.8919287 ], [ -48.3373956, -18.8914814 ], [ -48.337124, -18.8910208 ], [ -48.3368504, -18.8905494 ], [ -48.3367163, -18.890309 ], [ -48.336583474852077, -18.890161623229037 ], [ -48.336309274819023, -18.88969472320472 ], [ -48.3360585, -18.8891746 ], [ -48.3357936, -18.8887241 ], [ -48.3355321, -18.8882401 ], [ -48.335284, -18.8877769 ], [ -48.3350158, -18.8873214 ], [ -48.3347402, -18.8868665 ], [ -48.3344713, -18.886383 ], [ -48.3342702, -18.8860036 ], [ -48.3342616, -18.8859895 ], [ -48.3342554, -18.8859814 ], [ -48.3342459, -18.8859705 ], [ -48.3342384, -18.8859643 ], [ -48.3342304, -18.88596 ], [ -48.3337434, -18.8847406 ], [ -48.3321538, -18.8828494 ], [ -48.3312777, -18.8822212 ], [ -48.3303434, -18.8831319 ], [ -48.3291223, -18.8835337 ], [ -48.3278746, -18.8834082 ], [ -48.3267573, -18.8827101 ], [ -48.3264784, -18.8825764 ], [ -48.326267, -18.8825516 ], [ -48.3259672, -18.8825881 ], [ -48.324719, -18.8831751 ], [ -48.3238586, -18.8835518 ], [ -48.3236195, -18.883669 ], [ -48.3234465, -18.8838279 ], [ -48.3230888, -18.8842017 ], [ -48.3227591, -18.8845305 ], [ -48.3225045, -18.8847716 ], [ -48.3221913, -18.8849397 ], [ -48.3219478, -18.8851116 ], [ -48.3217345, -18.8853879 ], [ -48.3216208, -18.885704 ], [ -48.3215934, -18.8860189 ], [ -48.3217923, -18.8872346 ], [ -48.3217686, -18.8874583 ], [ -48.3216894, -18.8877548 ], [ -48.3215557, -18.8879514 ], [ -48.3214362, -18.888158 ], [ -48.3214201, -18.8883838 ], [ -48.3214534, -18.8886271 ], [ -48.3215136, -18.8889038 ], [ -48.3215031, -18.8891729 ], [ -48.3214254, -18.8893973 ], [ -48.3212983, -18.88961 ], [ -48.3210997, -18.8898371 ], [ -48.3208206, -18.8900795 ], [ -48.3205621, -18.890251899999988 ], [ -48.3204131, -18.890397 ], [ -48.3203294, -18.8905597 ], [ -48.3203136, -18.890758 ], [ -48.32031, -18.891003 ], [ -48.3203214, -18.8912014 ], [ -48.3203312, -18.8913626 ], [ -48.3202959, -18.8915095 ], [ -48.3202459, -18.8916099 ], [ -48.320149, -18.8916901 ], [ -48.319961, -18.8917537 ], [ -48.3201458, -18.8920239 ], [ -48.3235026, -18.8976981 ], [ -48.3235809, -18.8978349 ], [ -48.3238063, -18.8981972 ], [ -48.3238872, -18.8983251 ], [ -48.3239735, -18.8984618 ], [ -48.3240695, -18.8986125 ], [ -48.3241723, -18.8987593 ], [ -48.32429, -18.8989095 ], [ -48.3244064, -18.8990547 ], [ -48.3245166, -18.8991857 ], [ -48.3246482, -18.8993217 ], [ -48.3247871, -18.8994598 ], [ -48.3249435, -18.8996004 ], [ -48.3251087, -18.8997421 ], [ -48.3252755, -18.8998723 ], [ -48.3256374, -18.9001473 ], [ -48.3256647, -18.8998998 ], [ -48.3304498, -18.8966468 ], [ -48.3328602, -18.8950891 ], [ -48.337703, -18.8919622 ] ] ] ] } },
{ "type": "Feature", "properties": { "NAME": "Taiaman", "COD": 303.0, "SETOR": "Oeste" }, "geometry": { "type": "MultiPolygon", "coordinates": [ [ [ [ -48.3060035, -18.9102054 ], [ -48.3129297, -18.9082333 ], [ -48.3196253, -18.9062412 ], [ -48.3218869, -18.9055753 ], [ -48.3226036, -18.9054622 ], [ -48.3232407, -18.9054371 ], [ -48.3240504, -18.9054622 ], [ -48.3250764, -18.9055734 ], [ -48.3311491, -18.9063198 ], [ -48.3308981, -18.9059005 ], [ -48.3300098, -18.9043989 ], [ -48.3297204, -18.9039264 ], [ -48.3295967, -18.903723499999987 ], [ -48.3294649, -18.9035105 ], [ -48.3293148, -18.9032857 ], [ -48.3291622, -18.9030743 ], [ -48.329027, -18.9028981 ], [ -48.3288878, -18.9027308 ], [ -48.3287546, -18.9025802 ], [ -48.3285936, -18.9024061 ], [ -48.3284312, -18.9022448 ], [ -48.3282682, -18.9020849 ], [ -48.3280891, -18.9019164 ], [ -48.3278947, -18.9017488 ], [ -48.3276752, -18.9015775 ], [ -48.3272961, -18.9012723 ], [ -48.3270701, -18.9011143 ], [ -48.3269135, -18.9010121 ], [ -48.3267662, -18.9009207 ], [ -48.32662220000001, -18.9008394 ], [ -48.3264521, -18.9007369 ], [ -48.3262735, -18.9006225 ], [ -48.3260982, -18.9004934 ], [ -48.3256374, -18.9001473 ], [ -48.3252755, -18.8998723 ], [ -48.3251087, -18.8997421 ], [ -48.3249435, -18.8996004 ], [ -48.3247871, -18.8994598 ], [ -48.3246482, -18.8993217 ], [ -48.3245166, -18.8991857 ], [ -48.3244064, -18.8990547 ], [ -48.32429, -18.8989095 ], [ -48.3241723, -18.8987593 ], [ -48.3240695, -18.8986125 ], [ -48.3239735, -18.8984618 ], [ -48.3238872, -18.8983251 ], [ -48.3238063, -18.8981972 ], [ -48.3235809, -18.8978349 ], [ -48.3235026, -18.8976981 ], [ -48.3201458, -18.8920239 ], [ -48.319961, -18.8917537 ], [ -48.3197175, -18.8918264 ], [ -48.319493, -18.8919212 ], [ -48.3192541, -18.8920148 ], [ -48.318969, -18.8920478 ], [ -48.3187002, -18.8919923 ], [ -48.318423, -18.8918634 ], [ -48.3180849, -18.8915922 ], [ -48.317742, -18.8913652 ], [ -48.3173205, -18.891186499999989 ], [ -48.3169518, -18.8911155 ], [ -48.3167348, -18.8911427 ], [ -48.316561, -18.8912663 ], [ -48.3164389, -18.8914396 ], [ -48.3162964, -18.8918514 ], [ -48.3161668, -18.8923252 ], [ -48.3164936, -18.893488 ], [ -48.3164131, -18.8940244 ], [ -48.3151794, -18.8953923 ], [ -48.314643, -18.8969747 ], [ -48.3146162, -18.8989326 ], [ -48.3139725, -18.9008368 ], [ -48.3136506, -18.9016146 ], [ -48.314643, -18.9035725 ], [ -48.3134897, -18.9042699 ], [ -48.3096651, -18.9052181 ], [ -48.3095042, -18.9053018 ], [ -48.3094157, -18.9053703 ], [ -48.3093432, -18.9054769 ], [ -48.3080959, -18.9073357 ], [ -48.3077311, -18.9077037 ], [ -48.306765, -18.9082938 ], [ -48.3063859, -18.9084231 ], [ -48.3061355, -18.9084743 ], [ -48.3059916, -18.9085474 ], [ -48.3058628, -18.9086362 ], [ -48.3058052, -18.908687 ], [ -48.3057726, -18.9087515 ], [ -48.3057623, -18.9088176 ], [ -48.3057824, -18.9089026 ], [ -48.3058682, -18.9090625 ], [ -48.3058682, -18.909197 ], [ -48.3058484, -18.9093127 ], [ -48.3058535, -18.9094342 ], [ -48.3058964, -18.9098681 ], [ -48.3060035, -18.9102054 ] ] ] ] } },
{ "type": "Feature", "properties": { "NAME": "Pacaembu", "COD": 488.0, "SETOR": "Norte" }, "geometry": { "type": "MultiPolygon", "coordinates": [ [ [ [ -48.2976264, -18.8783316 ], [ -48.2974223, -18.8781162 ], [ -48.2971241, -18.8778248 ], [ -48.296653, -18.877642699999988 ], [ -48.2948007, -18.876832 ], [ -48.2945845, -18.8772035 ], [ -48.2942802, -18.8777879 ], [ -48.2941805, -18.877826 ], [ -48.2939532, -18.8779359 ], [ -48.2932029, -18.8786755 ], [ -48.2829421, -18.888789 ], [ -48.2830248, -18.888835 ], [ -48.2833433, -18.8889386 ], [ -48.2838473, -18.8891042 ], [ -48.2844052, -18.8892831 ], [ -48.2854235, -18.889625 ], [ -48.285865, -18.8897811 ], [ -48.2859733, -18.8898227 ], [ -48.2861392, -18.8898649 ], [ -48.2871246, -18.8901974 ], [ -48.2879045, -18.8904493 ], [ -48.2887585, -18.890729 ], [ -48.2900424, -18.8911467 ], [ -48.290306, -18.8909529 ], [ -48.2905029, -18.8907264 ], [ -48.2905904, -18.8906327 ], [ -48.2913238, -18.8899107 ], [ -48.2920587, -18.8891582 ], [ -48.2922908, -18.8889144 ], [ -48.2927406, -18.8884678 ], [ -48.2932065, -18.8880313 ], [ -48.2933864, -18.8878386 ], [ -48.2936263, -18.8876024 ], [ -48.2940433, -18.8872014 ], [ -48.2940688, -18.8871709 ], [ -48.2942673, -18.8869578 ], [ -48.2946335, -18.886581 ], [ -48.2946874, -18.8865282 ], [ -48.2950063, -18.8861762 ], [ -48.2953305, -18.8858815 ], [ -48.2953469, -18.8858666 ], [ -48.2954032, -18.885805699999988 ], [ -48.295849, -18.8853229 ], [ -48.2962576, -18.884925 ], [ -48.2964372, -18.8847501 ], [ -48.296696, -18.8845063 ], [ -48.2970043, -18.8841904 ], [ -48.2970284, -18.884166 ], [ -48.2970823, -18.8841117 ], [ -48.2974931, -18.8837033 ], [ -48.2975675, -18.8836292 ], [ -48.2978687, -18.883329 ], [ -48.2981428, -18.8830559 ], [ -48.2982712, -18.8829279 ], [ -48.2985096, -18.8826949 ], [ -48.2986723, -18.8825421 ], [ -48.2987088, -18.8825044 ], [ -48.2990506, -18.8821569 ], [ -48.2992656, -18.8819369 ], [ -48.2994431, -18.8817593 ], [ -48.2998439, -18.881356 ], [ -48.2998836, -18.8813198 ], [ -48.300103, -18.8811024 ], [ -48.3003695, -18.8808274 ], [ -48.300698, -18.880683 ], [ -48.3004158, -18.8803366 ], [ -48.3002101, -18.8801922 ], [ -48.2997655, -18.8801357 ], [ -48.2994536, -18.8801545 ], [ -48.2993142, -18.8800164 ], [ -48.2991947, -18.879784 ], [ -48.2988231, -18.8795203 ], [ -48.2983386, -18.8788609 ], [ -48.2976264, -18.8783316 ] ] ] ] } },
{ "type": "Feature", "properties": { "NAME": "Tibery", "COD": 305.0, "SETOR": "Leste" }, "geometry": { "type": "MultiPolygon", "coordinates": [ [ [ [ -48.2622529, -18.9113932 ], [ -48.2622488, -18.9101632 ], [ -48.2622227, -18.9096345 ], [ -48.2616599, -18.9078056 ], [ -48.2607752, -18.9032311 ], [ -48.2606297, -18.9027017 ], [ -48.2604713, -18.9023133 ], [ -48.2602053, -18.9018797 ], [ -48.2578567, -18.8987085 ], [ -48.25746, -18.8982255 ], [ -48.2545702, -18.8958118 ], [ -48.2539091, -18.895355 ], [ -48.2519841, -18.8943667 ], [ -48.2516709, -18.8940499 ], [ -48.2513243, -18.8935191 ], [ -48.2356651, -18.9028573 ], [ -48.235731, -18.903015 ], [ -48.2358762, -18.9033435 ], [ -48.2365566, -18.9048826 ], [ -48.2365767, -18.9049061 ], [ -48.2365981, -18.9049232 ], [ -48.2368583, -18.9051116 ], [ -48.2369576, -18.905182 ], [ -48.2373827, -18.9054578 ], [ -48.2380023, -18.9059031 ], [ -48.2380496, -18.9059367 ], [ -48.2388707, -18.9065314 ], [ -48.2391644, -18.9067318 ], [ -48.2395258, -18.9069587 ], [ -48.2411019, -18.9077833 ], [ -48.2411703, -18.9078169 ], [ -48.2412541, -18.9078543 ], [ -48.2413973, -18.9078978 ], [ -48.2426345, -18.9081909 ], [ -48.242725, -18.9081966 ], [ -48.2427887, -18.9081934 ], [ -48.242849, -18.9081845 ], [ -48.2429134, -18.9081611 ], [ -48.2429603, -18.9081338 ], [ -48.2430019, -18.9081014 ], [ -48.2430408, -18.9080665 ], [ -48.2433542, -18.9076849 ], [ -48.2450294, -18.9077149 ], [ -48.2450605, -18.9077157 ], [ -48.2459725, -18.9077478 ], [ -48.2459832, -18.9085886 ], [ -48.2459906, -18.9090333 ], [ -48.2459758, -18.9091094 ], [ -48.2459557, -18.9091868 ], [ -48.2459318, -18.9092356 ], [ -48.2459249, -18.9092496 ], [ -48.2458974, -18.9092896 ], [ -48.2458196, -18.9093986 ], [ -48.2460323, -18.9095864 ], [ -48.253377, -18.9104315 ], [ -48.2545238, -18.9105634 ], [ -48.2548045, -18.9106612 ], [ -48.255036, -18.9107419 ], [ -48.2557396, -18.9110791 ], [ -48.25606710000001, -18.911236 ], [ -48.2565617, -18.911473099999988 ], [ -48.2572279, -18.9117923 ], [ -48.2588474, -18.9125684 ], [ -48.2590809, -18.9127464 ], [ -48.2593725, -18.9123759 ], [ -48.259814, -18.9120093 ], [ -48.2604981, -18.9117192 ], [ -48.2622529, -18.9113932 ] ] ] ] } },
{ "type": "Feature", "properties": { "NAME": "Marta Helena", "COD": 268.0, "SETOR": "Norte" }, "geometry": { "type": "MultiPolygon", "coordinates": [ [ [ [ -48.2744921, -18.8932017 ], [ -48.2760149, -18.8921416 ], [ -48.2762692, -18.8917445 ], [ -48.2765535, -18.8912015 ], [ -48.27666880000001, -18.8909502 ], [ -48.2765911, -18.8904934 ], [ -48.2764073, -18.8899326 ], [ -48.276296, -18.8896763 ], [ -48.2762754, -18.8896389 ], [ -48.2761163, -18.8893743 ], [ -48.2759201, -18.8891015 ], [ -48.2729463, -18.884985 ], [ -48.2724472, -18.8842982 ], [ -48.2718565, -18.8834779 ], [ -48.2713455, -18.8827761 ], [ -48.2712308, -18.8826264 ], [ -48.271086, -18.8824726 ], [ -48.2706547, -18.8819302 ], [ -48.2705178, -18.8816815 ], [ -48.2704605, -18.8815248 ], [ -48.2704226, -18.8813871 ], [ -48.2703616, -18.881146 ], [ -48.2702483, -18.8807615 ], [ -48.2701974, -18.8805027 ], [ -48.2701866, -18.8800947 ], [ -48.2701787, -18.8796964 ], [ -48.2702296, -18.8735241 ], [ -48.2703953, -18.8734104 ], [ -48.2718288, -18.8723926 ], [ -48.2748972, -18.8676769 ], [ -48.2740866, -18.8665622 ], [ -48.2739906, -18.8663802 ], [ -48.2739498, -18.8661674 ], [ -48.2739641, -18.8659502 ], [ -48.274001, -18.8658572 ], [ -48.2740846, -18.865646399999989 ], [ -48.2746056, -18.864954499999989 ], [ -48.2744309, -18.8646222 ], [ -48.2732277, -18.8654429 ], [ -48.2723527, -18.8660363 ], [ -48.2716844, -18.8665047 ], [ -48.2707606, -18.867097 ], [ -48.2705692, -18.8672197 ], [ -48.2696587, -18.8678295 ], [ -48.2687744, -18.8684272 ], [ -48.2679022, -18.8690104 ], [ -48.2669822, -18.8696202 ], [ -48.2661287, -18.8702162 ], [ -48.2660995, -18.8702366 ], [ -48.2657169, -18.870495 ], [ -48.2651912, -18.8708499 ], [ -48.2649021, -18.8710404 ], [ -48.2644458, -18.871341 ], [ -48.2642704, -18.8714566 ], [ -48.2636578, -18.8718743 ], [ -48.2633956, -18.8720531 ], [ -48.2625508, -18.8726548 ], [ -48.2618966, -18.873087 ], [ -48.2617985, -18.8731486 ], [ -48.26091, -18.8737509 ], [ -48.260031, -18.8743549 ], [ -48.2594237, -18.8747485 ], [ -48.2590339, -18.8750144 ], [ -48.2596833, -18.8758461 ], [ -48.2597786, -18.875975 ], [ -48.260488, -18.8769941 ], [ -48.2614825, -18.8783829 ], [ -48.2650038, -18.8831446 ], [ -48.2652902, -18.8835286 ], [ -48.2659484, -18.884419 ], [ -48.266049, -18.8845531 ], [ -48.2665613, -18.8852468 ], [ -48.2667067, -18.8851507 ], [ -48.2672009, -18.8858028 ], [ -48.2674836, -18.8862005 ], [ -48.2676984, -18.8864964 ], [ -48.2682053, -18.887119 ], [ -48.2684594, -18.8874622 ], [ -48.2687169, -18.8878137 ], [ -48.269203, -18.8884672 ], [ -48.2697154, -18.8891677 ], [ -48.2702183, -18.88985 ], [ -48.2704631, -18.8901776 ], [ -48.2707286, -18.8905316 ], [ -48.27086, -18.890727 ], [ -48.2709371, -18.890835 ], [ -48.2710022, -18.8909377 ], [ -48.2710672, -18.8910773 ], [ -48.271164400000011, -18.8912765 ], [ -48.2714166, -18.8917536 ], [ -48.2715306, -18.8920263 ], [ -48.2716486, -18.8923195 ], [ -48.2717438, -18.8925936 ], [ -48.2717907, -18.8927585 ], [ -48.2718806, -18.893308 ], [ -48.2719195, -18.8938611 ], [ -48.2718852, -18.8944317 ], [ -48.2718249, -18.8949468 ], [ -48.2717728, -18.8952392 ], [ -48.2719509, -18.8950194 ], [ -48.2729401, -18.894314 ], [ -48.2744921, -18.8932017 ] ] ] ] } },
{ "type": "Feature", "properties": { "NAME": "Umuarama", "COD": 308.0, "SETOR": "Leste" }, "geometry": { "type": "MultiPolygon", "coordinates": [ [ [ [ -48.2517828, -18.8858818 ], [ -48.2522693, -18.8865554 ], [ -48.2523009, -18.8866002 ], [ -48.2527656, -18.8872308 ], [ -48.2527856, -18.8872582 ], [ -48.253286, -18.8879438 ], [ -48.2537944, -18.8886136 ], [ -48.2542511, -18.8892346 ], [ -48.2542921, -18.8892928 ], [ -48.2543252, -18.8893363 ], [ -48.2548003, -18.8899653 ], [ -48.2549611, -18.8901655 ], [ -48.2554604, -18.8907873 ], [ -48.2554722, -18.8908035 ], [ -48.2555076, -18.8908571 ], [ -48.2555709, -18.8910088 ], [ -48.2590521, -18.8889335 ], [ -48.2659484, -18.884419 ], [ -48.2652902, -18.8835286 ], [ -48.2650038, -18.8831446 ], [ -48.2614825, -18.8783829 ], [ -48.260488, -18.8769941 ], [ -48.2597786, -18.875975 ], [ -48.2574795, -18.877492499999988 ], [ -48.2562881, -18.8784167 ], [ -48.2554084, -18.8794633 ], [ -48.2548851, -18.8803875 ], [ -48.2542544, -18.8816857 ], [ -48.254083, -18.8819988 ], [ -48.253853, -18.882381 ], [ -48.2536277, -18.8827157 ], [ -48.2534257, -18.8829698 ], [ -48.2534022, -18.8829989 ], [ -48.2532459, -18.8831929 ], [ -48.2529552, -18.8835331 ], [ -48.2526237, -18.8838634 ], [ -48.2523587, -18.8840737 ], [ -48.2523341, -18.8840932 ], [ -48.2520462, -18.8842898 ], [ -48.2518707, -18.8844127 ], [ -48.2517341, -18.884508 ], [ -48.2518025, -18.8846699 ], [ -48.2518221, -18.8848411 ], [ -48.2517907, -18.8850312 ], [ -48.2515471, -18.8853551 ], [ -48.2516488, -18.8856585 ], [ -48.2517828, -18.8858818 ] ] ] ] } },
{ "type": "Feature", "properties": { "NAME": "Minas Gerais", "COD": 489.0, "SETOR": "Norte" }, "geometry": { "type": "MultiPolygon", "coordinates": [ [ [ [ -48.2716844, -18.8665047 ], [ -48.2721333, -18.8658294 ], [ -48.272789, -18.864879 ], [ -48.2733974, -18.8639251 ], [ -48.2738089, -18.8632922 ], [ -48.2740206, -18.8629666 ], [ -48.2745991, -18.8619959 ], [ -48.2758984, -18.8600579 ], [ -48.2759224, -18.8600209 ], [ -48.2764007, -18.8592821 ], [ -48.2766658, -18.8588871 ], [ -48.2767362, -18.8587828 ], [ -48.2779007, -18.8569724 ], [ -48.279101, -18.8551317 ], [ -48.2793133, -18.8548039 ], [ -48.2794953, -18.8545216 ], [ -48.2801333, -18.8535227 ], [ -48.2803902, -18.8531452 ], [ -48.2805226, -18.8529163 ], [ -48.2806157, -18.8526856 ], [ -48.2806857, -18.8524603 ], [ -48.2807738, -18.8520475 ], [ -48.2804069, -18.8519751 ], [ -48.2800057, -18.8519419 ], [ -48.2794051, -18.8519356 ], [ -48.2784594, -18.8519922 ], [ -48.2772515, -18.8522308 ], [ -48.2704609, -18.8559928 ], [ -48.2691912, -18.8566822 ], [ -48.2629987, -18.8600448 ], [ -48.2616958, -18.8606164 ], [ -48.2602316, -18.8608207 ], [ -48.2589271, -18.8607496 ], [ -48.2576882, -18.860421 ], [ -48.2565189, -18.8598766 ], [ -48.2560477, -18.8597887 ], [ -48.2554372, -18.8600022 ], [ -48.2548731, -18.8603916 ], [ -48.2543753, -18.8609191 ], [ -48.2540966, -18.8614059 ], [ -48.2541182, -18.8620246 ], [ -48.2541299, -18.8621922 ], [ -48.25416, -18.8625363 ], [ -48.2542001, -18.8628351 ], [ -48.2542468, -18.863188 ], [ -48.2542894, -18.8635568 ], [ -48.2543128, -18.863922 ], [ -48.2543899, -18.8652443 ], [ -48.254468, -18.8665371 ], [ -48.2544995, -18.8669523 ], [ -48.2545471, -18.867372499999988 ], [ -48.2546282, -18.8678232 ], [ -48.2547111, -18.8681798 ], [ -48.2547685, -18.868389 ], [ -48.2548254, -18.8685725 ], [ -48.2548745, -18.8687107 ], [ -48.2549903, -18.8690368 ], [ -48.2550694, -18.8692303 ], [ -48.2552189, -18.8695788 ], [ -48.2553201, -18.8697795 ], [ -48.2554639, -18.870049 ], [ -48.2555477, -18.8701919 ], [ -48.2556759, -18.8703999 ], [ -48.2557981, -18.8705919 ], [ -48.25599, -18.8708666 ], [ -48.2562361, -18.871210399999985 ], [ -48.2580887, -18.8737286 ], [ -48.2590339, -18.8750144 ], [ -48.2594237, -18.8747485 ], [ -48.260031, -18.8743549 ], [ -48.26091, -18.8737509 ], [ -48.2617985, -18.8731486 ], [ -48.2618966, -18.873087 ], [ -48.2625508, -18.8726548 ], [ -48.2633956, -18.8720531 ], [ -48.2636578, -18.8718743 ], [ -48.2642704, -18.8714566 ], [ -48.2644458, -18.871341 ], [ -48.2649021, -18.8710404 ], [ -48.2651912, -18.8708499 ], [ -48.2657169, -18.870495 ], [ -48.2660995, -18.8702366 ], [ -48.2661287, -18.8702162 ], [ -48.2669822, -18.8696202 ], [ -48.2679022, -18.8690104 ], [ -48.2687744, -18.8684272 ], [ -48.2696587, -18.8678295 ], [ -48.2705692, -18.8672197 ], [ -48.2707606, -18.867097 ], [ -48.2716844, -18.8665047 ] ] ] ] } },
{ "type": "Feature", "properties": { "NAME": "Residencial Pequis", "COD": 587.0, "SETOR": "Oeste" }, "geometry": { "type": "MultiPolygon", "coordinates": [ [ [ [ -48.3755045, -18.9638985 ], [ -48.3752025, -18.9643274 ], [ -48.3751554, -18.9644035 ], [ -48.3746154, -18.965263 ], [ -48.3744356, -18.9655448 ], [ -48.3743386, -18.965689 ], [ -48.3742416, -18.9658198 ], [ -48.3741324, -18.9659609 ], [ -48.3740172, -18.9660935 ], [ -48.3738896, -18.9662278 ], [ -48.373767, -18.9663434 ], [ -48.3736532, -18.9664506 ], [ -48.3735425, -18.9665534 ], [ -48.3734377, -18.9666437 ], [ -48.3733113, -18.9667506 ], [ -48.3721063, -18.9678023 ], [ -48.3719154, -18.9679723 ], [ -48.37172060000001, -18.9681413 ], [ -48.3715259, -18.9683059 ], [ -48.3713189, -18.9684711 ], [ -48.3710992, -18.9686353 ], [ -48.370883, -18.9687795 ], [ -48.3706716, -18.9689061 ], [ -48.3704479, -18.96902 ], [ -48.3702512, -18.9691112 ], [ -48.3700405, -18.9691947 ], [ -48.3698019, -18.9692736 ], [ -48.3695643, -18.9693346 ], [ -48.3693168, -18.9693865 ], [ -48.3690949, -18.9694214 ], [ -48.3688487, -18.9694505 ], [ -48.3685767, -18.9694692 ], [ -48.3678558, -18.9694799 ], [ -48.3671106, -18.9694071 ], [ -48.3666331, -18.9694071 ], [ -48.3657855, -18.9695796 ], [ -48.3650667, -18.9699347 ], [ -48.3643238, -18.9704372 ], [ -48.3644024, -18.9704797 ], [ -48.3648682, -18.9709341 ], [ -48.36563, -18.9723342 ], [ -48.3664207, -18.973764 ], [ -48.3666668, -18.9741557 ], [ -48.3678119, -18.9761838 ], [ -48.3809722, -18.976423 ], [ -48.3808971, -18.9772245 ], [ -48.3810151, -18.9783 ], [ -48.3852101, -18.9777724 ], [ -48.3860099, -18.9776208 ], [ -48.3867449, -18.9775345 ], [ -48.3871016, -18.977529499999989 ], [ -48.3872679, -18.9775726 ], [ -48.3880238, -18.9780742 ], [ -48.3886815, -18.9785229 ], [ -48.3933855, -18.9812929 ], [ -48.3944476, -18.9784826 ], [ -48.39717550000001, -18.979956699999988 ], [ -48.3973127, -18.9795948 ], [ -48.3973665, -18.9794377 ], [ -48.3973809, -18.9793958 ], [ -48.3974211, -18.9792945 ], [ -48.3975895, -18.9788421 ], [ -48.398149600000011, -18.9772732 ], [ -48.3982931, -18.9770819 ], [ -48.3985681, -18.9770402 ], [ -48.3983154, -18.9766766 ], [ -48.3755045, -18.9638985 ] ] ] ] } },
{ "type": "Feature", "properties": { "NAME": "Jardim Europa", "COD": 334.0, "SETOR": "Oeste" }, "geometry": { "type": "MultiPolygon", "coordinates": [ [ [ [ -48.3214623, -18.942971 ], [ -48.3234469, -18.9435285 ], [ -48.3245277, -18.9438234 ], [ -48.3263874, -18.9443537 ], [ -48.3271983, -18.944585 ], [ -48.3279924, -18.9448114 ], [ -48.3426487, -18.9490143 ], [ -48.3433195, -18.9492163 ], [ -48.3440377, -18.9494041 ], [ -48.3441185, -18.9494303 ], [ -48.3444238, -18.9495127 ], [ -48.3451325, -18.9497019 ], [ -48.3456879, -18.9498587 ], [ -48.3458684, -18.949908 ], [ -48.3461923, -18.9499967 ], [ -48.3463931, -18.9500516 ], [ -48.3464382, -18.950064 ], [ -48.3465651, -18.9500987 ], [ -48.346769, -18.9501545 ], [ -48.3472086, -18.9502829 ], [ -48.3480849, -18.950524 ], [ -48.3486985, -18.9507035 ], [ -48.3493223, -18.9508955 ], [ -48.3494708, -18.9509387 ], [ -48.3495715, -18.9509698 ], [ -48.3496258, -18.950992 ], [ -48.3496673, -18.9510228 ], [ -48.3496905, -18.9510603 ], [ -48.3497219, -18.9510921 ], [ -48.3497599, -18.9511164 ], [ -48.3498028, -18.9511321 ], [ -48.3498483, -18.9511384 ], [ -48.3498941, -18.951135 ], [ -48.349938, -18.951122 ], [ -48.3499777, -18.9511001 ], [ -48.3500429, -18.9510915 ], [ -48.3500965, -18.9510941 ], [ -48.3510751, -18.9513636 ], [ -48.3515433, -18.9514951 ], [ -48.3520176, -18.9516427 ], [ -48.3536424, -18.9521113 ], [ -48.3538801, -18.9521794 ], [ -48.3543616, -18.9523145 ], [ -48.3546292, -18.9523965 ], [ -48.3549339, -18.9525052 ], [ -48.3552401, -18.9526297 ], [ -48.3555197, -18.9527541 ], [ -48.3557994, -18.9528892 ], [ -48.3561251, -18.9530658 ], [ -48.3558131, -18.9528566 ], [ -48.355517, -18.9526474 ], [ -48.3552485, -18.9524433 ], [ -48.3549647, -18.9522157 ], [ -48.3547786, -18.9520434 ], [ -48.3546314, -18.9519078 ], [ -48.3544113, -18.9516941 ], [ -48.3540668, -18.9513319 ], [ -48.3539015, -18.9511384 ], [ -48.3537055, -18.9508982 ], [ -48.3535149, -18.9506379 ], [ -48.3532963, -18.9503273 ], [ -48.3531043, -18.9500183 ], [ -48.3529222, -18.9496959 ], [ -48.3527703, -18.9494035 ], [ -48.3526346, -18.9491195 ], [ -48.3524894, -18.9487775 ], [ -48.3523923, -18.9485158 ], [ -48.3523093, -18.9482674 ], [ -48.3511736, -18.9448149 ], [ -48.3509849, -18.9442956 ], [ -48.3507965, -18.9438182 ], [ -48.3506456, -18.9434593 ], [ -48.3504233, -18.9429627 ], [ -48.3501343, -18.9423629 ], [ -48.3499787, -18.9420586 ], [ -48.3497975, -18.9417176 ], [ -48.3494179, -18.9410478 ], [ -48.3492207, -18.9407448 ], [ -48.3491389, -18.9406268 ], [ -48.3490293, -18.9404941 ], [ -48.3488747, -18.9403085 ], [ -48.348661, -18.9399854 ], [ -48.3485854, -18.9398404 ], [ -48.348516, -18.9396648 ], [ -48.3484277, -18.9394285 ], [ -48.3483324, -18.9392078 ], [ -48.3482501, -18.9390467 ], [ -48.347426, -18.9375887 ], [ -48.3468585, -18.9365779 ], [ -48.3466322, -18.9361757 ], [ -48.3465045, -18.9359507 ], [ -48.3464176, -18.9358076 ], [ -48.3463122, -18.9356674 ], [ -48.3463679, -18.9358086 ], [ -48.346382, -18.935883 ], [ -48.3463808, -18.9359434 ], [ -48.3463668, -18.9360019 ], [ -48.3463377, -18.9360455 ], [ -48.3463023, -18.9360783 ], [ -48.34626, -18.9361061 ], [ -48.3462139, -18.9361265 ], [ -48.3461602, -18.9361354 ], [ -48.3460905, -18.9361334 ], [ -48.3459018, -18.9361169 ], [ -48.3449839, -18.9359055 ], [ -48.3427818, -18.9352393 ], [ -48.3402802, -18.934602 ], [ -48.327812, -18.9317242 ], [ -48.3287118, -18.9328266 ], [ -48.3284083, -18.9339853 ], [ -48.327307, -18.934655 ], [ -48.3257139, -18.9369218 ], [ -48.3214623, -18.942971 ] ] ] ] } },
{ "type": "Feature", "properties": { "NAME": "Industrial", "COD": 265.0, "SETOR": "Norte" }, "geometry": { "type": "MultiPolygon", "coordinates": [ [ [ [ -48.3402153, -18.8717957 ], [ -48.3081297, -18.8465079 ], [ -48.2909759, -18.8364864 ], [ -48.283252, -18.8484346 ], [ -48.2819641, -18.8501129 ], [ -48.2818038, -18.8505693 ], [ -48.281608, -18.8513333 ], [ -48.2813989, -18.8518211 ], [ -48.2807738, -18.8520475 ], [ -48.2806857, -18.8524603 ], [ -48.2806157, -18.8526856 ], [ -48.2805226, -18.8529163 ], [ -48.2803902, -18.8531452 ], [ -48.2801333, -18.8535227 ], [ -48.2794953, -18.8545216 ], [ -48.2793133, -18.8548039 ], [ -48.279101, -18.8551317 ], [ -48.2779007, -18.8569724 ], [ -48.2767362, -18.8587828 ], [ -48.2766658, -18.8588871 ], [ -48.2764007, -18.8592821 ], [ -48.2759224, -18.8600209 ], [ -48.2758984, -18.8600579 ], [ -48.2745991, -18.8619959 ], [ -48.2740206, -18.8629666 ], [ -48.2738089, -18.8632922 ], [ -48.2733974, -18.8639251 ], [ -48.272789, -18.864879 ], [ -48.2721333, -18.8658294 ], [ -48.2716844, -18.8665047 ], [ -48.2723527, -18.8660363 ], [ -48.2732277, -18.8654429 ], [ -48.2744309, -18.8646222 ], [ -48.2746056, -18.864954499999989 ], [ -48.2740846, -18.865646399999989 ], [ -48.274001, -18.8658572 ], [ -48.2739641, -18.8659502 ], [ -48.2739498, -18.8661674 ], [ -48.2739906, -18.8663802 ], [ -48.2740866, -18.8665622 ], [ -48.2748972, -18.8676769 ], [ -48.2752083, -18.8672706 ], [ -48.2765494, -18.8663721 ], [ -48.2768921, -18.8661577 ], [ -48.2806639, -18.8637984 ], [ -48.2812433, -18.8635903 ], [ -48.281887, -18.8634076 ], [ -48.2825576, -18.8633974 ], [ -48.2830404, -18.8634532 ], [ -48.283947, -18.8636715 ], [ -48.2844137, -18.8638949 ], [ -48.2849984, -18.8644076 ], [ -48.2857916, -18.865417 ], [ -48.2871083, -18.8671783 ], [ -48.2874453, -18.8676291 ], [ -48.2877846, -18.8680829 ], [ -48.2881218, -18.868534 ], [ -48.2884688, -18.8690057 ], [ -48.2885049, -18.8690548 ], [ -48.288639, -18.8691755 ], [ -48.2886661, -18.869203 ], [ -48.2886736, -18.8692829 ], [ -48.2910203, -18.8714315 ], [ -48.2938607, -18.873529 ], [ -48.2965204, -18.8752991 ], [ -48.2980777, -18.8779768 ], [ -48.2978089, -18.8779281 ], [ -48.2975484, -18.8779925 ], [ -48.2974223, -18.8781162 ], [ -48.2976264, -18.8783316 ], [ -48.2983386, -18.8788609 ], [ -48.2988231, -18.8795203 ], [ -48.2991947, -18.879784 ], [ -48.2993142, -18.8800164 ], [ -48.2994536, -18.8801545 ], [ -48.2997655, -18.8801357 ], [ -48.3002101, -18.8801922 ], [ -48.3004158, -18.8803366 ], [ -48.300698, -18.880683 ], [ -48.3009568, -18.8810566 ], [ -48.301428, -18.8814428 ], [ -48.3017433, -18.8818698 ], [ -48.3020983, -18.882121 ], [ -48.3023981, -18.8827704 ], [ -48.3026802, -18.8831189 ], [ -48.3029058, -18.8832916 ], [ -48.3032376, -18.8833858 ], [ -48.3033239, -18.8835271 ], [ -48.3033936, -18.8839352 ], [ -48.3035429, -18.884177 ], [ -48.3039942, -18.8845192 ], [ -48.3042331, -18.8849493 ], [ -48.3047872, -18.8853763 ], [ -48.3049034, -18.8856966 ], [ -48.3052252, -18.8856589 ], [ -48.3053812, -18.8857091 ], [ -48.30550070000001, -18.8860765 ], [ -48.3060515, -18.8863465 ], [ -48.3064663, -18.8865757 ], [ -48.3065393, -18.8867264 ], [ -48.3065625, -18.8871219 ], [ -48.306672, -18.8872883 ], [ -48.3075381, -18.8877781 ], [ -48.3078699, -18.8881329 ], [ -48.307996, -18.8885034 ], [ -48.3081378, -18.8887772 ], [ -48.3086754, -18.889223 ], [ -48.3093722, -18.8892356 ], [ -48.3097107, -18.8895056 ], [ -48.3101487, -18.8897002 ], [ -48.311111, -18.8898069 ], [ -48.3124051, -18.8904914 ], [ -48.3131418, -18.8906169 ], [ -48.3135699, -18.8907032 ], [ -48.3137325, -18.8909324 ], [ -48.3142269, -18.8914253 ], [ -48.31464170000001, -18.8915383 ], [ -48.3148607, -18.8917047 ], [ -48.3151883, -18.891862 ], [ -48.315297, -18.8919367 ], [ -48.3154139, -18.8920171 ], [ -48.3161668, -18.8923252 ], [ -48.3162964, -18.8918514 ], [ -48.3164389, -18.8914396 ], [ -48.316561, -18.8912663 ], [ -48.3167348, -18.8911427 ], [ -48.3169518, -18.8911155 ], [ -48.3173205, -18.891186499999989 ], [ -48.317742, -18.8913652 ], [ -48.3180849, -18.8915922 ], [ -48.318423, -18.8918634 ], [ -48.3187002, -18.8919923 ], [ -48.318969, -18.8920478 ], [ -48.3192541, -18.8920148 ], [ -48.319493, -18.8919212 ], [ -48.3197175, -18.8918264 ], [ -48.319961, -18.8917537 ], [ -48.320149, -18.8916901 ], [ -48.3202459, -18.8916099 ], [ -48.3202959, -18.8915095 ], [ -48.3203312, -18.8913626 ], [ -48.3203214, -18.8912014 ], [ -48.32031, -18.891003 ], [ -48.3203136, -18.890758 ], [ -48.3203294, -18.8905597 ], [ -48.3204131, -18.890397 ], [ -48.3205621, -18.890251899999988 ], [ -48.3208206, -18.8900795 ], [ -48.3210997, -18.8898371 ], [ -48.3212983, -18.88961 ], [ -48.3214254, -18.8893973 ], [ -48.3215031, -18.8891729 ], [ -48.3215136, -18.8889038 ], [ -48.3214534, -18.8886271 ], [ -48.3214201, -18.8883838 ], [ -48.3214362, -18.888158 ], [ -48.3215557, -18.8879514 ], [ -48.3216894, -18.8877548 ], [ -48.3217686, -18.8874583 ], [ -48.3217923, -18.8872346 ], [ -48.3215934, -18.8860189 ], [ -48.3216208, -18.885704 ], [ -48.3217345, -18.8853879 ], [ -48.3219478, -18.8851116 ], [ -48.3221913, -18.8849397 ], [ -48.3225045, -18.8847716 ], [ -48.3227591, -18.8845305 ], [ -48.3230888, -18.8842017 ], [ -48.3234465, -18.8838279 ], [ -48.3236195, -18.883669 ], [ -48.3238586, -18.8835518 ], [ -48.324719, -18.8831751 ], [ -48.3259672, -18.8825881 ], [ -48.326267, -18.8825516 ], [ -48.3264784, -18.8825764 ], [ -48.3267573, -18.8827101 ], [ -48.3278746, -18.8834082 ], [ -48.3291223, -18.8835337 ], [ -48.3303434, -18.8831319 ], [ -48.3312777, -18.8822212 ], [ -48.331439921054361, -18.881291161062482 ], [ -48.331871879856067, -18.880584319386969 ], [ -48.331950417820011, -18.879445518909748 ], [ -48.333049949315253, -18.878228180468582 ], [ -48.333442639134987, -18.878228180468582 ], [ -48.333756790990769, -18.878345987414498 ], [ -48.333796059972741, -18.878267449450551 ], [ -48.333913866918664, -18.877874759630828 ], [ -48.334385094702341, -18.87752133879307 ], [ -48.333874597936692, -18.878031835558716 ], [ -48.334895591467991, -18.877599876757014 ], [ -48.335209743323773, -18.877560607775035 ], [ -48.335798778053373, -18.877285724901235 ], [ -48.336584157692833, -18.877167917955312 ], [ -48.337173192422426, -18.877246455919256 ], [ -48.337919303079914, -18.87712864897334 ], [ -48.338154916971753, -18.877050111009389 ], [ -48.338469068827536, -18.877167917955312 ], [ -48.33862614475543, -18.876971573045441 ], [ -48.338743951701353, -18.877128648973326 ], [ -48.33913664152108, -18.877010842027413 ], [ -48.339882752178568, -18.87653961424374 ], [ -48.339804214214624, -18.877010842027417 ], [ -48.339490062358841, -18.877167917955312 ], [ -48.339254448467003, -18.876893035081498 ], [ -48.340275441998301, -18.87634326933388 ], [ -48.340314710980273, -18.875989848496111 ], [ -48.340353979962245, -18.875636427658364 ], [ -48.340432517926189, -18.875636427658357 ], [ -48.340903745709866, -18.875400813766515 ], [ -48.341217897565656, -18.874949220473841 ], [ -48.340628862836056, -18.874301282271276 ], [ -48.340668131818028, -18.874183475325356 ], [ -48.340943014691838, -18.874458358199178 ], [ -48.340903745709866, -18.87406566837943 ], [ -48.341100090619726, -18.874104937361405 ], [ -48.340314710980273, -18.87329992323096 ], [ -48.3402153, -18.8717957 ] ] ] ] } },
{ "type": "Feature", "properties": { "NAME": "Nossa Senhora das Graças", "COD": 288.0, "SETOR": "Norte" }, "geometry": { "type": "MultiPolygon", "coordinates": [ [ [ [ -48.2851068, -18.8716592 ], [ -48.2886736, -18.8692829 ], [ -48.2886661, -18.869203 ], [ -48.288639, -18.8691755 ], [ -48.2885049, -18.8690548 ], [ -48.2884688, -18.8690057 ], [ -48.2881218, -18.868534 ], [ -48.2877846, -18.8680829 ], [ -48.2874453, -18.8676291 ], [ -48.2871083, -18.8671783 ], [ -48.2857916, -18.865417 ], [ -48.2849984, -18.8644076 ], [ -48.2844137, -18.8638949 ], [ -48.283947, -18.8636715 ], [ -48.2830404, -18.8634532 ], [ -48.2825576, -18.8633974 ], [ -48.281887, -18.8634076 ], [ -48.2812433, -18.8635903 ], [ -48.2806639, -18.8637984 ], [ -48.2768921, -18.8661577 ], [ -48.2765494, -18.8663721 ], [ -48.2752083, -18.8672706 ], [ -48.2748972, -18.8676769 ], [ -48.2718288, -18.8723926 ], [ -48.2703953, -18.8734104 ], [ -48.2702296, -18.8735241 ], [ -48.2701787, -18.8796964 ], [ -48.2701866, -18.8800947 ], [ -48.2701974, -18.8805027 ], [ -48.2702483, -18.8807615 ], [ -48.2703616, -18.881146 ], [ -48.2704226, -18.8813871 ], [ -48.2851068, -18.8716592 ] ] ] ] } },
{ "type": "Feature", "properties": { "NAME": "Lagoinha", "COD": 246.0, "SETOR": "Sul" }, "geometry": { "type": "MultiPolygon", "coordinates": [ [ [ [ -48.2528404, -18.9336749 ], [ -48.2531805, -18.9337317 ], [ -48.2538664, -18.9335474 ], [ -48.2541028, -18.933572 ], [ -48.2552901, -18.9334589 ], [ -48.2560098, -18.9333238 ], [ -48.2562981, -18.9333803 ], [ -48.25695540000001, -18.9331935 ], [ -48.2579687, -18.9331345 ], [ -48.2590521, -18.9331075 ], [ -48.2592677, -18.9331222 ], [ -48.2594236, -18.9331837 ], [ -48.2598574, -18.9332107 ], [ -48.2601043, -18.9332697 ], [ -48.2601926, -18.9333459 ], [ -48.2607668, -18.9335032 ], [ -48.2613253, -18.9335793 ], [ -48.2614682, -18.9336059 ], [ -48.2615706, -18.9332901 ], [ -48.2616431, -18.933079 ], [ -48.26181, -18.9325821 ], [ -48.2619201, -18.932279 ], [ -48.2620353, -18.93193 ], [ -48.2622917, -18.931212 ], [ -48.2623614, -18.931052 ], [ -48.2624319, -18.9308646 ], [ -48.2624633, -18.9307858 ], [ -48.2627178, -18.930024 ], [ -48.2630441, -18.9291301 ], [ -48.2633384, -18.928256 ], [ -48.263099, -18.9281863 ], [ -48.2628536, -18.9281203 ], [ -48.2626337, -18.9280594 ], [ -48.2623655, -18.9279795 ], [ -48.2621361, -18.9279135 ], [ -48.2619202, -18.9278475 ], [ -48.2615031, -18.9277321 ], [ -48.2610391, -18.9276002 ], [ -48.2606918, -18.9275025 ], [ -48.2605281, -18.9274441 ], [ -48.2602975, -18.927387 ], [ -48.2600494, -18.9273173 ], [ -48.2598549, -18.9272602 ], [ -48.2595317, -18.9271726 ], [ -48.259293, -18.9271016 ], [ -48.2591522, -18.9270623 ], [ -48.2589041, -18.9269925 ], [ -48.2586439, -18.926922699999988 ], [ -48.2585205, -18.9268834 ], [ -48.2584132, -18.9268492 ], [ -48.258251, -18.9268022 ], [ -48.2581021, -18.9267578 ], [ -48.2580297, -18.9267299 ], [ -48.2579425, -18.926688 ], [ -48.2579377, -18.9265824 ], [ -48.2575282, -18.926659 ], [ -48.254497, -18.9293954 ], [ -48.2528404, -18.9336749 ] ] ] ] } },
{ "type": "Feature", "properties": { "NAME": "Carajás", "COD": 497.0, "SETOR": "Sul" }, "geometry": { "type": "MultiPolygon", "coordinates": [ [ [ [ -48.2491042, -18.935216 ], [ -48.249616, -18.9346704 ], [ -48.2498602, -18.934754 ], [ -48.2501512, -18.9346754 ], [ -48.2503668, -18.934378 ], [ -48.2514996, -18.9338767 ], [ -48.2528404, -18.9336749 ], [ -48.254497, -18.9293954 ], [ -48.2575282, -18.926659 ], [ -48.2447802, -18.9290413 ], [ -48.24597390000001, -18.9357652 ], [ -48.2473722, -18.9356226 ], [ -48.247778, -18.935524 ], [ -48.2491042, -18.935216 ] ] ] ] } },
{ "type": "Feature", "properties": { "NAME": "Dona Zulmira", "COD": 244.0, "SETOR": "Oeste" }, "geometry": { "type": "MultiPolygon", "coordinates": [ [ [ [ -48.3060035, -18.9102054 ], [ -48.3061454, -18.9106724 ], [ -48.3068808, -18.9111521 ], [ -48.307023, -18.9114134 ], [ -48.3070982, -18.9118418 ], [ -48.3069321, -18.9123894 ], [ -48.3069019, -18.9127941 ], [ -48.3069893, -18.9129625 ], [ -48.3071412, -18.9130687 ], [ -48.3072888, -18.9131372 ], [ -48.3074909, -18.9132138 ], [ -48.3076867, -18.913262 ], [ -48.3078369, -18.9132899 ], [ -48.3079817, -18.9132949 ], [ -48.3081292, -18.9133508 ], [ -48.3082141, -18.9134417 ], [ -48.3083089, -18.9135284 ], [ -48.3083867, -18.9135588 ], [ -48.3084341, -18.913561 ], [ -48.3086996, -18.9137792 ], [ -48.308823, -18.9138503 ], [ -48.3089124, -18.9139572 ], [ -48.3090483, -18.9140862 ], [ -48.3091458, -18.9142008 ], [ -48.3093273, -18.9143374 ], [ -48.3094646, -18.914406 ], [ -48.309734, -18.914536699999989 ], [ -48.3103143, -18.9148348 ], [ -48.3104735, -18.9148757 ], [ -48.3105879, -18.9149134 ], [ -48.3106576, -18.9149642 ], [ -48.3107515, -18.9151545 ], [ -48.3108025, -18.9152154 ], [ -48.3108705, -18.9152563 ], [ -48.3110609, -18.9152563 ], [ -48.3111414, -18.9152462 ], [ -48.3112916, -18.9152766 ], [ -48.3113604, -18.9153245 ], [ -48.3114713, -18.9154898 ], [ -48.3115196, -18.9155989 ], [ -48.3115517, -18.9156953 ], [ -48.3116215, -18.9158095 ], [ -48.3116939, -18.9158678 ], [ -48.3118602, -18.915936399999989 ], [ -48.3119317, -18.9159512 ], [ -48.3119665, -18.9159842 ], [ -48.3120712, -18.9160451 ], [ -48.3121257, -18.9160658 ], [ -48.3121928, -18.9160683 ], [ -48.3123206, -18.9161085 ], [ -48.3124762, -18.9162261 ], [ -48.3127301, -18.9163694 ], [ -48.3127164, -18.9161273 ], [ -48.3175771, -18.9107448 ], [ -48.3221333, -18.9087901 ], [ -48.3238268, -18.9075066 ], [ -48.3250764, -18.9055734 ], [ -48.3240504, -18.9054622 ], [ -48.3232407, -18.9054371 ], [ -48.3226036, -18.9054622 ], [ -48.3218869, -18.9055753 ], [ -48.3196253, -18.9062412 ], [ -48.3129297, -18.9082333 ], [ -48.3060035, -18.9102054 ] ] ] ] } },
{ "type": "Feature", "properties": { "NAME": "Jardim Ipanema", "COD": 271.0, "SETOR": "Leste" }, "geometry": { "type": "MultiPolygon", "coordinates": [ [ [ [ -48.2259682, -18.9014181 ], [ -48.2267071, -18.9008548 ], [ -48.2281207, -18.8995555 ], [ -48.2287054, -18.8990531 ], [ -48.2293142, -18.8986115 ], [ -48.2303827, -18.897904 ], [ -48.2340242, -18.8954928 ], [ -48.2339744, -18.8953154 ], [ -48.2323268, -18.8914222 ], [ -48.2317417, -18.8900059 ], [ -48.2315808, -18.889593 ], [ -48.2319622, -18.8894402 ], [ -48.231464, -18.8884938 ], [ -48.231055, -18.887707 ], [ -48.2310181, -18.8876187 ], [ -48.2307884, -18.8877178 ], [ -48.2302462, -18.8864257 ], [ -48.2299114, -18.8856314 ], [ -48.2295788, -18.8847581 ], [ -48.2295554, -18.8847023 ], [ -48.2291741, -18.8846713 ], [ -48.229075, -18.8846638 ], [ -48.228576, -18.8846245 ], [ -48.2285181, -18.8844314 ], [ -48.2282257, -18.8835356 ], [ -48.2276009, -18.8816915 ], [ -48.2270325, -18.8800196 ], [ -48.2264119, -18.8781765 ], [ -48.2259116, -18.8767144 ], [ -48.222996, -18.8680476 ], [ -48.2215458, -18.8689423 ], [ -48.2214122, -18.8690383 ], [ -48.2175488, -18.8725402 ], [ -48.2173797, -18.8724961 ], [ -48.2165536, -18.8732423 ], [ -48.2174253, -18.8751077 ], [ -48.2168809, -18.8753285 ], [ -48.2165858, -18.8746103 ], [ -48.2162613, -18.8742169 ], [ -48.2143703, -18.8731205 ], [ -48.2141852, -18.8731877 ], [ -48.2140444, -18.8733781 ], [ -48.2130842, -18.873708 ], [ -48.2126282, -18.8739771 ], [ -48.2122473, -18.8743476 ], [ -48.2081328, -18.8805097 ], [ -48.2074033, -18.8814234 ], [ -48.2068936, -18.8819462 ], [ -48.2062016, -18.8825045 ], [ -48.2065798, -18.8827735 ], [ -48.208975, -18.8826365 ], [ -48.214259, -18.8824207 ], [ -48.2147606, -18.8823801 ], [ -48.2149081, -18.8825096 ], [ -48.2176185, -18.8844586 ], [ -48.2168366, -18.8861361 ], [ -48.2205729, -18.8878085 ], [ -48.222826, -18.8943432 ], [ -48.2233128, -18.8951502 ], [ -48.2259682, -18.9014181 ] ] ] ] } },
{ "type": "Feature", "properties": { "NAME": "Alto Umuarama", "COD": 504.0, "SETOR": "Leste" }, "geometry": { "type": "MultiPolygon", "coordinates": [ [ [ [ -48.231055, -18.887707 ], [ -48.231464, -18.8884938 ], [ -48.2319622, -18.8894402 ], [ -48.2315808, -18.889593 ], [ -48.2317417, -18.8900059 ], [ -48.2323268, -18.8914222 ], [ -48.2339744, -18.8953154 ], [ -48.2340242, -18.8954928 ], [ -48.2340727, -18.8955578 ], [ -48.2344164, -18.8960186 ], [ -48.2358322, -18.8950797 ], [ -48.2368244, -18.8944216 ], [ -48.2406676, -18.8918729 ], [ -48.245565, -18.888625 ], [ -48.2515669, -18.8846182 ], [ -48.2517341, -18.884508 ], [ -48.2518707, -18.8844127 ], [ -48.2520462, -18.8842898 ], [ -48.2523341, -18.8840932 ], [ -48.2523587, -18.8840737 ], [ -48.2526237, -18.8838634 ], [ -48.2529552, -18.8835331 ], [ -48.2532459, -18.8831929 ], [ -48.2534022, -18.8829989 ], [ -48.2534257, -18.8829698 ], [ -48.2536277, -18.8827157 ], [ -48.253853, -18.882381 ], [ -48.254083, -18.8819988 ], [ -48.2542544, -18.8816857 ], [ -48.2548851, -18.8803875 ], [ -48.2554084, -18.8794633 ], [ -48.2562881, -18.8784167 ], [ -48.2552827, -18.8786283 ], [ -48.2451252, -18.8816484 ], [ -48.2452191, -18.8819352 ], [ -48.2447711, -18.8820596 ], [ -48.2427756, -18.8823489 ], [ -48.2394309, -18.8854171 ], [ -48.2381273, -18.8860973 ], [ -48.2370973, -18.8864729 ], [ -48.2364697, -18.8866556 ], [ -48.2362172, -18.8867039 ], [ -48.2354612, -18.8868485 ], [ -48.2343186, -18.8869652 ], [ -48.233589, -18.8870718 ], [ -48.2330767, -18.8872012 ], [ -48.2325349, -18.8873941 ], [ -48.2323176, -18.8873941 ], [ -48.2319743, -18.8873484 ], [ -48.231055, -18.887707 ] ] ] ] } },
{ "type": "Feature", "properties": { "NAME": "Monte Hebron", "COD": 591.0, "SETOR": "Oeste" }, "geometry": { "type": "MultiPolygon", "coordinates": [ [ [ [ -48.349676435183738, -18.968072246373978 ], [ -48.336169732906775, -18.97927467017243 ], [ -48.342203464661637, -18.983619332771706 ], [ -48.347296155684106, -18.983200575046439 ], [ -48.35106031861374, -18.98288650606159 ], [ -48.352776334066959, -18.982415401473897 ], [ -48.354547704857389, -18.980792697695232 ], [ -48.354049506822577, -18.970297086724887 ], [ -48.349676435183738, -18.968072246373978 ] ] ] ] } },
{ "type": "Feature", "properties": { "NAME": "Segismundo Pereira", "COD": 492.0, "SETOR": "Leste" }, "geometry": { "type": "MultiPolygon", "coordinates": [ [ [ [ -48.229575287177646, -18.913947590341103 ], [ -48.223280423632474, -18.912282282524924 ], [ -48.223180505163505, -18.912415507150218 ], [ -48.219117154092011, -18.938627452176949 ], [ -48.219383603342607, -18.938727370645928 ], [ -48.219749971062164, -18.938594146020623 ], [ -48.220948992689813, -18.938793982958575 ], [ -48.22281413744394, -18.939060432209164 ], [ -48.224246302165859, -18.938960513740184 ], [ -48.225378711480865, -18.938960513740181 ], [ -48.226211365388956, -18.938860595271212 ], [ -48.227044019297047, -18.938560839864298 ], [ -48.227110631609698, -18.938560839864301 ], [ -48.227410387016612, -18.93829439061372 ], [ -48.227810060892494, -18.938261084457388 ], [ -48.228109816299408, -18.93806124751945 ], [ -48.228709327113229, -18.937728185956214 ], [ -48.229208919458088, -18.93749504286194 ], [ -48.22994165489721, -18.936928838204445 ], [ -48.230974145743239, -18.936029571983696 ], [ -48.232539535090453, -18.935030387293999 ], [ -48.233671944405465, -18.933964590291634 ], [ -48.235070802971052, -18.93319854869619 ], [ -48.229575287177646, -18.913947590341103 ] ] ] ] } },
{ "type": "Feature", "properties": { "NAME": "Santa Mônica", "COD": 293.0, "SETOR": "Leste" }, "geometry": { "type": "MultiPolygon", "coordinates": [ [ [ [ -48.230008267209847, -18.914297304982504 ], [ -48.229708511802933, -18.914230692669857 ], [ -48.235037496814726, -18.933115283305387 ], [ -48.235970069191787, -18.93258238480421 ], [ -48.236602886161933, -18.932016180146707 ], [ -48.237202396975761, -18.931816343208759 ], [ -48.238134969352821, -18.931350057020229 ], [ -48.238601255541354, -18.931050301613311 ], [ -48.239100847886213, -18.93091707698802 ], [ -48.239766971012685, -18.930450790799483 ], [ -48.242897749707112, -18.929484912266101 ], [ -48.255087802921572, -18.927253399792416 ], [ -48.256420049174523, -18.92685372591653 ], [ -48.259151153993059, -18.926354133571667 ], [ -48.260450094089684, -18.925754622757854 ], [ -48.261282747997775, -18.925121805787697 ], [ -48.261982177280572, -18.924488988817551 ], [ -48.262248626531161, -18.92348980412784 ], [ -48.262515075781749, -18.921924414780637 ], [ -48.26241515731278, -18.921391516279449 ], [ -48.262648300407051, -18.920725393152974 ], [ -48.262082095749541, -18.920025963870177 ], [ -48.25868486780454, -18.915363101984859 ], [ -48.258751480117176, -18.914597060389426 ], [ -48.258851398586145, -18.912898446416914 ], [ -48.258651561648207, -18.912898446416907 ], [ -48.254421679795101, -18.910866770881164 ], [ -48.245795385307268, -18.909900892347789 ], [ -48.245162568337129, -18.909734361566173 ], [ -48.244529751366969, -18.910134035442049 ], [ -48.243064280488724, -18.911699424789258 ], [ -48.239000929417237, -18.913764406481331 ], [ -48.2362698245987, -18.915030040421627 ], [ -48.234804353720456, -18.915396408141188 ], [ -48.233871781343403, -18.915363101984866 ], [ -48.233105739747955, -18.915196571203246 ], [ -48.232206473527214, -18.914896815796332 ], [ -48.231473738088091, -18.914730285014713 ], [ -48.230008267209847, -18.914297304982504 ] ] ] ] } },
{ "type": "Feature", "properties": { "NAME": "Pampulha", "COD": 245.0, "SETOR": "Sul" }, "geometry": { "type": "MultiPolygon", "coordinates": [ [ [ [ -48.249495372922055, -18.939340533664158 ], [ -48.249141952084294, -18.935295828520932 ], [ -48.24798351711609, -18.935413635466855 ], [ -48.245961164544475, -18.935570711394742 ], [ -48.24474382610331, -18.929130598351161 ], [ -48.242996356405513, -18.929562557152853 ], [ -48.241857555928291, -18.929778536553716 ], [ -48.240286796649372, -18.930171226373432 ], [ -48.23885347880735, -18.931035143976853 ], [ -48.23700783665462, -18.931859792598285 ], [ -48.235044387555966, -18.933116400021426 ], [ -48.232884593547446, -18.934726428282314 ], [ -48.235967208632331, -18.938790767916529 ], [ -48.23592793965036, -18.938947843844424 ], [ -48.235672691267531, -18.939792126956842 ], [ -48.235790498213454, -18.940008106357702 ], [ -48.23592793965036, -18.940361527195456 ], [ -48.236418801925019, -18.940616775578277 ], [ -48.23669368479883, -18.940695313542228 ], [ -48.237812850785069, -18.939752857974877 ], [ -48.238342982041701, -18.939497609592053 ], [ -48.239187265154122, -18.939438706119091 ], [ -48.239697761919771, -18.939713588992902 ], [ -48.240070817248515, -18.939988471866716 ], [ -48.240404603595287, -18.940675679051242 ], [ -48.242132438802102, -18.939968837375726 ], [ -48.249495372922055, -18.939340533664158 ] ] ] ] } },
{ "type": "Feature", "properties": { "NAME": "Santa Luzia", "COD": 292.0, "SETOR": "Sul" }, "geometry": { "type": "MultiPolygon", "coordinates": [ [ [ [ -48.240542045032207, -18.941146906834916 ], [ -48.240286796649379, -18.940420430668421 ], [ -48.240090451739519, -18.940086644321649 ], [ -48.239933375811624, -18.939851030429814 ], [ -48.239756665392747, -18.939752857974877 ], [ -48.23926580311808, -18.939477975101067 ], [ -48.238892747789336, -18.939477975101074 ], [ -48.238519692460592, -18.939497609592053 ], [ -48.238146637131848, -18.939576147555996 ], [ -48.237969926712971, -18.93967432001093 ], [ -48.237753947312122, -18.939870664920797 ], [ -48.237459429947322, -18.940008106357705 ], [ -48.237302354019427, -18.940224085758551 ], [ -48.237007836654634, -18.940361527195456 ], [ -48.236791857253777, -18.940557872105316 ], [ -48.23663478132589, -18.940714948033211 ], [ -48.236281360488128, -18.940656044560249 ], [ -48.235888670668402, -18.940381161686449 ], [ -48.235790498213468, -18.940125913303621 ], [ -48.235692325758535, -18.939929568393762 ], [ -48.235613787794584, -18.939870664920797 ], [ -48.236026112105307, -18.938888940371474 ], [ -48.232923862529432, -18.934844235228244 ], [ -48.231745793070239, -18.935708152831648 ], [ -48.230685530556968, -18.936434628998139 ], [ -48.229743074989614, -18.937121836182691 ], [ -48.228918426368182, -18.937710870912277 ], [ -48.228093777746743, -18.938260636659894 ], [ -48.226503383976834, -18.938771133425554 ], [ -48.22534494900863, -18.939026381808372 ], [ -48.22406870709451, -18.939065650790344 ], [ -48.222380140869667, -18.938947843844421 ], [ -48.220770112608768, -18.938633691988645 ], [ -48.219650946622536, -18.938476616060758 ], [ -48.218787029019133, -18.945191611978142 ], [ -48.22377418972971, -18.945741377725763 ], [ -48.230135764809347, -18.947822633770343 ], [ -48.230606992593025, -18.947822633770325 ], [ -48.230685530556968, -18.94782263377034 ], [ -48.240542045032207, -18.941146906834916 ] ] ] ] } },
{ "type": "Feature", "properties": { "NAME": "Morada Nova", "COD": 287.0, "SETOR": "Oeste" }, "geometry": { "type": "MultiPolygon", "coordinates": [ [ [ [ -48.366634746147732, -18.974329196602152 ], [ -48.360194633104143, -18.980906751082657 ], [ -48.36363066902679, -18.985717201374346 ], [ -48.363139806752123, -18.986600753468736 ], [ -48.36284528938733, -18.987896629873848 ], [ -48.36284528938733, -18.988937257896133 ], [ -48.362943461842256, -18.989565561607712 ], [ -48.362943461842278, -18.989565561607712 ], [ -48.363100537770173, -18.991214858850576 ], [ -48.363336151662011, -18.992039507472008 ], [ -48.364239338247373, -18.99294269405738 ], [ -48.364906910940917, -18.993531728786987 ], [ -48.365653021598405, -18.994317108426443 ], [ -48.365888635490244, -18.997419358002325 ], [ -48.365967173454187, -18.998754503389396 ], [ -48.368205505426644, -19.002033463384155 ], [ -48.369010519557087, -19.003034822424461 ], [ -48.369383574885831, -19.00433069882957 ], [ -48.370718720272919, -19.005783651162577 ], [ -48.370816892727852, -19.005862189126521 ], [ -48.380751945167034, -19.007452582896434 ], [ -48.387270596174567, -18.993570997768952 ], [ -48.39239519832207, -18.995259563993791 ], [ -48.39720564861377, -18.980003564497249 ], [ -48.394417550893678, -18.978550612164256 ], [ -48.393435826344351, -18.981220902938418 ], [ -48.387074251264714, -18.977647425578869 ], [ -48.381026828040866, -18.978393536236354 ], [ -48.380869752112972, -18.97654789408362 ], [ -48.367910988061865, -18.976312280191785 ], [ -48.366634746147732, -18.974329196602152 ] ] ] ] } },
{ "type": "Feature", "properties": { "NAME": "Panorama", "COD": 257.0, "SETOR": "Oeste" }, "geometry": { "type": "MultiPolygon", "coordinates": [ [ [ [ -48.321495051369702, -18.943129990424548 ], [ -48.321298706459835, -18.943993908027952 ], [ -48.32518633567517, -18.95102305580113 ], [ -48.325225604657142, -18.951337207656923 ], [ -48.325304142621086, -18.951651359512702 ], [ -48.34391764007632, -18.965513310149191 ], [ -48.344585212769864, -18.965199158293409 ], [ -48.354009768443397, -18.970107781040035 ], [ -48.363984089864559, -18.969950705112147 ], [ -48.364808738485991, -18.969597284274389 ], [ -48.365437042197556, -18.969243863436628 ], [ -48.366300959800967, -18.968890442598877 ], [ -48.367832450097914, -18.969204594454663 ], [ -48.368892712611192, -18.969047518526761 ], [ -48.369952975124463, -18.968851173616905 ], [ -48.370816892727866, -18.968458483797175 ], [ -48.371327389493516, -18.968262138887297 ], [ -48.371563003385354, -18.968026524995455 ], [ -48.371798617277193, -18.967987256013494 ], [ -48.365751194053345, -18.963628399014475 ], [ -48.368185870935676, -18.959544424889284 ], [ -48.355070030956668, -18.952515277116113 ], [ -48.321495051369702, -18.943129990424548 ] ] ] ] } }
]
}
