{
"type": "FeatureCollection",
"name": "Uberlandia",
"crs": { "type": "name", "properties": { "name": "urn:ogc:def:crs:OGC:1.3:CRS84" } },
"features": [
{ "type": "Feature", "properties": { "NAME": "Granada" }, "geometry": { "type": "MultiPolygon", "coordinates": [ [ [ [ -48.362943461842256, -18.989565561607712 ], [ -48.362943461842278, -18.989565561607712 ], [ -48.363100537770173, -18.991214858850576 ], [ -48.363336151662011, -18.992039507472008 ], [ -48.364239338247373, -18.99294269405738 ], [ -48.364906910940917, -18.993531728786987 ], [ -48.365653021598405, -18.994317108426443 ], [ -48.365888635490244, -18.997419358002325 ], [ -48.365967173454187, -18.998754503389396 ], [ -48.368205505426644, -19.002033463384151 ], [ -48.369010519557087, -19.003034822424461 ], [ -48.369383574885831, -19.00433069882957 ], [ -48.370718720272919, -19.005783651162577 ], [ -48.370816892727852, -19.005862189126521 ], [ -48.380751945167034, -19.007452582896434 ], [ -48.387270596174567, -18.993570997768952 ], [ -48.39239519832207, -18.995259563993791 ], [ -48.39720564861377, -18.980003564497249 ], [ -48.39717550000001, -18.979956699999988 ], [ -48.3973127, -18.9795948 ], [ -48.3973665, -18.9794377 ], [ -48.3973809, -18.9793958 ], [ -48.3974211, -18.9792945 ], [ -48.3975895, -18.9788421 ], [ -48.398149600000011, -18.9772732 ], [ -48.3982931, -18.9770819 ], [ -48.3985681, -18.9770402 ], [ -48.3983154, -18.9766766 ], [ -48.3755045, -18.9638985 ], [ -48.3757811, -18.9634809 ], [ -48.368197, -18.9594327 ], [ -48.368162750664595, -18.959532034085321 ], [ -48.355495884074855, -18.952743503787236 ], [ -48.3555197, -18.9527541 ], [ -48.3557994, -18.9528892 ], [ -48.3561251, -18.9530658 ], [ -48.3558131, -18.9528566 ], [ -48.355517, -18.9526474 ], [ -48.3552485, -18.9524433 ], [ -48.3549647, -18.9522157 ], [ -48.3547786, -18.9520434 ], [ -48.3546314, -18.9519078 ], [ -48.3544113, -18.9516941 ], [ -48.3540668, -18.9513319 ], [ -48.3539015, -18.9511384 ], [ -48.3537055, -18.9508982 ], [ -48.3535149, -18.9506379 ], [ -48.3532963, -18.9503273 ], [ -48.3531043, -18.9500183 ], [ -48.3529222, -18.9496959 ], [ -48.3527703, -18.9494035 ], [ -48.3526346, -18.9491195 ], [ -48.3524894, -18.9487775 ], [ -48.3523923, -18.9485158 ], [ -48.3523093, -18.9482674 ], [ -48.3511736, -18.9448149 ], [ -48.3509849, -18.9442956 ], [ -48.3507965, -18.9438182 ], [ -48.3506456, -18.9434593 ], [ -48.3504233, -18.9429627 ], [ -48.3501343, -18.9423629 ], [ -48.3499787, -18.9420586 ], [ -48.3497975, -18.9417176 ], [ -48.3494179, -18.9410478 ], [ -48.3492207, -18.9407448 ], [ -48.3491389, -18.9406268 ], [ -48.3490293, -18.9404941 ], [ -48.3488747, -18.9403085 ], [ -48.348661, -18.9399854 ], [ -48.3485854, -18.9398404 ], [ -48.348516, -18.9396648 ], [ -48.3484277, -18.9394285 ], [ -48.3483324, -18.9392078 ], [ -48.34756262205736, -18.937964108053929 ], [ -48.348798070250922, -18.936630182998684 ], [ -48.353026831651022, -18.936556507600358 ], [ -48.360359376677337, -18.936258754708444 ], [ -48.371916531237197, -18.936154736208795 ], [ -48.37173337517595, -18.929849516772599 ], [ -48.371691087779794, -18.923546261652838 ], [ -48.368101727968167, -18.918801925673382 ], [ -48.359625134866292, -18.915731326636447 ], [ -48.358439678479556, -18.901500109228877 ], [ -48.36372930000001, -18.8998557 ], [ -48.3628968, -18.8989092 ], [ -48.3625136, -18.898711 ], [ -48.3623286, -18.8986317 ], [ -48.3621304, -18.898275 ], [ -48.3619587, -18.8979315 ], [ -48.3617077, -18.8977333 ], [ -48.3616416, -18.8975087 ], [ -48.3614566, -18.897218 ], [ -48.361232, -18.8970066 ], [ -48.3610867, -18.8968613 ], [ -48.360981, -18.896597 ], [ -48.3608489, -18.8963856 ], [ -48.36073, -18.8961082 ], [ -48.3605186, -18.8958704 ], [ -48.360294, -18.895725 ], [ -48.3599901, -18.8956854 ], [ -48.3598315, -18.895474 ], [ -48.3596862, -18.8951966 ], [ -48.3595537, -18.8950028 ], [ -48.3591955, -18.8949192 ], [ -48.3591159, -18.8946963 ], [ -48.3588869, -18.8945425 ], [ -48.3584641, -18.8938555 ], [ -48.3583642, -18.8936667 ], [ -48.3581921, -18.8933306 ], [ -48.3579229, -18.8932908 ], [ -48.3578827, -18.8930364 ], [ -48.3574071, -18.8926136 ], [ -48.356905, -18.8921908 ], [ -48.3566447, -18.8918654 ], [ -48.3565879, -18.8917944 ], [ -48.3562973, -18.8915038 ], [ -48.3562147, -18.8910236 ], [ -48.3590932, -18.8831986 ], [ -48.3582946, -18.8800179 ], [ -48.3580711, -18.8796047 ], [ -48.3577387, -18.8793414 ], [ -48.3572679, -18.8791965 ], [ -48.3565126, -18.8793556 ], [ -48.3504442, -18.8834706 ], [ -48.3502421, -18.8813624 ], [ -48.349897, -18.8815758 ], [ -48.3497302, -18.8820929 ], [ -48.349483, -18.8827511 ], [ -48.3494368, -18.883098 ], [ -48.3492211, -18.8846397 ], [ -48.3407165, -18.8901073 ], [ -48.3406511, -18.8900473 ], [ -48.337703, -18.8919622 ], [ -48.3376826, -18.8919287 ], [ -48.3373956, -18.8914814 ], [ -48.337124, -18.8910208 ], [ -48.3368504, -18.8905494 ], [ -48.3367163, -18.890309 ], [ -48.336583474852077, -18.890161623229037 ], [ -48.336309274819023, -18.88969472320472 ], [ -48.3360585, -18.8891746 ], [ -48.3357936, -18.8887241 ], [ -48.3355321, -18.8882401 ], [ -48.335284, -18.8877769 ], [ -48.3350158, -18.8873214 ], [ -48.3347402, -18.8868665 ], [ -48.3344713, -18.886383 ], [ -48.3342702, -18.8860036 ], [ -48.3342616, -18.8859895 ], [ -48.3342554, -18.8859814 ], [ -48.3342459, -18.8859705 ], [ -48.3342384, -18.8859643 ], [ -48.3342304, -18.88596 ], [ -48.3337434, -18.8847406 ], [ -48.3321538, -18.8828494 ], [ -48.3312777, -18.8822212 ], [ -48.331439921054361, -18.881291161062482 ], [ -48.331871879856067, -18.880584319386969 ], [ -48.331950417820011, -18.879445518909748 ], [ -48.333049949315253, -18.878228180468582 ], [ -48.333442639134987, -18.878228180468582 ], [ -48.333756790990769, -18.878345987414498 ], [ -48.333796059972741, -18.878267449450551 ], [ -48.333913866918664, -18.877874759630828 ], [ -48.334385094702341, -18.87752133879307 ], [ -48.333874597936692, -18.878031835558716 ], [ -48.334895591467991, -18.877599876757014 ], [ -48.335209743323773, -18.877560607775035 ], [ -48.335798778053373, -18.877285724901235 ], [ -48.336584157692833, -18.877167917955312 ], [ -48.337173192422426, -18.877246455919256 ], [ -48.337919303079914, -18.87712864897334 ], [ -48.338154916971753, -18.877050111009389 ], [ -48.338469068827536, -18.877167917955312 ], [ -48.33862614475543, -18.876971573045441 ], [ -48.338743951701353, -18.877128648973326 ], [ -48.33913664152108, -18.877010842027413 ], [ -48.339278584524209, -18.876921193814908 ], [ -48.339254448467003, -18.876893035081498 ], [ -48.339720554209492, -18.876642055066313 ], [ -48.339882752178568, -18.87653961424374 ], [ -48.339879986757303, -18.87655620677134 ], [ -48.340275441998301, -18.87634326933388 ], [ -48.340314710980273, -18.875989848496111 ], [ -48.340353979962245, -18.875636427658364 ], [ -48.340432517926189, -18.875636427658357 ], [ -48.340903745709866, -18.875400813766515 ], [ -48.341217897565656, -18.874949220473841 ], [ -48.340628862836056, -18.874301282271276 ], [ -48.340668131818028, -18.874183475325356 ], [ -48.340943014691838, -18.874458358199178 ], [ -48.340903745709866, -18.87406566837943 ], [ -48.341100090619726, -18.874104937361405 ], [ -48.340314710980273, -18.87329992323096 ], [ -48.3402153, -18.8717957 ], [ -48.3081297, -18.8465079 ], [ -48.2909759, -18.8364864 ], [ -48.283252, -18.8484346 ], [ -48.2819641, -18.8501129 ], [ -48.2818038, -18.8505693 ], [ -48.281608, -18.8513333 ], [ -48.2813989, -18.8518211 ], [ -48.2807738, -18.8520475 ], [ -48.2804069, -18.8519751 ], [ -48.2800057, -18.8519419 ], [ -48.2794051, -18.8519356 ], [ -48.2784594, -18.8519922 ], [ -48.2772515, -18.8522308 ], [ -48.2704609, -18.8559928 ], [ -48.2691912, -18.8566822 ], [ -48.2629987, -18.8600448 ], [ -48.2616958, -18.8606164 ], [ -48.2602316, -18.8608207 ], [ -48.2589271, -18.8607496 ], [ -48.2576882, -18.860421 ], [ -48.2565189, -18.8598766 ], [ -48.2560477, -18.8597887 ], [ -48.2554372, -18.8600022 ], [ -48.2548731, -18.8603916 ], [ -48.2543753, -18.8609191 ], [ -48.2540966, -18.8614059 ], [ -48.2540775, -18.8607877 ], [ -48.2538026, -18.8604653 ], [ -48.2536148, -18.8600389 ], [ -48.2533413, -18.8597699 ], [ -48.252896, -18.8595364 ], [ -48.2525849, -18.8591962 ], [ -48.2524776, -18.8589018 ], [ -48.2524508, -18.8585058 ], [ -48.2523596, -18.8582469 ], [ -48.2521718, -18.8579728 ], [ -48.2485133, -18.856221399999988 ], [ -48.2479554, -18.855962499999986 ], [ -48.2460296, -18.8551807 ], [ -48.2445704, -18.8547644 ], [ -48.2435941, -18.8545614 ], [ -48.2432843, -18.8558546 ], [ -48.2438208, -18.858332 ], [ -48.233226, -18.8604387 ], [ -48.2324857, -18.8616215 ], [ -48.2309301, -18.8627687 ], [ -48.2292832, -18.8629312 ], [ -48.2280651, -18.8621808 ], [ -48.2239778, -18.8636495 ], [ -48.2234839, -18.862003 ], [ -48.2233746, -18.8616659 ], [ -48.2211885, -18.8549222 ], [ -48.2210461, -18.8547327 ], [ -48.2209174, -18.8546109 ], [ -48.217916, -18.8547023 ], [ -48.213206, -18.8548292 ], [ -48.2121814, -18.8550119 ], [ -48.211307, -18.8553165 ], [ -48.2103361, -18.85588 ], [ -48.2097031, -18.8564841 ], [ -48.2093329, -18.8569309 ], [ -48.208952, -18.857545099999989 ], [ -48.2086946, -18.858118799999989 ], [ -48.2085283, -18.8588142 ], [ -48.2084585, -18.8594995 ], [ -48.20848, -18.8601747 ], [ -48.2085765, -18.8607433 ], [ -48.2087589, -18.8613727 ], [ -48.2091291, -18.8621291 ], [ -48.2095099, -18.8627738 ], [ -48.2127179, -18.8657485 ], [ -48.2131738, -18.8663881 ], [ -48.2135869, -18.8671597 ], [ -48.2138819, -18.8677993 ], [ -48.214177, -18.8683881 ], [ -48.2143379, -18.8691699 ], [ -48.2143433, -18.8701648 ], [ -48.214295, -18.871048 ], [ -48.2143703, -18.8731205 ], [ -48.2141852, -18.8731877 ], [ -48.2140444, -18.8733781 ], [ -48.2130842, -18.873708 ], [ -48.2126282, -18.8739771 ], [ -48.2122473, -18.8743476 ], [ -48.2081328, -18.8805097 ], [ -48.2074033, -18.8814234 ], [ -48.2068936, -18.8819462 ], [ -48.2062016, -18.8825045 ], [ -48.205279, -18.883073 ], [ -48.2037876, -18.8837531 ], [ -48.2015239, -18.8844739 ], [ -48.2011591, -18.8856717 ], [ -48.201019677131477, -18.885771585112163 ], [ -48.201075032468687, -18.884985953391748 ], [ -48.199414372352663, -18.885509708281482 ], [ -48.197200158864646, -18.887709460932456 ], [ -48.195816275434623, -18.88969968843303 ], [ -48.194044904644201, -18.893313462104214 ], [ -48.193214574586186, -18.896770042188717 ], [ -48.191498559132967, -18.900488404702632 ], [ -48.189339700982153, -18.902687960537346 ], [ -48.188454015586935, -18.903787727612027 ], [ -48.1884318, -18.9038789 ], [ -48.187741, -18.9039703 ], [ -48.1868517, -18.9038544 ], [ -48.1863257, -18.9038864 ], [ -48.1858602, -18.9039987 ], [ -48.184773, -18.9045756 ], [ -48.1826838, -18.9058796 ], [ -48.1823211, -18.9063412 ], [ -48.181342, -18.9070631 ], [ -48.1806437, -18.9075025 ], [ -48.1799123, -18.9078599 ], [ -48.1784169, -18.9083698 ], [ -48.1769121, -18.9088835 ], [ -48.17602620000001, -18.9094367 ], [ -48.1754601, -18.9098002 ], [ -48.1744486, -18.9106738 ], [ -48.1740379, -18.9113434 ], [ -48.1740918, -18.9119704 ], [ -48.1741836, -18.9126064 ], [ -48.1743338, -18.9137858 ], [ -48.1756938, -18.9153208 ], [ -48.1775137, -18.9169914 ], [ -48.1785149, -18.9177888 ], [ -48.1801533, -18.9190138 ], [ -48.1904825, -18.9265749 ], [ -48.1902972, -18.9266791 ], [ -48.1926884, -18.9284563 ], [ -48.203061432634364, -18.936466671140831 ], [ -48.219117154092011, -18.938627452176949 ], [ -48.219383603342607, -18.938727370645928 ], [ -48.21963022358797, -18.938637690556696 ], [ -48.218787029019133, -18.945191611978142 ], [ -48.2184315, -18.9451519 ], [ -48.2176913, -18.9488401 ], [ -48.2175627, -18.949482 ], [ -48.216667, -18.9547381 ], [ -48.2162899, -18.9569891 ], [ -48.215956, -18.9590907 ], [ -48.2159245, -18.9593461 ], [ -48.2156299, -18.9613377 ], [ -48.2150672, -18.9650854 ], [ -48.2149051, -18.9669946 ], [ -48.2142724, -18.9711708 ], [ -48.2149332, -18.9712426 ], [ -48.2294945, -18.973217 ], [ -48.2296662, -18.9732398 ], [ -48.2345143, -18.9738854 ], [ -48.2463629, -18.9755174 ], [ -48.2480072, -18.9757343 ], [ -48.2487227, -18.9757173 ], [ -48.249942, -18.9755679 ], [ -48.2507306, -18.9754121 ], [ -48.2516542, -18.9751158 ], [ -48.2589228, -18.972062 ], [ -48.2662934, -18.9688475 ], [ -48.2658464, -18.969495 ], [ -48.2611413, -18.9836832 ], [ -48.2615581, -18.9838077 ], [ -48.2620077, -18.9911709 ], [ -48.2619088, -18.9940299 ], [ -48.2626353, -18.9943283 ], [ -48.2631931, -18.9947305 ], [ -48.263258, -18.994977 ], [ -48.2655153, -18.9960018 ], [ -48.2661121, -18.9963391 ], [ -48.2666699, -18.9963651 ], [ -48.2688494, -18.996404 ], [ -48.2697446, -18.9962224 ], [ -48.271003, -18.9963262 ], [ -48.2718203, -18.996404 ], [ -48.2725209, -18.9962743 ], [ -48.2736495, -18.9961186 ], [ -48.2739479, -18.995418 ], [ -48.2744539, -18.9950807 ], [ -48.2752322, -18.9948732 ], [ -48.2755436, -18.9944321 ], [ -48.2756604, -18.9939132 ], [ -48.2764517, -18.9929661 ], [ -48.276802, -18.9918115 ], [ -48.2773858, -18.9900731 ], [ -48.2779696, -18.9887888 ], [ -48.2796145, -18.9871132 ], [ -48.2812518, -18.9857011 ], [ -48.2815761, -18.9840276 ], [ -48.2826529, -18.9824319 ], [ -48.2829124, -18.9818481 ], [ -48.2833535, -18.9808232 ], [ -48.2837297, -18.9796167 ], [ -48.2838793, -18.979065 ], [ -48.2840599, -18.9783672 ], [ -48.2844093, -18.9776046 ], [ -48.2849414, -18.9768241 ], [ -48.2855207, -18.9763283 ], [ -48.28576480000001, -18.976242 ], [ -48.2860733, -18.9763029 ], [ -48.2863677, -18.9765474 ], [ -48.2866073, -18.9766988 ], [ -48.2869133, -18.9767499 ], [ -48.2873142, -18.9765794 ], [ -48.2876859, -18.976445 ], [ -48.2884348, -18.9763334 ], [ -48.2894261, -18.9762101 ], [ -48.2901505, -18.9758503 ], [ -48.2907733, -18.9750917 ], [ -48.2908915, -18.9749488 ], [ -48.2914747, -18.9742199 ], [ -48.2924087, -18.9725204 ], [ -48.2927298, -18.9718534 ], [ -48.2928808, -18.9713059 ], [ -48.2929207, -18.9711615 ], [ -48.2930136, -18.9705903 ], [ -48.2929817, -18.9703214 ], [ -48.2929299, -18.9698841 ], [ -48.2929008, -18.9694752 ], [ -48.2931419, -18.9696496 ], [ -48.2932223, -18.9696847 ], [ -48.2936678, -18.969515 ], [ -48.295046095566299, -18.971086380849062 ], [ -48.296646020542624, -18.972383624455571 ], [ -48.298876838330649, -18.973891202647124 ], [ -48.301967223650053, -18.974539691625331 ], [ -48.305839142539028, -18.974797232165805 ], [ -48.308303004951505, -18.974967173837129 ], [ -48.311713218972045, -18.975452540614743 ], [ -48.317202527298853, -18.975934472967037 ], [ -48.327187310273196, -18.979565393906373 ], [ -48.330835251140776, -18.980623758939988 ], [ -48.333109770910696, -18.981628742428605 ], [ -48.335985385682349, -18.982508261513335 ], [ -48.338789507660287, -18.983453758273214 ], [ -48.341604309505108, -18.983728891626107 ], [ -48.347144194120787, -18.98327202606616 ], [ -48.349790821212046, -18.983041763214548 ], [ -48.352584202532476, -18.982444796241815 ], [ -48.359029159820331, -18.976210251424479 ], [ -48.36257989520093, -18.978470584002093 ], [ -48.360194633104143, -18.980906751082657 ], [ -48.36363066902679, -18.985717201374346 ], [ -48.363139806752123, -18.986600753468736 ], [ -48.36284528938733, -18.987896629873848 ], [ -48.36284528938733, -18.988937257896133 ], [ -48.362943461842256, -18.989565561607712 ] ] ], [ [ [ -48.339490062358841, -18.877167917955312 ], [ -48.339804214214624, -18.877010842027417 ], [ -48.339879986757303, -18.87655620677134 ], [ -48.339720554209492, -18.876642055066313 ], [ -48.339278584524209, -18.876921193814908 ], [ -48.339490062358841, -18.877167917955312 ] ] ] ] } }
]
}
